{
"type": "FeatureCollection",
"name": "Amroha_resources",
"crs": { "type": "name", "properties": { "name": "urn:ogc:def:crs:OGC:1.3:CRS84" } },
"features": [
{ "type": "Feature", "properties": { "element": "node", "id": 7018940026, "addr:district": "Amroha", "addr:full": "Bijnor Road,Opposite Nisha Palace", "addr:postcode": "244221", "addr:state": "Uttar Pradesh", "amenity": "clinic", "name": "Chaudhary Nursing Home", "source": "OpenGovernmentData", "addr:block": null, "addr:subdistrict": null, "description": null, "operator": null, "operator:type": null, "healthcare": null, "healthcare:speciality": null, "natural": null, "water": null, "landuse": null, "type": null }, "geometry": { "type": "Point", "coordinates": [ 78.4619864, 28.8988075 ] } },
{ "type": "Feature", "properties": { "element": "node", "id": 7019090488, "addr:district": "Amroha", "addr:full": "Bijnor Road", "addr:postcode": "244221", "addr:state": "Uttar Pradesh", "amenity": "clinic", "name": "Shakeel Nursing Home", "source": "OpenGovernmentData", "addr:block": null, "addr:subdistrict": null, "description": null, "operator": null, "operator:type": null, "healthcare": null, "healthcare:speciality": null, "natural": null, "water": null, "landuse": null, "type": null }, "geometry": { "type": "Point", "coordinates": [ 78.4617919, 28.9023127 ] } },
{ "type": "Feature", "properties": { "element": "node", "id": 7024933949, "addr:district": "Amroha", "addr:full": "Jai Om Nagar, Near Roadways, Amroha", "addr:postcode": "244221", "addr:state": "Uttar Pradesh", "amenity": "hospital", "name": "Kalawati Hospital, Amroha", "source": "OpenGovernmentData", "addr:block": null, "addr:subdistrict": null, "description": null, "operator": null, "operator:type": null, "healthcare": null, "healthcare:speciality": null, "natural": null, "water": null, "landuse": null, "type": null }, "geometry": { "type": "Point", "coordinates": [ 78.4735259, 28.8961992 ] } },
{ "type": "Feature", "properties": { "element": "node", "id": 7025745288, "addr:district": "Moradabad", "addr:full": "15 K.M Milestone Delhi Road Choudharpur", "addr:postcode": "244102", "addr:state": "Uttar Pradesh", "amenity": "hospital", "name": "Ahsan Eye & General Hospital", "source": "OpenGovernmentData", "addr:block": null, "addr:subdistrict": null, "description": null, "operator": null, "operator:type": null, "healthcare": null, "healthcare:speciality": null, "natural": null, "water": null, "landuse": null, "type": null }, "geometry": { "type": "Point", "coordinates": [ 78.6239308, 28.8189443 ] } },
{ "type": "Feature", "properties": { "element": "node", "id": 7027632364, "addr:district": "Amroha", "addr:full": "Nal Street,Mangal Bazar Road", "addr:postcode": "244221", "addr:state": "Uttar Pradesh", "amenity": "hospital", "name": "Shujaat Hospital", "source": "OpenGovernmentData", "addr:block": null, "addr:subdistrict": null, "description": null, "operator": null, "operator:type": null, "healthcare": null, "healthcare:speciality": null, "natural": null, "water": null, "landuse": null, "type": null }, "geometry": { "type": "Point", "coordinates": [ 78.4646507, 28.8983485 ] } },
{ "type": "Feature", "properties": { "element": "node", "id": 7027876718, "addr:district": "Amroha", "addr:full": "Amroha Road, Joya District", "addr:postcode": "244222", "addr:state": "Uttar Pradesh", "amenity": "hospital", "name": "Delhi Surgical and Maternity Center", "source": "OpenGovernmentData", "addr:block": null, "addr:subdistrict": null, "description": null, "operator": null, "operator:type": null, "healthcare": null, "healthcare:speciality": null, "natural": null, "water": null, "landuse": null, "type": null }, "geometry": { "type": "Point", "coordinates": [ 78.4703971, 28.8394354 ] } },
{ "type": "Feature", "properties": { "element": "node", "id": 7031997863, "addr:district": "Amroha", "addr:full": "Atrasi Road(OppositeAvas Vikas Colony-Ii)", "addr:postcode": "244221", "addr:state": "Uttar Pradesh", "amenity": "clinic", "name": "Sanjeevni Nursing Home, Amroha", "source": "OpenGovernmentData", "addr:block": null, "addr:subdistrict": null, "description": null, "operator": null, "operator:type": null, "healthcare": null, "healthcare:speciality": null, "natural": null, "water": null, "landuse": null, "type": null }, "geometry": { "type": "Point", "coordinates": [ 78.4603576, 28.8934916 ] } },
{ "type": "Feature", "properties": { "element": "node", "id": 7037362564, "addr:district": "Amroha", "addr:full": "Jay Om Nagar, Near Roadways Bus Stand", "addr:postcode": "244221", "addr:state": "Uttar Pradesh", "amenity": "hospital", "name": "Garg Surgical Center, Amroha", "source": "OpenGovernmentData", "addr:block": null, "addr:subdistrict": null, "description": null, "operator": null, "operator:type": null, "healthcare": null, "healthcare:speciality": null, "natural": null, "water": null, "landuse": null, "type": null }, "geometry": { "type": "Point", "coordinates": [ 78.4739889, 28.8967488 ] } },
{ "type": "Feature", "properties": { "element": "node", "id": 7167157773, "addr:district": "Jyotiba Phule Nagar", "addr:full": "kailsa", "addr:postcode": "244222", "addr:state": "Uttar Pradesh", "amenity": "hospital", "name": "Gov. Hospital Kailsa", "source": "OpenGovernmentData", "addr:block": "Joya", "addr:subdistrict": "Amroha", "description": null, "operator": null, "operator:type": null, "healthcare": null, "healthcare:speciality": null, "natural": null, "water": null, "landuse": null, "type": null }, "geometry": { "type": "Point", "coordinates": [ 78.5617304, 28.8672322 ] } },
{ "type": "Feature", "properties": { "element": "node", "id": 7176145568, "addr:district": "Jyotiba Phule Nagar", "addr:full": "SALAMPUR", "addr:postcode": "244235", "addr:state": "Uttar Pradesh", "amenity": "hospital", "name": "Government Hospital Salampur Gosai", "source": "OpenGovernmentData", "addr:block": "Gajraula", "addr:subdistrict": "Dhanaura", "description": "Government Hospital", "operator": null, "operator:type": null, "healthcare": null, "healthcare:speciality": null, "natural": null, "water": null, "landuse": null, "type": null }, "geometry": { "type": "Point", "coordinates": [ 78.2417589, 28.8686562 ] } },
{ "type": "Feature", "properties": { "element": "node", "id": 7177530175, "addr:district": "Jyotiba Phule Nagar", "addr:full": "JAMNA KHASS", "addr:postcode": "244221", "addr:state": "Uttar Pradesh", "amenity": "hospital", "name": "Government. Hospital", "source": "OpenGovernmentData", "addr:block": null, "addr:subdistrict": "Amroha", "description": null, "operator": null, "operator:type": null, "healthcare": null, "healthcare:speciality": null, "natural": null, "water": null, "landuse": null, "type": null }, "geometry": { "type": "Point", "coordinates": [ 78.4907471, 29.0304939 ] } },
{ "type": "Feature", "properties": { "element": "node", "id": 7181048673, "addr:district": "Jyotiba Phule Nagar", "addr:full": "naugawa sadat", "addr:postcode": "244251", "addr:state": "Uttar Pradesh", "amenity": "hospital", "name": "Government Hospital NAUGAWA SADAT", "source": "OpenGovernmentData", "addr:block": null, "addr:subdistrict": "Amroha", "description": "Government Hospital", "operator": null, "operator:type": null, "healthcare": null, "healthcare:speciality": null, "natural": null, "water": null, "landuse": null, "type": null }, "geometry": { "type": "Point", "coordinates": [ 78.4000106, 29.0030465 ] } },
{ "type": "Feature", "properties": { "element": "node", "id": 7181171126, "addr:district": "Jyotiba Phule Nagar", "addr:full": "MAHASHERA", "addr:postcode": "244235", "addr:state": "Uttar Pradesh", "amenity": "hospital", "name": "Government Hospital Dhanaura", "source": "OpenGovernmentData", "addr:block": "Gajraula", "addr:subdistrict": "Dhanaura", "description": null, "operator": null, "operator:type": null, "healthcare": null, "healthcare:speciality": null, "natural": null, "water": null, "landuse": null, "type": null }, "geometry": { "type": "Point", "coordinates": [ 78.2566667, 28.966243 ] } },
{ "type": "Feature", "properties": { "element": "node", "id": 7182068647, "addr:district": "Jyotiba Phule Nagar", "addr:full": "DHYOTI", "addr:postcode": "244231", "addr:state": "Uttar Pradesh", "amenity": "hospital", "name": "Government Hospital", "source": "OpenGovernmentData", "addr:block": null, "addr:subdistrict": "Dhanaura", "description": null, "operator": null, "operator:type": null, "healthcare": null, "healthcare:speciality": null, "natural": null, "water": null, "landuse": null, "type": null }, "geometry": { "type": "Point", "coordinates": [ 78.1782804, 28.9654205 ] } },
{ "type": "Feature", "properties": { "element": "node", "id": 7190344250, "addr:district": "Jyotiba Phule Nagar", "addr:full": "RAJABPUR", "addr:postcode": null, "addr:state": "Uttar Pradesh", "amenity": "hospital", "name": "Government Hospital,RAJABPUR", "source": "OpenGovernmentData", "addr:block": "Joya", "addr:subdistrict": "Amroha", "description": null, "operator": null, "operator:type": null, "healthcare": null, "healthcare:speciality": null, "natural": null, "water": null, "landuse": null, "type": null }, "geometry": { "type": "Point", "coordinates": [ 78.3755723, 28.836922 ] } },
{ "type": "Feature", "properties": { "element": "node", "id": 7204041973, "addr:district": "Jyotiba Phule Nagar", "addr:full": "JOya road Amroha", "addr:postcode": "244221", "addr:state": "Uttar Pradesh", "amenity": "hospital", "name": "District Combind Hospital JP Nagar", "source": "OpenGovernmentData", "addr:block": null, "addr:subdistrict": "Amroha", "description": "District Hospital", "operator": null, "operator:type": null, "healthcare": null, "healthcare:speciality": null, "natural": null, "water": null, "landuse": null, "type": null }, "geometry": { "type": "Point", "coordinates": [ 78.4696045, 28.8651047 ] } },
{ "type": "Feature", "properties": { "element": "node", "id": 7492122017, "addr:district": "Amroha", "addr:full": "Sihore", "addr:postcode": "244221", "addr:state": "Uttar Pradesh", "amenity": "hospital", "name": "National Hospital & Maternity Centre", "source": "Local Knowledge", "addr:block": null, "addr:subdistrict": null, "description": null, "operator": null, "operator:type": null, "healthcare": null, "healthcare:speciality": null, "natural": null, "water": null, "landuse": null, "type": null }, "geometry": { "type": "Point", "coordinates": [ 78.5398663, 28.8250838 ] } },
{ "type": "Feature", "properties": { "element": "node", "id": 7492122019, "addr:district": "Moradabad", "addr:full": "Bhikampur Asdalpur", "addr:postcode": "244501", "addr:state": "Uttar Pradesh", "amenity": "hospital", "name": "Ansar Hospital and Hijama Centre", "source": "Local Knowledge", "addr:block": null, "addr:subdistrict": null, "description": null, "operator": null, "operator:type": null, "healthcare": null, "healthcare:speciality": null, "natural": null, "water": null, "landuse": null, "type": null }, "geometry": { "type": "Point", "coordinates": [ 78.6368575, 28.9753304 ] } },
{ "type": "Feature", "properties": { "element": "node", "id": 7492122025, "addr:district": "Amroha", "addr:full": "Pathkoi Choraya, Joya", "addr:postcode": "244222", "addr:state": "Uttar Pradesh", "amenity": "hospital", "name": "J H Indian Hospital", "source": "Local Knowledge", "addr:block": null, "addr:subdistrict": null, "description": null, "operator": null, "operator:type": null, "healthcare": null, "healthcare:speciality": null, "natural": null, "water": null, "landuse": null, "type": null }, "geometry": { "type": "Point", "coordinates": [ 78.4840086, 28.8430706 ] } },
{ "type": "Feature", "properties": { "element": "node", "id": 7492122031, "addr:district": "Amroha", "addr:full": "Mohalla Mullana, Amroha", "addr:postcode": "244221", "addr:state": "Uttar Pradesh", "amenity": "hospital", "name": "Bareen Hospital", "source": "Local Knowledge", "addr:block": null, "addr:subdistrict": null, "description": null, "operator": null, "operator:type": null, "healthcare": null, "healthcare:speciality": null, "natural": null, "water": null, "landuse": null, "type": null }, "geometry": { "type": "Point", "coordinates": [ 78.4651859, 28.9032511 ] } },
{ "type": "Feature", "properties": { "element": "node", "id": 7492122034, "addr:district": "Moradabad", "addr:full": "Kanwar Path, Kasampur", "addr:postcode": "244501", "addr:state": "Uttar Pradesh", "amenity": "hospital", "name": "Ahmad Hospital", "source": "Local Knowledge", "addr:block": null, "addr:subdistrict": null, "description": null, "operator": null, "operator:type": null, "healthcare": null, "healthcare:speciality": null, "natural": null, "water": null, "landuse": null, "type": null }, "geometry": { "type": "Point", "coordinates": [ 78.6346851, 29.0646509 ] } },
{ "type": "Feature", "properties": { "element": "node", "id": 7950631084, "addr:district": null, "addr:full": null, "addr:postcode": null, "addr:state": null, "amenity": "school", "name": "CT  T R  Memorial Public Schools", "source": null, "addr:block": null, "addr:subdistrict": null, "description": null, "operator": "School", "operator:type": "public", "healthcare": null, "healthcare:speciality": null, "natural": null, "water": null, "landuse": null, "type": null }, "geometry": { "type": "Point", "coordinates": [ 78.2757675, 28.7240178 ] } },
{ "type": "Feature", "properties": { "element": "node", "id": 7950645185, "addr:district": null, "addr:full": null, "addr:postcode": null, "addr:state": null, "amenity": "school", "name": "CityPublic School", "source": null, "addr:block": null, "addr:subdistrict": null, "description": null, "operator": "School", "operator:type": "public", "healthcare": null, "healthcare:speciality": null, "natural": null, "water": null, "landuse": null, "type": null }, "geometry": { "type": "Point", "coordinates": [ 78.2804476, 28.7204413 ] } },
{ "type": "Feature", "properties": { "element": "node", "id": 7950645186, "addr:district": null, "addr:full": null, "addr:postcode": null, "addr:state": null, "amenity": "school", "name": "Muncipal School", "source": null, "addr:block": null, "addr:subdistrict": null, "description": null, "operator": "School", "operator:type": "government", "healthcare": null, "healthcare:speciality": null, "natural": null, "water": null, "landuse": null, "type": null }, "geometry": { "type": "Point", "coordinates": [ 78.280791, 28.7259434 ] } },
{ "type": "Feature", "properties": { "element": "node", "id": 7950645205, "addr:district": null, "addr:full": null, "addr:postcode": null, "addr:state": null, "amenity": "hospital", "name": "Dr Bharatveer Hospita", "source": null, "addr:block": null, "addr:subdistrict": null, "description": null, "operator": null, "operator:type": null, "healthcare": "hospital", "healthcare:speciality": "general", "natural": null, "water": null, "landuse": null, "type": null }, "geometry": { "type": "Point", "coordinates": [ 78.2797519, 28.7242008 ] } },
{ "type": "Feature", "properties": { "element": "node", "id": 7950645206, "addr:district": null, "addr:full": null, "addr:postcode": null, "addr:state": null, "amenity": "hospital", "name": "Dr Vinod Hospita", "source": null, "addr:block": null, "addr:subdistrict": null, "description": null, "operator": null, "operator:type": null, "healthcare": "hospital", "healthcare:speciality": "general", "natural": null, "water": null, "landuse": null, "type": null }, "geometry": { "type": "Point", "coordinates": [ 78.2818334, 28.7248282 ] } },
{ "type": "Feature", "properties": { "element": "node", "id": 7950645207, "addr:district": null, "addr:full": null, "addr:postcode": null, "addr:state": null, "amenity": "hospital", "name": "Dr Umesh Mittal Clinic", "source": null, "addr:block": null, "addr:subdistrict": null, "description": null, "operator": null, "operator:type": null, "healthcare": "hospital", "healthcare:speciality": "clinic", "natural": null, "water": null, "landuse": null, "type": null }, "geometry": { "type": "Point", "coordinates": [ 78.2830537, 28.721747 ] } },
{ "type": "Feature", "properties": { "element": "node", "id": 7950645208, "addr:district": null, "addr:full": null, "addr:postcode": null, "addr:state": null, "amenity": "hospital", "name": "Shiv Sawroop Hospital", "source": null, "addr:block": null, "addr:subdistrict": null, "description": null, "operator": null, "operator:type": null, "healthcare": "hospital", "healthcare:speciality": "general", "natural": null, "water": null, "landuse": null, "type": null }, "geometry": { "type": "Point", "coordinates": [ 78.2808085, 28.7200104 ] } },
{ "type": "Feature", "properties": { "element": "node", "id": 7950645209, "addr:district": null, "addr:full": null, "addr:postcode": null, "addr:state": null, "amenity": "hospital", "name": "Dr Nasrool Hasan", "source": null, "addr:block": null, "addr:subdistrict": null, "description": null, "operator": null, "operator:type": null, "healthcare": "hospital", "healthcare:speciality": "clinic", "natural": null, "water": null, "landuse": null, "type": null }, "geometry": { "type": "Point", "coordinates": [ 78.2781238, 28.7208313 ] } },
{ "type": "Feature", "properties": { "element": "node", "id": 7950645211, "addr:district": null, "addr:full": null, "addr:postcode": null, "addr:state": null, "amenity": "college", "name": "SLJ Degree College", "source": null, "addr:block": null, "addr:subdistrict": null, "description": null, "operator": null, "operator:type": null, "healthcare": null, "healthcare:speciality": null, "natural": null, "water": null, "landuse": null, "type": null }, "geometry": { "type": "Point", "coordinates": [ 78.2846415, 28.7240543 ] } },
{ "type": "Feature", "properties": { "element": "node", "id": 7950745839, "addr:district": null, "addr:full": null, "addr:postcode": null, "addr:state": null, "amenity": "school", "name": "T.R schhol", "source": null, "addr:block": null, "addr:subdistrict": null, "description": null, "operator": null, "operator:type": null, "healthcare": null, "healthcare:speciality": null, "natural": null, "water": null, "landuse": null, "type": null }, "geometry": { "type": "Point", "coordinates": [ 78.2756281, 28.7240371 ] } },
{ "type": "Feature", "properties": { "element": "relation", "id": 2833266, "addr:district": null, "addr:full": null, "addr:postcode": null, "addr:state": null, "amenity": null, "name": null, "source": null, "addr:block": null, "addr:subdistrict": null, "description": null, "operator": null, "operator:type": null, "healthcare": null, "healthcare:speciality": null, "natural": "water", "water": "river", "landuse": null, "type": "multipolygon" }, "geometry": { "type": "Polygon", "coordinates": [ [ [ 78.1469735, 28.7624656 ], [ 78.1481394, 28.7605515 ], [ 78.1511283, 28.7585817 ], [ 78.1567881, 28.756296 ], [ 78.1613296, 28.754693 ], [ 78.1696916, 28.7520313 ], [ 78.1731528, 28.7498473 ], [ 78.1741279, 28.7479516 ], [ 78.1738947, 28.7455541 ], [ 78.1753786, 28.7451267 ], [ 78.1770532, 28.7443461 ], [ 78.1793638, 28.7451824 ], [ 78.1805084, 28.7451453 ], [ 78.1812504, 28.7447921 ], [ 78.1821831, 28.7441974 ], [ 78.1829038, 28.7446992 ], [ 78.1835821, 28.7450152 ], [ 78.1840485, 28.7447364 ], [ 78.1836881, 28.7442346 ], [ 78.1845287, 28.7433908 ], [ 78.1852144, 28.7412794 ], [ 78.1847056, 28.7405545 ], [ 78.18443, 28.7394579 ], [ 78.1842393, 28.738826 ], [ 78.1839251, 28.7380867 ], [ 78.1844088, 28.7369859 ], [ 78.185066, 28.7356848 ], [ 78.1854475, 28.7346253 ], [ 78.1848328, 28.731707 ], [ 78.1846536, 28.7293023 ], [ 78.1842816, 28.7288259 ], [ 78.184536, 28.7274503 ], [ 78.1866346, 28.7233421 ], [ 78.1872705, 28.7225428 ], [ 78.1892631, 28.7197543 ], [ 78.1900687, 28.7200146 ], [ 78.1928244, 28.7183414 ], [ 78.1954105, 28.7148278 ], [ 78.1968448, 28.7133245 ], [ 78.1980863, 28.7122162 ], [ 78.1988844, 28.709844 ], [ 78.1996382, 28.7081329 ], [ 78.1994165, 28.7057411 ], [ 78.2006802, 28.702377 ], [ 78.201168, 28.7011714 ], [ 78.2020326, 28.7004519 ], [ 78.2048925, 28.6968931 ], [ 78.2056241, 28.6960764 ], [ 78.2055355, 28.6960569 ], [ 78.2063114, 28.6948512 ], [ 78.2059345, 28.6936455 ], [ 78.2087501, 28.6909228 ], [ 78.2089718, 28.6892308 ], [ 78.2086289, 28.6884245 ], [ 78.2084176, 28.6879277 ], [ 78.2097297, 28.6849061 ], [ 78.2111445, 28.6782808 ], [ 78.2112553, 28.6762384 ], [ 78.2100138, 28.6753826 ], [ 78.2092379, 28.6743906 ], [ 78.2089275, 28.6741183 ], [ 78.2084176, 28.6740016 ], [ 78.2073312, 28.6733986 ], [ 78.2058458, 28.6731457 ], [ 78.2047595, 28.6721537 ], [ 78.2025647, 28.670831 ], [ 78.2013231, 28.670617 ], [ 78.1983232, 28.6692023 ], [ 78.1976151, 28.6679033 ], [ 78.1969714, 28.6657569 ], [ 78.1970358, 28.6650791 ], [ 78.1980228, 28.6636294 ], [ 78.2013917, 28.660052 ], [ 78.2015419, 28.6594306 ], [ 78.2027864, 28.6568511 ], [ 78.2028722, 28.6566439 ], [ 78.2029795, 28.6559096 ], [ 78.2026362, 28.6532546 ], [ 78.2025289, 28.6509008 ], [ 78.2031727, 28.6475866 ], [ 78.2032156, 28.6464568 ], [ 78.2030224, 28.6452139 ], [ 78.2023787, 28.6429918 ], [ 78.2019925, 28.6422574 ], [ 78.200705, 28.6408261 ], [ 78.1972503, 28.6389052 ], [ 78.1956625, 28.6375681 ], [ 78.1951689, 28.636909 ], [ 78.1952119, 28.6359673 ], [ 78.1960487, 28.6337827 ], [ 78.1960916, 28.6321253 ], [ 78.1956839, 28.6308446 ], [ 78.194139, 28.6300347 ], [ 78.1939244, 28.6298652 ], [ 78.1938493, 28.6297522 ], [ 78.1938064, 28.6296204 ], [ 78.19386, 28.6290648 ], [ 78.1938922, 28.6289235 ], [ 78.1941604, 28.6274544 ], [ 78.1954264, 28.6243844 ], [ 78.1958556, 28.622482 ], [ 78.1974005, 28.6215779 ], [ 78.200469, 28.6183946 ], [ 78.20122, 28.6165863 ], [ 78.2025289, 28.6121032 ], [ 78.2028079, 28.6100876 ], [ 78.2026577, 28.6099369 ], [ 78.2036233, 28.6089573 ], [ 78.2052111, 28.6079777 ], [ 78.2068634, 28.6066779 ], [ 78.2078504, 28.6057548 ], [ 78.2086444, 28.6046057 ], [ 78.2087302, 28.6036637 ], [ 78.2083869, 28.6025334 ], [ 78.2073354, 28.6013088 ], [ 78.2046747, 28.5989351 ], [ 78.2053399, 28.5962598 ], [ 78.2080435, 28.5893076 ], [ 78.2083654, 28.5874799 ], [ 78.2097816, 28.5841449 ], [ 78.2109832, 28.5803764 ], [ 78.2114339, 28.5772861 ], [ 78.211863, 28.5721982 ], [ 78.2129788, 28.5695599 ], [ 78.2161545, 28.5604197 ], [ 78.2177639, 28.5549729 ], [ 78.2192015, 28.5526358 ], [ 78.2200813, 28.54913 ], [ 78.2201457, 28.548508 ], [ 78.2200384, 28.5465101 ], [ 78.2200598, 28.5459634 ], [ 78.2203602, 28.542137 ], [ 78.2200384, 28.5408929 ], [ 78.2191157, 28.5399127 ], [ 78.2190084, 28.5372925 ], [ 78.218708, 28.5359541 ], [ 78.2174849, 28.5337296 ], [ 78.2160043, 28.530374 ], [ 78.2156396, 28.5291298 ], [ 78.2154894, 28.5274331 ], [ 78.2155216, 28.5261794 ], [ 78.2156288, 28.524954 ], [ 78.2080013, 28.5246582 ], [ 78.2082818, 28.52618 ], [ 78.2069069, 28.5290085 ], [ 78.2051966, 28.5343706 ], [ 78.2045674, 28.5367081 ], [ 78.2044601, 28.5387251 ], [ 78.2036233, 28.5418165 ], [ 78.2030654, 28.5438335 ], [ 78.2013917, 28.54602 ], [ 78.2005977, 28.5492997 ], [ 78.2013273, 28.55224 ], [ 78.2019818, 28.5555007 ], [ 78.2019281, 28.5558682 ], [ 78.2008445, 28.5572063 ], [ 78.1995249, 28.5587518 ], [ 78.1988704, 28.5601559 ], [ 78.1986236, 28.5612301 ], [ 78.1986451, 28.5634163 ], [ 78.1986344, 28.5649051 ], [ 78.1990313, 28.5658474 ], [ 78.1986987, 28.5682879 ], [ 78.198967, 28.5697201 ], [ 78.1989133, 28.5711052 ], [ 78.1973576, 28.5754394 ], [ 78.1923365, 28.5842391 ], [ 78.1919503, 28.5860103 ], [ 78.1904268, 28.5892699 ], [ 78.1899762, 28.5910033 ], [ 78.1898689, 28.5915873 ], [ 78.1897831, 28.594225 ], [ 78.1898904, 28.5949598 ], [ 78.1905663, 28.5957982 ], [ 78.1909954, 28.5965518 ], [ 78.1909526, 28.59723 ], [ 78.1905019, 28.5990952 ], [ 78.1904053, 28.6008755 ], [ 78.1908357, 28.6045146 ], [ 78.1894257, 28.6093798 ], [ 78.1891961, 28.6119131 ], [ 78.1881468, 28.6134388 ], [ 78.1870975, 28.616634 ], [ 78.1880484, 28.619858 ], [ 78.1871958, 28.6205776 ], [ 78.1872614, 28.6229667 ], [ 78.1862121, 28.6250967 ], [ 78.18513, 28.6272842 ], [ 78.1853267, 28.6366381 ], [ 78.1840807, 28.6420774 ], [ 78.1850644, 28.6427681 ], [ 78.1855891, 28.6434012 ], [ 78.1860809, 28.6443509 ], [ 78.1874254, 28.6448689 ], [ 78.1866909, 28.647603 ], [ 78.1875555, 28.6512996 ], [ 78.1898169, 28.6560466 ], [ 78.1921669, 28.6603265 ], [ 78.1930315, 28.664684 ], [ 78.1929429, 28.6660846 ], [ 78.1925438, 28.6668044 ], [ 78.1918522, 28.667975 ], [ 78.1914353, 28.6708115 ], [ 78.1921669, 28.6724649 ], [ 78.1919452, 28.6739627 ], [ 78.1899277, 28.6753242 ], [ 78.1889079, 28.6791949 ], [ 78.1887527, 28.6852438 ], [ 78.1883758, 28.6864496 ], [ 78.1886148, 28.6882133 ], [ 78.1884867, 28.6905921 ], [ 78.1875999, 28.6920896 ], [ 78.185218, 28.6945216 ], [ 78.1844296, 28.6958236 ], [ 78.1840083, 28.6980794 ], [ 78.1834984, 28.6988767 ], [ 78.1832324, 28.6999463 ], [ 78.1832989, 28.7007241 ], [ 78.1833654, 28.7015992 ], [ 78.183055, 28.7022798 ], [ 78.1847621, 28.7048272 ], [ 78.187356, 28.7071606 ], [ 78.1896395, 28.7094551 ], [ 78.1902603, 28.7105051 ], [ 78.1905928, 28.7119051 ], [ 78.1903018, 28.7149208 ], [ 78.1893267, 28.7175235 ], [ 78.1874613, 28.7195498 ], [ 78.1854051, 28.7199402 ], [ 78.1839637, 28.7210184 ], [ 78.1824374, 28.7233793 ], [ 78.1821407, 28.7244203 ], [ 78.1813563, 28.7252754 ], [ 78.18089, 28.727283 ], [ 78.1802329, 28.7288259 ], [ 78.1791306, 28.729811 ], [ 78.1770956, 28.7329338 ], [ 78.1751666, 28.7348483 ], [ 78.175209, 28.7368372 ], [ 78.1736827, 28.7373576 ], [ 78.1727712, 28.7380825 ], [ 78.1723261, 28.7389933 ], [ 78.1721353, 28.7398111 ], [ 78.1710754, 28.740666 ], [ 78.169634, 28.7411493 ], [ 78.1686165, 28.7415024 ], [ 78.1676414, 28.742283 ], [ 78.1667087, 28.743454 ], [ 78.1661999, 28.7448107 ], [ 78.1651612, 28.7457214 ], [ 78.1632746, 28.7468365 ], [ 78.1609005, 28.7468737 ], [ 78.1608793, 28.7468737 ], [ 78.1596286, 28.7469295 ], [ 78.1574452, 28.7483048 ], [ 78.1576996, 28.7494198 ], [ 78.157318, 28.7504234 ], [ 78.1558554, 28.7504234 ], [ 78.1539052, 28.750219 ], [ 78.1515946, 28.7517615 ], [ 78.1517642, 28.7523376 ], [ 78.1516582, 28.7528766 ], [ 78.1510011, 28.7533412 ], [ 78.1494536, 28.7541589 ], [ 78.1464439, 28.7549808 ], [ 78.1444721, 28.7583588 ], [ 78.1438998, 28.7598082 ], [ 78.1414867, 28.7624791 ], [ 78.143095, 28.763708 ], [ 78.1447324, 28.764959 ], [ 78.1469735, 28.7624656 ] ], [ [ 78.1927465, 28.637444 ], [ 78.1928449, 28.6387678 ], [ 78.1928121, 28.6394873 ], [ 78.1921563, 28.6395161 ], [ 78.1908118, 28.6383649 ], [ 78.1896969, 28.637703 ], [ 78.1884508, 28.6370986 ], [ 78.1876966, 28.6350552 ], [ 78.1871064, 28.6334147 ], [ 78.1864178, 28.6320332 ], [ 78.1877294, 28.6299034 ], [ 78.1890739, 28.6301912 ], [ 78.1905823, 28.630479 ], [ 78.1910086, 28.6324074 ], [ 78.1913693, 28.6331845 ], [ 78.1924514, 28.6350552 ], [ 78.1927465, 28.637444 ] ], [ [ 78.1903527, 28.6412141 ], [ 78.1906807, 28.6424803 ], [ 78.1910414, 28.6435451 ], [ 78.1910414, 28.6440344 ], [ 78.1905167, 28.6441783 ], [ 78.1889099, 28.6430559 ], [ 78.1883853, 28.6415594 ], [ 78.1873031, 28.6409551 ], [ 78.1861555, 28.640437 ], [ 78.1860571, 28.6390556 ], [ 78.1865817, 28.6375591 ], [ 78.1874999, 28.6390556 ], [ 78.1882541, 28.6399766 ], [ 78.1889755, 28.6407824 ], [ 78.1894674, 28.641358 ], [ 78.1903527, 28.6412141 ] ], [ [ 78.1913209, 28.6478364 ], [ 78.1906558, 28.6470193 ], [ 78.1905893, 28.646494 ], [ 78.1908775, 28.645599 ], [ 78.1908553, 28.6449374 ], [ 78.1911879, 28.6449569 ], [ 78.1917865, 28.645599 ], [ 78.1920303, 28.6459686 ], [ 78.1922742, 28.6465523 ], [ 78.1923186, 28.6477586 ], [ 78.1920525, 28.6481866 ], [ 78.1913209, 28.6478364 ] ], [ [ 78.1875742, 28.6463772 ], [ 78.1880841, 28.6459686 ], [ 78.187818, 28.6448985 ], [ 78.18886, 28.6450153 ], [ 78.1895473, 28.6459297 ], [ 78.1899242, 28.6477975 ], [ 78.1909662, 28.6490427 ], [ 78.1914096, 28.6490816 ], [ 78.1920969, 28.6494124 ], [ 78.1928285, 28.6503073 ], [ 78.1928506, 28.6510661 ], [ 78.1926733, 28.6518443 ], [ 78.1921412, 28.6527198 ], [ 78.1914096, 28.6539649 ], [ 78.1915204, 28.655424 ], [ 78.1913874, 28.6565718 ], [ 78.1905893, 28.6563189 ], [ 78.1902789, 28.6556769 ], [ 78.1894364, 28.6540622 ], [ 78.1887713, 28.6508521 ], [ 78.1885718, 28.6505797 ], [ 78.1881728, 28.6501322 ], [ 78.1879511, 28.6492178 ], [ 78.1873968, 28.6484785 ], [ 78.187552, 28.6477975 ], [ 78.1875742, 28.6463772 ] ], [ [ 78.1832765, 28.7334963 ], [ 78.1831116, 28.7343111 ], [ 78.1829767, 28.7346529 ], [ 78.1827368, 28.7349289 ], [ 78.1823771, 28.7352443 ], [ 78.1824221, 28.7341534 ], [ 78.1827968, 28.733286 ], [ 78.1829144, 28.7327087 ], [ 78.1829467, 28.7325499 ], [ 78.1830666, 28.7332202 ], [ 78.1832765, 28.7334963 ] ], [ [ 78.1817775, 28.7381489 ], [ 78.1805934, 28.7383329 ], [ 78.1799789, 28.7387141 ], [ 78.1785249, 28.7390821 ], [ 78.1780453, 28.7393712 ], [ 78.1776555, 28.7387535 ], [ 78.1774457, 28.7380306 ], [ 78.177071, 28.7373209 ], [ 78.1767712, 28.7365323 ], [ 78.1768012, 28.7352969 ], [ 78.1777755, 28.7346134 ], [ 78.178405, 28.7342586 ], [ 78.1786448, 28.7339431 ], [ 78.1789746, 28.7329442 ], [ 78.1792594, 28.7326419 ], [ 78.1793493, 28.7323002 ], [ 78.1795592, 28.7318796 ], [ 78.1802187, 28.7314853 ], [ 78.1807133, 28.7310647 ], [ 78.1810131, 28.7309464 ], [ 78.182512, 28.7312356 ], [ 78.1828268, 28.7322082 ], [ 78.1822722, 28.7329705 ], [ 78.1819124, 28.7333123 ], [ 78.1814628, 28.7337591 ], [ 78.1813279, 28.734298 ], [ 78.1813279, 28.7348106 ], [ 78.1813728, 28.73531 ], [ 78.1815827, 28.7356255 ], [ 78.1813429, 28.7360855 ], [ 78.1812979, 28.7365455 ], [ 78.1812529, 28.7369004 ], [ 78.1814628, 28.7371369 ], [ 78.1818525, 28.7373735 ], [ 78.1822872, 28.7374392 ], [ 78.1822272, 28.7378466 ], [ 78.1817775, 28.7381489 ] ], [ [ 78.1794692, 28.7436556 ], [ 78.17842, 28.7437608 ], [ 78.1779253, 28.7437871 ], [ 78.1771159, 28.7435768 ], [ 78.178435, 28.7423546 ], [ 78.179829, 28.7414477 ], [ 78.1814628, 28.7404095 ], [ 78.1818075, 28.7397655 ], [ 78.1817026, 28.7395158 ], [ 78.1818975, 28.7392398 ], [ 78.1827818, 28.7391084 ], [ 78.1836812, 28.7390558 ], [ 78.1840709, 28.7396866 ], [ 78.1843107, 28.7405015 ], [ 78.1844456, 28.7408695 ], [ 78.1841009, 28.7418026 ], [ 78.1830666, 28.742854 ], [ 78.1818375, 28.7434848 ], [ 78.1810431, 28.7436031 ], [ 78.1794692, 28.7436556 ] ], [ [ 78.1836662, 28.7436162 ], [ 78.1835912, 28.7438528 ], [ 78.1835463, 28.744155 ], [ 78.1835163, 28.7443128 ], [ 78.1833214, 28.744431 ], [ 78.1828418, 28.744247 ], [ 78.1826619, 28.7440762 ], [ 78.182572, 28.7440368 ], [ 78.1822272, 28.7439579 ], [ 78.1818975, 28.7439842 ], [ 78.1819874, 28.7438528 ], [ 78.182467, 28.7436425 ], [ 78.1829317, 28.7433928 ], [ 78.1833214, 28.7433139 ], [ 78.1837861, 28.74313 ], [ 78.1841608, 28.7429854 ], [ 78.183951, 28.7433271 ], [ 78.183861, 28.7434979 ], [ 78.1836662, 28.7436162 ] ], [ [ 78.155037, 28.7532621 ], [ 78.1544973, 28.7530387 ], [ 78.1537329, 28.7529796 ], [ 78.152856, 28.7530847 ], [ 78.1521515, 28.7531898 ], [ 78.1522265, 28.752927 ], [ 78.1522265, 28.7528219 ], [ 78.1522864, 28.7525722 ], [ 78.1522939, 28.7524014 ], [ 78.152234, 28.7522306 ], [ 78.152174, 28.7521057 ], [ 78.1520091, 28.7519349 ], [ 78.1520241, 28.7517443 ], [ 78.1522715, 28.7514881 ], [ 78.1525862, 28.7513632 ], [ 78.1533132, 28.7510084 ], [ 78.1539203, 28.7505025 ], [ 78.154295, 28.7503448 ], [ 78.1550145, 28.7504499 ], [ 78.1555391, 28.7505616 ], [ 78.1560487, 28.7507785 ], [ 78.1570905, 28.7508376 ], [ 78.1577275, 28.7505879 ], [ 78.1579898, 28.7501871 ], [ 78.1580198, 28.7499243 ], [ 78.1580872, 28.7495826 ], [ 78.1581472, 28.7493001 ], [ 78.1580797, 28.748781 ], [ 78.1581997, 28.7482684 ], [ 78.158402, 28.7479662 ], [ 78.1588517, 28.7478216 ], [ 78.1595637, 28.7477428 ], [ 78.160448, 28.7476376 ], [ 78.1613399, 28.7471908 ], [ 78.1617746, 28.7469871 ], [ 78.1622767, 28.7471317 ], [ 78.1630262, 28.7471974 ], [ 78.1634159, 28.7472762 ], [ 78.163978, 28.7468754 ], [ 78.1643602, 28.7467046 ], [ 78.1656268, 28.7460803 ], [ 78.1664662, 28.745259 ], [ 78.1667809, 28.7444967 ], [ 78.1672981, 28.7435439 ], [ 78.1674854, 28.7431234 ], [ 78.1679126, 28.74267 ], [ 78.1687295, 28.7421049 ], [ 78.1698387, 28.74152 ], [ 78.1706331, 28.7412309 ], [ 78.1715025, 28.7407972 ], [ 78.1719222, 28.7405212 ], [ 78.1723194, 28.7401269 ], [ 78.1725667, 28.7395881 ], [ 78.1728215, 28.7389375 ], [ 78.1730988, 28.7382869 ], [ 78.1733312, 28.7380701 ], [ 78.1744703, 28.7376101 ], [ 78.1750774, 28.7373012 ], [ 78.1754222, 28.7370186 ], [ 78.1754971, 28.7374261 ], [ 78.1756095, 28.7379255 ], [ 78.1754521, 28.7383264 ], [ 78.1750774, 28.7390821 ], [ 78.1749725, 28.7392858 ], [ 78.1752648, 28.7396012 ], [ 78.1754446, 28.7403241 ], [ 78.175587, 28.74129 ], [ 78.1750025, 28.7420851 ], [ 78.1743954, 28.7422954 ], [ 78.1739607, 28.7427225 ], [ 78.1734061, 28.7435965 ], [ 78.1726267, 28.7448779 ], [ 78.1720946, 28.7453444 ], [ 78.1712327, 28.7458241 ], [ 78.1697113, 28.7463498 ], [ 78.1694265, 28.7465863 ], [ 78.1688869, 28.7471185 ], [ 78.1684222, 28.7474931 ], [ 78.167388, 28.7478413 ], [ 78.1651246, 28.7485904 ], [ 78.163978, 28.7489058 ], [ 78.163236, 28.7491226 ], [ 78.1627489, 28.7493329 ], [ 78.1619619, 28.749392 ], [ 78.1607928, 28.749806 ], [ 78.1602532, 28.7502791 ], [ 78.1600508, 28.7504762 ], [ 78.1596461, 28.7507193 ], [ 78.1594887, 28.7509033 ], [ 78.1592489, 28.7510544 ], [ 78.1595412, 28.7509624 ], [ 78.1599534, 28.7508573 ], [ 78.1600208, 28.7507127 ], [ 78.1601857, 28.7506208 ], [ 78.1603506, 28.7506273 ], [ 78.1606953, 28.7504959 ], [ 78.1612649, 28.7503054 ], [ 78.1619844, 28.7499703 ], [ 78.1616546, 28.7504302 ], [ 78.1606953, 28.751245 ], [ 78.1601707, 28.7514027 ], [ 78.1596911, 28.7517181 ], [ 78.1591739, 28.7520006 ], [ 78.1582521, 28.7525919 ], [ 78.1579299, 28.7527431 ], [ 78.1574277, 28.753019 ], [ 78.1567307, 28.7532161 ], [ 78.1558688, 28.7533541 ], [ 78.155037, 28.7532621 ] ], [ [ 78.1604705, 28.7474339 ], [ 78.1602831, 28.7474865 ], [ 78.1599009, 28.7474077 ], [ 78.1595112, 28.7474208 ], [ 78.1595187, 28.7472762 ], [ 78.1596311, 28.7471645 ], [ 78.159811, 28.7470528 ], [ 78.1601782, 28.7469871 ], [ 78.1608827, 28.7469871 ], [ 78.1606129, 28.7472631 ], [ 78.1604705, 28.7474339 ] ], [ [ 78.1734361, 28.7475522 ], [ 78.1725368, 28.7481567 ], [ 78.172177, 28.7484984 ], [ 78.1715924, 28.7488598 ], [ 78.1711802, 28.7489518 ], [ 78.1714725, 28.7478348 ], [ 78.1717798, 28.7474142 ], [ 78.1723869, 28.7473682 ], [ 78.1727466, 28.7475654 ], [ 78.172889, 28.747296 ], [ 78.1731963, 28.7474405 ], [ 78.1734361, 28.7475522 ] ], [ [ 78.1670957, 28.7504893 ], [ 78.1665336, 28.7505945 ], [ 78.1654019, 28.7506076 ], [ 78.1651771, 28.7505025 ], [ 78.1645475, 28.7503448 ], [ 78.1647349, 28.750174 ], [ 78.1649672, 28.7499834 ], [ 78.1654544, 28.7497797 ], [ 78.1660315, 28.7494512 ], [ 78.1663762, 28.7491226 ], [ 78.1665936, 28.7490241 ], [ 78.1671856, 28.7489189 ], [ 78.1674554, 28.7490438 ], [ 78.1676503, 28.7491686 ], [ 78.1679426, 28.7490701 ], [ 78.1683923, 28.7491424 ], [ 78.1683248, 28.7494249 ], [ 78.1679576, 28.7498323 ], [ 78.1676053, 28.7500031 ], [ 78.1670807, 28.7502397 ], [ 78.1670957, 28.7504893 ] ], [ [ 78.1525413, 28.7546616 ], [ 78.1518593, 28.7550099 ], [ 78.1516044, 28.7551281 ], [ 78.1511698, 28.7552201 ], [ 78.1503828, 28.7552858 ], [ 78.1500606, 28.7552332 ], [ 78.1501055, 28.754701 ], [ 78.1503978, 28.754366 ], [ 78.15084, 28.7543265 ], [ 78.152189, 28.7538797 ], [ 78.1527361, 28.7538206 ], [ 78.1534856, 28.7539717 ], [ 78.1537479, 28.7540834 ], [ 78.1549545, 28.7540966 ], [ 78.1554641, 28.7540243 ], [ 78.1538828, 28.7545171 ], [ 78.1531408, 28.7545302 ], [ 78.1525413, 28.7546616 ] ], [ [ 78.2092184, 28.5262265 ], [ 78.2094759, 28.5263538 ], [ 78.2098085, 28.5265847 ], [ 78.2099587, 28.5266413 ], [ 78.2100499, 28.5267403 ], [ 78.2102376, 28.5268534 ], [ 78.2103503, 28.5272257 ], [ 78.2104039, 28.5278714 ], [ 78.2103503, 28.5286396 ], [ 78.2102162, 28.5289413 ], [ 78.2098943, 28.5291581 ], [ 78.2096797, 28.5291958 ], [ 78.2093257, 28.5288564 ], [ 78.2092398, 28.5279091 ], [ 78.2090092, 28.5269948 ], [ 78.2089609, 28.5263632 ], [ 78.2090199, 28.5262312 ], [ 78.2092184, 28.5262265 ] ], [ [ 78.2083118, 28.5318068 ], [ 78.2093418, 28.5332112 ], [ 78.2095992, 28.5339276 ], [ 78.2100606, 28.5347759 ], [ 78.2102108, 28.5353603 ], [ 78.2102001, 28.5380936 ], [ 78.2100284, 28.5388759 ], [ 78.2098567, 28.5392812 ], [ 78.2095027, 28.5397336 ], [ 78.208065, 28.5408269 ], [ 78.207829, 28.5406855 ], [ 78.2074427, 28.5399033 ], [ 78.2069063, 28.5377732 ], [ 78.2060802, 28.5356524 ], [ 78.2060802, 28.5352848 ], [ 78.2070672, 28.532099 ], [ 78.2073033, 28.5317314 ], [ 78.2075822, 28.5315523 ], [ 78.207947, 28.5316088 ], [ 78.2083118, 28.5318068 ] ], [ [ 78.2135475, 28.5414772 ], [ 78.2137621, 28.5415432 ], [ 78.2139552, 28.5417034 ], [ 78.2141912, 28.5420616 ], [ 78.2149315, 28.5429569 ], [ 78.2152534, 28.543579 ], [ 78.2152104, 28.5439277 ], [ 78.2148027, 28.5443518 ], [ 78.2137835, 28.5449079 ], [ 78.2134509, 28.5457844 ], [ 78.2132793, 28.5460294 ], [ 78.212657, 28.5462085 ], [ 78.2123566, 28.5459446 ], [ 78.2120669, 28.5446628 ], [ 78.2120025, 28.5441256 ], [ 78.212142, 28.5434942 ], [ 78.2124532, 28.5430418 ], [ 78.213054, 28.5424951 ], [ 78.2133115, 28.5415244 ], [ 78.2135475, 28.5414772 ] ], [ [ 78.1997824, 28.5682408 ], [ 78.1998896, 28.5612113 ], [ 78.2016492, 28.5574608 ], [ 78.2022714, 28.5566692 ], [ 78.202883, 28.5564996 ], [ 78.2056618, 28.5572158 ], [ 78.2056403, 28.557687 ], [ 78.2061338, 28.5578754 ], [ 78.2078934, 28.5591382 ], [ 78.2089662, 28.5607024 ], [ 78.2090521, 28.5610228 ], [ 78.2085156, 28.5631902 ], [ 78.2085156, 28.5645282 ], [ 78.2087731, 28.5662243 ], [ 78.208344, 28.5683727 ], [ 78.2078504, 28.5724809 ], [ 78.2057905, 28.57657 ], [ 78.2055115, 28.5764758 ], [ 78.2053613, 28.5760612 ], [ 78.2050395, 28.5739884 ], [ 78.2046962, 28.5732723 ], [ 78.2015848, 28.5712937 ], [ 78.2007479, 28.5705776 ], [ 78.2003188, 28.5701253 ], [ 78.1999755, 28.5693903 ], [ 78.1997824, 28.5682408 ] ], [ [ 78.1972389, 28.613007 ], [ 78.1979275, 28.61341 ], [ 78.198321, 28.6141584 ], [ 78.1977964, 28.6143024 ], [ 78.197075, 28.615022 ], [ 78.1964519, 28.6144751 ], [ 78.1961896, 28.6137266 ], [ 78.1955993, 28.6133524 ], [ 78.1950091, 28.6129782 ], [ 78.1947796, 28.6123161 ], [ 78.1954026, 28.6110783 ], [ 78.1963208, 28.6103586 ], [ 78.1966487, 28.6111646 ], [ 78.1967798, 28.6124025 ], [ 78.1972389, 28.613007 ] ], [ [ 78.1886148, 28.6259026 ], [ 78.188582, 28.6265358 ], [ 78.1883197, 28.6270251 ], [ 78.1872704, 28.6276008 ], [ 78.1871064, 28.625845 ], [ 78.1888115, 28.6225061 ], [ 78.1897297, 28.6198004 ], [ 78.1893362, 28.6186202 ], [ 78.1891067, 28.6180157 ], [ 78.1888443, 28.6149932 ], [ 78.1892706, 28.6136403 ], [ 78.1905823, 28.6119419 ], [ 78.1908118, 28.6104449 ], [ 78.1924186, 28.6078828 ], [ 78.1939926, 28.6063571 ], [ 78.1944516, 28.6056086 ], [ 78.1950419, 28.6052343 ], [ 78.1958289, 28.6053495 ], [ 78.1956977, 28.6060692 ], [ 78.1954026, 28.6071055 ], [ 78.1954026, 28.6080268 ], [ 78.1954354, 28.6090056 ], [ 78.1950091, 28.6098116 ], [ 78.1946812, 28.610704 ], [ 78.1943533, 28.6113661 ], [ 78.1944189, 28.6123449 ], [ 78.1950419, 28.6135827 ], [ 78.1961896, 28.6147917 ], [ 78.1970422, 28.6162886 ], [ 78.1975012, 28.6185914 ], [ 78.1950091, 28.619858 ], [ 78.1934023, 28.6204624 ], [ 78.1906807, 28.6247225 ], [ 78.1899592, 28.6247225 ], [ 78.1889755, 28.6250679 ], [ 78.1886148, 28.6259026 ] ], [ [ 78.2036031, 28.675441 ], [ 78.2040687, 28.6753632 ], [ 78.2044456, 28.6756355 ], [ 78.2045786, 28.6762384 ], [ 78.2048003, 28.6774638 ], [ 78.2041352, 28.6773277 ], [ 78.2036918, 28.6769192 ], [ 78.2031819, 28.6764913 ], [ 78.2029602, 28.6760828 ], [ 78.2025611, 28.6757911 ], [ 78.2024281, 28.6750714 ], [ 78.2030267, 28.6753048 ], [ 78.2036031, 28.675441 ] ], [ [ 78.2081258, 28.6819568 ], [ 78.2077046, 28.6829099 ], [ 78.2081258, 28.6830265 ], [ 78.2089461, 28.682871 ], [ 78.2087687, 28.6843102 ], [ 78.207505, 28.683435 ], [ 78.2070395, 28.6828515 ], [ 78.2074607, 28.6811399 ], [ 78.2078376, 28.6796228 ], [ 78.2077933, 28.6788643 ], [ 78.2074829, 28.6782613 ], [ 78.2076381, 28.6779306 ], [ 78.2080815, 28.6779112 ], [ 78.208414, 28.6773277 ], [ 78.2088131, 28.6773666 ], [ 78.2092565, 28.6776778 ], [ 78.2090791, 28.6782808 ], [ 78.2086357, 28.6794672 ], [ 78.2082588, 28.6804203 ], [ 78.2083032, 28.6811399 ], [ 78.2081258, 28.6819568 ] ], [ [ 78.2071725, 28.6856911 ], [ 78.2073499, 28.6864302 ], [ 78.2073277, 28.6870331 ], [ 78.2071947, 28.6873832 ], [ 78.2053545, 28.6890557 ], [ 78.2049998, 28.6879083 ], [ 78.2048446, 28.6869358 ], [ 78.2051328, 28.6863329 ], [ 78.2059753, 28.6856133 ], [ 78.2059975, 28.6845047 ], [ 78.2061527, 28.684388 ], [ 78.2065074, 28.6850104 ], [ 78.2067734, 28.6852632 ], [ 78.2071725, 28.6856911 ] ], [ [ 78.1951563, 28.7120218 ], [ 78.1940035, 28.7122357 ], [ 78.1933605, 28.7127412 ], [ 78.1926068, 28.7127996 ], [ 78.1924072, 28.7127412 ], [ 78.1909218, 28.7103107 ], [ 78.1895695, 28.7069662 ], [ 78.1885718, 28.7057217 ], [ 78.1869756, 28.7052161 ], [ 78.1854015, 28.7047689 ], [ 78.1845147, 28.7028826 ], [ 78.1842708, 28.7015603 ], [ 78.1840935, 28.7008408 ], [ 78.1847586, 28.6993045 ], [ 78.1847364, 28.6980405 ], [ 78.186377, 28.6961542 ], [ 78.1867095, 28.6946178 ], [ 78.1887935, 28.6925369 ], [ 78.1907001, 28.6898142 ], [ 78.1901902, 28.6876165 ], [ 78.189636, 28.6846797 ], [ 78.1898133, 28.6802258 ], [ 78.1901902, 28.6779112 ], [ 78.1909218, 28.6762773 ], [ 78.1924072, 28.6755577 ], [ 78.1932054, 28.6748769 ], [ 78.1931388, 28.6730679 ], [ 78.1929171, 28.6725622 ], [ 78.1934049, 28.6705976 ], [ 78.1937374, 28.6692748 ], [ 78.1948238, 28.670228 ], [ 78.1960431, 28.6705003 ], [ 78.1972181, 28.6711422 ], [ 78.1981049, 28.672426 ], [ 78.1987922, 28.6727567 ], [ 78.1995238, 28.6729318 ], [ 78.2005215, 28.6742544 ], [ 78.2020734, 28.6754021 ], [ 78.2026055, 28.6763746 ], [ 78.2033592, 28.6770943 ], [ 78.2043347, 28.6777556 ], [ 78.2050885, 28.6783975 ], [ 78.2054876, 28.6811788 ], [ 78.2049998, 28.6832794 ], [ 78.2038913, 28.6862551 ], [ 78.2036696, 28.6881805 ], [ 78.2041352, 28.6888418 ], [ 78.2045343, 28.6885695 ], [ 78.2046008, 28.6892697 ], [ 78.2041795, 28.6909422 ], [ 78.2035144, 28.6921869 ], [ 78.2006323, 28.6930815 ], [ 78.199546, 28.6942094 ], [ 78.199679, 28.6951818 ], [ 78.2001446, 28.6959208 ], [ 78.2003885, 28.6966598 ], [ 78.1994573, 28.6973404 ], [ 78.198637, 28.6979238 ], [ 78.1978611, 28.6990517 ], [ 78.1975063, 28.7003935 ], [ 78.1973955, 28.7032716 ], [ 78.1963092, 28.7079384 ], [ 78.1965309, 28.7090662 ], [ 78.1952893, 28.7098635 ], [ 78.1945134, 28.710544 ], [ 78.1952007, 28.7106024 ], [ 78.195378, 28.7106024 ], [ 78.1951563, 28.7110301 ], [ 78.195112, 28.7113607 ], [ 78.1958879, 28.711244 ], [ 78.1966861, 28.7112051 ], [ 78.1966195, 28.7113218 ], [ 78.1962205, 28.7118468 ], [ 78.1951563, 28.7120218 ] ], [ [ 78.2032484, 28.695279 ], [ 78.2034258, 28.6959986 ], [ 78.2031375, 28.6962903 ], [ 78.2028937, 28.696407 ], [ 78.202029, 28.6965042 ], [ 78.2022729, 28.6959208 ], [ 78.2024281, 28.6953179 ], [ 78.2031597, 28.6942094 ], [ 78.2032484, 28.695279 ] ], [ [ 78.1985262, 28.7066745 ], [ 78.1988809, 28.7063245 ], [ 78.1989474, 28.7071606 ], [ 78.1989252, 28.7078412 ], [ 78.1982601, 28.7085607 ], [ 78.1981049, 28.7081329 ], [ 78.1980163, 28.7077634 ], [ 78.1980606, 28.7075495 ], [ 78.198371, 28.707394 ], [ 78.1983488, 28.7071995 ], [ 78.1985262, 28.7066745 ] ] ] } },
{ "type": "Feature", "properties": { "element": "relation", "id": 2835025, "addr:district": null, "addr:full": null, "addr:postcode": null, "addr:state": null, "amenity": null, "name": null, "source": null, "addr:block": null, "addr:subdistrict": null, "description": null, "operator": null, "operator:type": null, "healthcare": null, "healthcare:speciality": null, "natural": "water", "water": "river", "landuse": null, "type": "multipolygon" }, "geometry": { "type": "Polygon", "coordinates": [ [ [ 78.395512, 28.1900717 ], [ 78.3952323, 28.1903035 ], [ 78.3951023, 28.1901659 ], [ 78.394847, 28.1903516 ], [ 78.3945505, 28.1905672 ], [ 78.3943737, 28.1909196 ], [ 78.3900825, 28.1983222 ], [ 78.3892316, 28.2011021 ], [ 78.3887535, 28.203224 ], [ 78.3882925, 28.2038109 ], [ 78.3874045, 28.2038862 ], [ 78.3864995, 28.2055415 ], [ 78.3854408, 28.207904 ], [ 78.3846041, 28.2104321 ], [ 78.3840235, 28.2103719 ], [ 78.3829818, 28.2118014 ], [ 78.3819402, 28.2137876 ], [ 78.3808132, 28.2164509 ], [ 78.3801472, 28.2165412 ], [ 78.378969, 28.2180007 ], [ 78.378508, 28.2196257 ], [ 78.3777054, 28.2208595 ], [ 78.377398, 28.2218225 ], [ 78.3769199, 28.22265 ], [ 78.376271, 28.2225898 ], [ 78.3755026, 28.2236882 ], [ 78.3742731, 28.225614 ], [ 78.3736217, 28.2279815 ], [ 78.3734286, 28.2282178 ], [ 78.3727312, 28.2282462 ], [ 78.371948, 28.228993 ], [ 78.3715832, 28.2295979 ], [ 78.3716264, 28.2296311 ], [ 78.3712506, 28.2304392 ], [ 78.3711111, 28.2310726 ], [ 78.3706018, 28.2322639 ], [ 78.3705532, 28.2323203 ], [ 78.370446, 28.2323581 ], [ 78.3699632, 28.2320273 ], [ 78.3697593, 28.2320178 ], [ 78.369298, 28.2321691 ], [ 78.3688795, 28.2324432 ], [ 78.3681822, 28.2332372 ], [ 78.3667767, 28.2364037 ], [ 78.3658433, 28.2381523 ], [ 78.3656394, 28.2393811 ], [ 78.3649635, 28.2406571 ], [ 78.3637726, 28.2420559 ], [ 78.3624101, 28.2428971 ], [ 78.3589339, 28.2444944 ], [ 78.3587622, 28.2450426 ], [ 78.3577537, 28.2468006 ], [ 78.3565736, 28.2484261 ], [ 78.3559084, 28.2496359 ], [ 78.3554578, 28.2502029 ], [ 78.3541488, 28.2514883 ], [ 78.3532476, 28.2522065 ], [ 78.3504152, 28.2541344 ], [ 78.3485269, 28.2548149 ], [ 78.3474326, 28.2552685 ], [ 78.3469391, 28.255552 ], [ 78.3460593, 28.256119 ], [ 78.3432054, 28.2582926 ], [ 78.3392572, 28.2619025 ], [ 78.3383775, 28.2629042 ], [ 78.3375191, 28.2637169 ], [ 78.3345151, 28.2662494 ], [ 78.333013, 28.2677046 ], [ 78.3321333, 28.2682149 ], [ 78.3305401, 28.2690653 ], [ 78.3297461, 28.2693204 ], [ 78.328802, 28.2695566 ], [ 78.3275145, 28.2697084 ], [ 78.326522, 28.2695683 ], [ 78.3249831, 28.2695762 ], [ 78.3209929, 28.2687854 ], [ 78.319017, 28.2690045 ], [ 78.317385, 28.270353 ], [ 78.3139801, 28.2728827 ], [ 78.311255, 28.2746591 ], [ 78.3108902, 28.2750559 ], [ 78.3106756, 28.2754717 ], [ 78.3102464, 28.2770024 ], [ 78.3088517, 28.2792322 ], [ 78.3082938, 28.2803849 ], [ 78.3071565, 28.2815942 ], [ 78.3045816, 28.2836539 ], [ 78.3032298, 28.2852601 ], [ 78.301878, 28.2887557 ], [ 78.3008909, 28.2921756 ], [ 78.3001184, 28.2937627 ], [ 78.2977152, 28.2966346 ], [ 78.2973504, 28.2979383 ], [ 78.2969779, 28.3001555 ], [ 78.2968139, 28.3011312 ], [ 78.29602, 28.3028693 ], [ 78.2944107, 28.3054576 ], [ 78.2931447, 28.3080457 ], [ 78.2928014, 28.3086125 ], [ 78.2889819, 28.3133919 ], [ 78.2871794, 28.3165277 ], [ 78.286879, 28.3172833 ], [ 78.2851624, 28.3189267 ], [ 78.2827592, 28.3221001 ], [ 78.2822013, 28.3236679 ], [ 78.2804847, 28.3261045 ], [ 78.279798, 28.3277289 ], [ 78.279283, 28.3281822 ], [ 78.2750988, 28.3331497 ], [ 78.2740044, 28.3342451 ], [ 78.2739186, 28.3343962 ], [ 78.2737255, 28.3358694 ], [ 78.2735027, 28.3417228 ], [ 78.2732283, 28.3448812 ], [ 78.2726238, 28.3477616 ], [ 78.2724117, 28.3490115 ], [ 78.2721795, 28.3494016 ], [ 78.2721584, 28.3495967 ], [ 78.271979, 28.3501447 ], [ 78.2719051, 28.3509157 ], [ 78.2722664, 28.3511853 ], [ 78.2723415, 28.3515913 ], [ 78.2721591, 28.3539423 ], [ 78.271805, 28.3562838 ], [ 78.2713544, 28.358512 ], [ 78.2710862, 28.3590596 ], [ 78.2698953, 28.3611178 ], [ 78.26967, 28.3619297 ], [ 78.2696056, 28.3640633 ], [ 78.2690477, 28.365555 ], [ 78.26864, 28.3661025 ], [ 78.2680177, 28.3673109 ], [ 78.2669019, 28.3685948 ], [ 78.2665157, 28.3692745 ], [ 78.2661295, 28.3715402 ], [ 78.2660651, 28.373466 ], [ 78.2660866, 28.3735793 ], [ 78.2661509, 28.3738625 ], [ 78.2662582, 28.3742023 ], [ 78.2667947, 28.3753351 ], [ 78.2675028, 28.376128 ], [ 78.2683825, 28.3765434 ], [ 78.2711291, 28.3773363 ], [ 78.2732963, 28.3780915 ], [ 78.2734036, 28.3807156 ], [ 78.2735753, 28.3816784 ], [ 78.273983, 28.3829622 ], [ 78.2742834, 28.3862092 ], [ 78.2745838, 28.3870964 ], [ 78.2749915, 28.3877382 ], [ 78.2756138, 28.3883423 ], [ 78.2786608, 28.3929672 ], [ 78.2819438, 28.397252 ], [ 78.2845831, 28.4004231 ], [ 78.2872438, 28.4054815 ], [ 78.2881665, 28.407954 ], [ 78.2882738, 28.4084258 ], [ 78.2882738, 28.4107095 ], [ 78.2886171, 28.4160883 ], [ 78.2885742, 28.4173527 ], [ 78.2882094, 28.418636 ], [ 78.2877373, 28.4196551 ], [ 78.287394, 28.4212403 ], [ 78.2872653, 28.4234105 ], [ 78.2872653, 28.4256373 ], [ 78.2870722, 28.4261279 ], [ 78.2856989, 28.4265619 ], [ 78.2850981, 28.426845 ], [ 78.2844329, 28.4275055 ], [ 78.28336, 28.4290151 ], [ 78.2817077, 28.4326947 ], [ 78.2803988, 28.4362043 ], [ 78.279798, 28.4384308 ], [ 78.2793045, 28.4411855 ], [ 78.2792616, 28.4420346 ], [ 78.2796907, 28.4438647 ], [ 78.2802701, 28.4449779 ], [ 78.2808709, 28.4458647 ], [ 78.2812786, 28.4468835 ], [ 78.2812571, 28.4479212 ], [ 78.2811069, 28.4495437 ], [ 78.2806992, 28.4503549 ], [ 78.279798, 28.4515435 ], [ 78.2794118, 28.4519208 ], [ 78.2782531, 28.4526754 ], [ 78.2776737, 28.4526189 ], [ 78.2772231, 28.4521283 ], [ 78.2772016, 28.4509586 ], [ 78.2769227, 28.4508266 ], [ 78.2755923, 28.4508266 ], [ 78.2749486, 28.4509209 ], [ 78.2711935, 28.451751 ], [ 78.2702708, 28.4522038 ], [ 78.2695412, 28.4530339 ], [ 78.2687902, 28.4536187 ], [ 78.2674598, 28.4542602 ], [ 78.2667517, 28.4547695 ], [ 78.2656574, 28.4557883 ], [ 78.2652283, 28.4562976 ], [ 78.2650566, 28.4567315 ], [ 78.2651424, 28.4580709 ], [ 78.2655501, 28.4595801 ], [ 78.2657432, 28.461127 ], [ 78.2652068, 28.4621268 ], [ 78.2638335, 28.4636548 ], [ 78.2620311, 28.4650507 ], [ 78.2596493, 28.4682952 ], [ 78.259027, 28.469691 ], [ 78.2586837, 28.4710492 ], [ 78.2586622, 28.4714641 ], [ 78.2588982, 28.4724827 ], [ 78.2588982, 28.4731429 ], [ 78.2587909, 28.4733881 ], [ 78.2580399, 28.4739162 ], [ 78.2561517, 28.4742557 ], [ 78.2548857, 28.4745764 ], [ 78.250122, 28.4769153 ], [ 78.2491779, 28.477217 ], [ 78.24759, 28.4778961 ], [ 78.2441783, 28.4815362 ], [ 78.2422685, 28.4840635 ], [ 78.2391357, 28.4890425 ], [ 78.237741, 28.4922108 ], [ 78.2374191, 28.4926634 ], [ 78.2344579, 28.4956242 ], [ 78.2329559, 28.4973026 ], [ 78.2323336, 28.4976609 ], [ 78.2314753, 28.4978306 ], [ 78.2305741, 28.4977551 ], [ 78.2289219, 28.4969254 ], [ 78.2262611, 28.4959825 ], [ 78.224448, 28.4956808 ], [ 78.2220876, 28.4956808 ], [ 78.2174957, 28.4967557 ], [ 78.2136762, 28.4986037 ], [ 78.2126677, 28.4998483 ], [ 78.2119382, 28.5013569 ], [ 78.2108224, 28.5029598 ], [ 78.2058442, 28.51301 ], [ 78.2047069, 28.5149709 ], [ 78.2046855, 28.5151029 ], [ 78.204664, 28.5156119 ], [ 78.2052434, 28.5176482 ], [ 78.2082052, 28.5246582 ], [ 78.2156288, 28.524954 ], [ 78.2158678, 28.524813 ], [ 78.219459, 28.5209665 ], [ 78.2214546, 28.5204575 ], [ 78.2251024, 28.5202783 ], [ 78.2262075, 28.5201275 ], [ 78.2272696, 28.5187983 ], [ 78.2278061, 28.5177048 ], [ 78.2286858, 28.5167055 ], [ 78.2325911, 28.5133682 ], [ 78.2337713, 28.5127083 ], [ 78.2357025, 28.509352 ], [ 78.2367325, 28.508051 ], [ 78.2399726, 28.5051094 ], [ 78.2436633, 28.5025826 ], [ 78.2445321, 28.5016322 ], [ 78.2468176, 28.4991317 ], [ 78.2472253, 28.4983963 ], [ 78.2505512, 28.4952659 ], [ 78.2527184, 28.4919279 ], [ 78.2539201, 28.4907587 ], [ 78.2558512, 28.4888728 ], [ 78.2568598, 28.487694 ], [ 78.258748, 28.484403 ], [ 78.2599711, 28.4813665 ], [ 78.260808, 28.4796501 ], [ 78.26231, 28.4775377 ], [ 78.2652068, 28.4744821 ], [ 78.2666874, 28.473407 ], [ 78.2757211, 28.4679745 ], [ 78.2769227, 28.4668616 ], [ 78.2770085, 28.4667484 ], [ 78.2784891, 28.4639566 ], [ 78.2785535, 28.4637302 ], [ 78.2789397, 28.4611836 ], [ 78.2791328, 28.4607308 ], [ 78.2817721, 28.4582219 ], [ 78.285656, 28.45443 ], [ 78.2897973, 28.450487 ], [ 78.2939386, 28.4474495 ], [ 78.2952904, 28.4468269 ], [ 78.2974362, 28.4443176 ], [ 78.2982087, 28.4438836 ], [ 78.2996034, 28.4435817 ], [ 78.3003974, 28.4432987 ], [ 78.3017278, 28.4427516 ], [ 78.3023929, 28.4423742 ], [ 78.3033156, 28.4415252 ], [ 78.3040452, 28.4402044 ], [ 78.3040666, 28.4401289 ], [ 78.3040881, 28.4400346 ], [ 78.3040881, 28.4385063 ], [ 78.3038735, 28.4365439 ], [ 78.3042598, 28.4341287 ], [ 78.3043027, 28.4319021 ], [ 78.3042812, 28.4283924 ], [ 78.3042598, 28.428147 ], [ 78.3037662, 28.4258448 ], [ 78.3037662, 28.4257505 ], [ 78.304131, 28.4238823 ], [ 78.3041739, 28.4227878 ], [ 78.3037233, 28.4181265 ], [ 78.3034658, 28.4170508 ], [ 78.3018565, 28.4143709 ], [ 78.300848, 28.4107662 ], [ 78.2987666, 28.4071613 ], [ 78.2978654, 28.4060666 ], [ 78.2971358, 28.4043679 ], [ 78.2965565, 28.4036318 ], [ 78.2948184, 28.4025748 ], [ 78.294518, 28.4018576 ], [ 78.2936811, 28.401197 ], [ 78.292501, 28.3999135 ], [ 78.29072, 28.3985733 ], [ 78.2893896, 28.3952701 ], [ 78.2884025, 28.3921555 ], [ 78.2880592, 28.3903244 ], [ 78.2893038, 28.3876344 ], [ 78.2894218, 28.3862563 ], [ 78.2864284, 28.3817917 ], [ 78.2853555, 28.3804136 ], [ 78.2853555, 28.3801681 ], [ 78.2855701, 28.3796395 ], [ 78.2863426, 28.3788844 ], [ 78.2867718, 28.3777139 ], [ 78.2867932, 28.3760147 ], [ 78.2862997, 28.3745044 ], [ 78.2849479, 28.372673 ], [ 78.2832956, 28.37188 ], [ 78.2817936, 28.3718612 ], [ 78.2805061, 28.3712381 ], [ 78.279916, 28.3708133 ], [ 78.2797658, 28.3706623 ], [ 78.2796478, 28.3704735 ], [ 78.2796156, 28.3703885 ], [ 78.2795942, 28.370313 ], [ 78.2795298, 28.3700203 ], [ 78.2791114, 28.367849 ], [ 78.2790255, 28.3658382 ], [ 78.2790363, 28.3634402 ], [ 78.2791972, 28.3621657 ], [ 78.2794654, 28.3592956 ], [ 78.2795298, 28.3587952 ], [ 78.2797873, 28.3571902 ], [ 78.2804203, 28.3569636 ], [ 78.2809567, 28.356416 ], [ 78.2813859, 28.3556796 ], [ 78.2815575, 28.3546788 ], [ 78.2812142, 28.3536591 ], [ 78.2806134, 28.3527527 ], [ 78.2802915, 28.349939 ], [ 78.2796049, 28.3477295 ], [ 78.2790899, 28.3470685 ], [ 78.2778239, 28.3463132 ], [ 78.2773304, 28.3458788 ], [ 78.2765579, 28.344859 ], [ 78.2767939, 28.3434426 ], [ 78.2777595, 28.3412141 ], [ 78.2804632, 28.3387779 ], [ 78.2840466, 28.3357749 ], [ 78.2853448, 28.3361527 ], [ 78.2872653, 28.3361054 ], [ 78.2885098, 28.3345473 ], [ 78.28969, 28.3308548 ], [ 78.2911706, 28.3287489 ], [ 78.2928228, 28.3285978 ], [ 78.2979297, 28.3272001 ], [ 78.3027362, 28.326369 ], [ 78.3070278, 28.3234979 ], [ 78.3090448, 28.3213068 ], [ 78.309431, 28.3200223 ], [ 78.3090877, 28.3125796 ], [ 78.3097744, 28.3099727 ], [ 78.3106327, 28.3087258 ], [ 78.3159542, 28.3045319 ], [ 78.317027, 28.3013957 ], [ 78.3180999, 28.2964079 ], [ 78.3186578, 28.2946697 ], [ 78.3192157, 28.2934227 ], [ 78.3198165, 28.2924024 ], [ 78.3237218, 28.2872252 ], [ 78.3262968, 28.2848444 ], [ 78.3272409, 28.2841263 ], [ 78.3301377, 28.2830115 ], [ 78.3331632, 28.2812919 ], [ 78.3400082, 28.2749048 ], [ 78.3423686, 28.2716921 ], [ 78.3432269, 28.2715032 ], [ 78.3481192, 28.2723914 ], [ 78.3517456, 28.272467 ], [ 78.3534407, 28.2719378 ], [ 78.3539415, 28.2708803 ], [ 78.3559298, 28.2676479 ], [ 78.3575005, 28.2643494 ], [ 78.361144, 28.2596912 ], [ 78.3627534, 28.2560245 ], [ 78.3644914, 28.2532272 ], [ 78.3647704, 28.2523577 ], [ 78.3655643, 28.2509779 ], [ 78.3675384, 28.248256 ], [ 78.3688346, 28.2468365 ], [ 78.3713361, 28.2449607 ], [ 78.3724093, 28.2439179 ], [ 78.3731389, 28.2431429 ], [ 78.3739114, 28.2423962 ], [ 78.3741045, 28.2416495 ], [ 78.3743298, 28.240572 ], [ 78.3744907, 28.2398915 ], [ 78.3745229, 28.239107 ], [ 78.37448, 28.2383981 ], [ 78.3762369, 28.2345356 ], [ 78.3774663, 28.2331816 ], [ 78.3780811, 28.2323993 ], [ 78.3796862, 28.2311656 ], [ 78.3802839, 28.2305337 ], [ 78.3815133, 28.2295558 ], [ 78.3841942, 28.2255689 ], [ 78.3849456, 28.2243953 ], [ 78.3855432, 28.2234173 ], [ 78.3855603, 28.222981 ], [ 78.3857311, 28.2225748 ], [ 78.3858506, 28.2216269 ], [ 78.3864483, 28.2207392 ], [ 78.3874899, 28.2194903 ], [ 78.3878997, 28.2176246 ], [ 78.387524, 28.2170829 ], [ 78.3874899, 28.2166917 ], [ 78.3880363, 28.2161951 ], [ 78.3886169, 28.2157437 ], [ 78.3891633, 28.2147958 ], [ 78.3893853, 28.2137726 ], [ 78.3921858, 28.2118465 ], [ 78.3933982, 28.2106728 ], [ 78.3941153, 28.2099355 ], [ 78.395174, 28.209138 ], [ 78.3980428, 28.2048342 ], [ 78.3985039, 28.2047439 ], [ 78.3990332, 28.2044279 ], [ 78.3995455, 28.2035099 ], [ 78.4002797, 28.2021556 ], [ 78.4008603, 28.2003948 ], [ 78.4008945, 28.1997026 ], [ 78.4008774, 28.1988448 ], [ 78.401458, 28.1971593 ], [ 78.4018924, 28.1967647 ], [ 78.4029853, 28.1949588 ], [ 78.4034976, 28.1942514 ], [ 78.4042354, 28.193681 ], [ 78.3967072, 28.1900253 ], [ 78.3959888, 28.1896765 ], [ 78.395512, 28.1900717 ] ], [ [ 78.4005947, 28.1964336 ], [ 78.4001678, 28.1966443 ], [ 78.399997, 28.1965691 ], [ 78.4000141, 28.1961326 ], [ 78.4003214, 28.1951996 ], [ 78.4010557, 28.1939956 ], [ 78.4018583, 28.1936795 ], [ 78.4025072, 28.1938752 ], [ 78.4021486, 28.1942665 ], [ 78.4018754, 28.1947029 ], [ 78.4014826, 28.1954554 ], [ 78.4009874, 28.1960875 ], [ 78.4005947, 28.1964336 ] ], [ [ 78.3985626, 28.2045601 ], [ 78.3980333, 28.2046805 ], [ 78.3978967, 28.2048009 ], [ 78.3976918, 28.2047407 ], [ 78.3976918, 28.204545 ], [ 78.397521, 28.2041989 ], [ 78.3977601, 28.203281 ], [ 78.3983236, 28.202047 ], [ 78.39887, 28.2007829 ], [ 78.3991944, 28.1997746 ], [ 78.3997238, 28.1987362 ], [ 78.4006459, 28.1975924 ], [ 78.4013972, 28.1970808 ], [ 78.4012265, 28.1975473 ], [ 78.4007825, 28.1986459 ], [ 78.4007313, 28.1993983 ], [ 78.4007483, 28.2004819 ], [ 78.4002019, 28.2020018 ], [ 78.3998775, 28.2027242 ], [ 78.3994335, 28.2034766 ], [ 78.3990749, 28.2041538 ], [ 78.3985626, 28.2045601 ] ], [ [ 78.3852991, 28.2235915 ], [ 78.3847437, 28.2242724 ], [ 78.3842849, 28.2246767 ], [ 78.3842607, 28.2241447 ], [ 78.384309, 28.2234638 ], [ 78.3840192, 28.2229957 ], [ 78.3837053, 28.2225914 ], [ 78.3837536, 28.2215062 ], [ 78.3854923, 28.2189741 ], [ 78.3862168, 28.2174207 ], [ 78.3871103, 28.216378 ], [ 78.3874001, 28.2156545 ], [ 78.3890422, 28.2142288 ], [ 78.3888249, 28.2148672 ], [ 78.3886558, 28.2155269 ], [ 78.3881004, 28.2158886 ], [ 78.3875933, 28.2163568 ], [ 78.3873035, 28.2168249 ], [ 78.3874725, 28.2174633 ], [ 78.387714, 28.217974 ], [ 78.3873759, 28.2187613 ], [ 78.3870137, 28.2195273 ], [ 78.3865066, 28.2204636 ], [ 78.3856131, 28.2213786 ], [ 78.3855768, 28.2225701 ], [ 78.3853233, 28.2229531 ], [ 78.3852991, 28.2235915 ] ], [ [ 78.372066, 28.2398348 ], [ 78.3723664, 28.2394472 ], [ 78.3730531, 28.2389368 ], [ 78.3732462, 28.2388045 ], [ 78.3734178, 28.2388045 ], [ 78.373568, 28.2389652 ], [ 78.3735466, 28.2414605 ], [ 78.3735144, 28.2419236 ], [ 78.3733642, 28.2423584 ], [ 78.3731604, 28.2425474 ], [ 78.3723879, 28.2425474 ], [ 78.3712184, 28.242727 ], [ 78.3711648, 28.2422639 ], [ 78.3712613, 28.2418385 ], [ 78.3718836, 28.2408083 ], [ 78.372066, 28.2398348 ] ], [ [ 78.3657789, 28.2451749 ], [ 78.3652747, 28.2458932 ], [ 78.3652317, 28.246328 ], [ 78.364867, 28.2475566 ], [ 78.3648026, 28.2482749 ], [ 78.3645666, 28.2487191 ], [ 78.3640408, 28.2490688 ], [ 78.3636224, 28.2495508 ], [ 78.3614015, 28.2508834 ], [ 78.3606398, 28.2512803 ], [ 78.3597278, 28.251526 ], [ 78.3584082, 28.2516584 ], [ 78.357346, 28.2515733 ], [ 78.3570242, 28.251441 ], [ 78.3566916, 28.2511669 ], [ 78.3566272, 28.2509306 ], [ 78.3566916, 28.2506471 ], [ 78.3570778, 28.2502218 ], [ 78.3589876, 28.248549 ], [ 78.360157, 28.2460161 ], [ 78.3605647, 28.2453829 ], [ 78.3616805, 28.2442203 ], [ 78.3623886, 28.2436721 ], [ 78.3634829, 28.2431618 ], [ 78.3649635, 28.242727 ], [ 78.3657145, 28.2421504 ], [ 78.3663583, 28.2418952 ], [ 78.3685255, 28.2416779 ], [ 78.3689332, 28.2417157 ], [ 78.3691263, 28.2418291 ], [ 78.3692229, 28.2419709 ], [ 78.3692765, 28.2423867 ], [ 78.368901, 28.2441164 ], [ 78.3683109, 28.2456191 ], [ 78.368032, 28.2465359 ], [ 78.3675814, 28.2472542 ], [ 78.3670878, 28.247292 ], [ 78.366766, 28.2469045 ], [ 78.3666694, 28.2461673 ], [ 78.3667338, 28.2451088 ], [ 78.3666587, 28.2448914 ], [ 78.3664656, 28.2447685 ], [ 78.36609, 28.2448158 ], [ 78.3657789, 28.2451749 ] ], [ [ 78.2785964, 28.3533569 ], [ 78.2785213, 28.3541311 ], [ 78.2784033, 28.3543955 ], [ 78.2779956, 28.3541406 ], [ 78.2776737, 28.3540367 ], [ 78.2763541, 28.3539801 ], [ 78.2758713, 28.3538007 ], [ 78.2756889, 28.3535835 ], [ 78.2744443, 28.3525827 ], [ 78.2737148, 28.3518179 ], [ 78.2736397, 28.3512325 ], [ 78.27438, 28.349854 ], [ 78.2745731, 28.3474651 ], [ 78.2748198, 28.3461904 ], [ 78.2751095, 28.3463698 ], [ 78.276, 28.3476823 ], [ 78.2765794, 28.3483338 ], [ 78.2772767, 28.3487681 ], [ 78.2778883, 28.3493819 ], [ 78.2786393, 28.3503072 ], [ 78.2788324, 28.3507132 ], [ 78.2789612, 28.3514969 ], [ 78.2788753, 28.3523939 ], [ 78.2785964, 28.3533569 ] ], [ [ 78.2817507, 28.3783935 ], [ 78.2825875, 28.3784879 ], [ 78.2837677, 28.3790732 ], [ 78.2860636, 28.3824336 ], [ 78.2863211, 28.3830565 ], [ 78.2866499, 28.3851667 ], [ 78.2877803, 28.3873418 ], [ 78.2875228, 28.3882857 ], [ 78.2869434, 28.3890408 ], [ 78.2855487, 28.3902678 ], [ 78.2840252, 28.3895693 ], [ 78.2823944, 28.388078 ], [ 78.2817936, 28.3871153 ], [ 78.2804417, 28.3855296 ], [ 78.2802272, 28.3849255 ], [ 78.2801413, 28.3811687 ], [ 78.2804417, 28.3801304 ], [ 78.2817507, 28.3783935 ] ], [ [ 78.2398792, 28.4893142 ], [ 78.2406841, 28.4881353 ], [ 78.2419584, 28.4865437 ], [ 78.2436351, 28.4851878 ], [ 78.2436351, 28.4881353 ], [ 78.2437022, 28.4913185 ], [ 78.2424279, 28.4909058 ], [ 78.2412877, 28.4913774 ], [ 78.2401475, 28.491849 ], [ 78.2398792, 28.4893142 ] ], [ [ 78.2343077, 28.5078624 ], [ 78.231647, 28.5095029 ], [ 78.2304454, 28.5100874 ], [ 78.2269048, 28.5127649 ], [ 78.2258749, 28.5131608 ], [ 78.2235145, 28.5144429 ], [ 78.2223987, 28.5155931 ], [ 78.2222056, 28.5165547 ], [ 78.2226133, 28.5188172 ], [ 78.2226133, 28.5190811 ], [ 78.2224202, 28.5194205 ], [ 78.2221842, 28.5195525 ], [ 78.2219696, 28.5195902 ], [ 78.2193732, 28.5197599 ], [ 78.2168197, 28.5198164 ], [ 78.2166481, 28.5197976 ], [ 78.216412, 28.5196279 ], [ 78.2161116, 28.5189491 ], [ 78.216021, 28.5174897 ], [ 78.2159829, 28.5168752 ], [ 78.2160902, 28.5153668 ], [ 78.2167768, 28.5125575 ], [ 78.2170343, 28.5117278 ], [ 78.2172274, 28.5113884 ], [ 78.2175708, 28.5110113 ], [ 78.2187938, 28.50988 ], [ 78.2193517, 28.5090881 ], [ 78.2212186, 28.5076739 ], [ 78.2250595, 28.505298 ], [ 78.2252097, 28.5044306 ], [ 78.2239437, 28.5032803 ], [ 78.2239651, 28.5025449 ], [ 78.224566, 28.5019603 ], [ 78.2272482, 28.5002632 ], [ 78.2289219, 28.4999615 ], [ 78.2305527, 28.5003386 ], [ 78.2322049, 28.5011683 ], [ 78.2329559, 28.5013569 ], [ 78.2364321, 28.5015832 ], [ 78.2367539, 28.5019603 ], [ 78.2370114, 28.5023375 ], [ 78.2343077, 28.5078624 ] ] ] } },
{ "type": "Feature", "properties": { "element": "way", "id": 134916534, "addr:district": null, "addr:full": null, "addr:postcode": null, "addr:state": null, "amenity": null, "name": null, "source": null, "addr:block": null, "addr:subdistrict": null, "description": null, "operator": null, "operator:type": null, "healthcare": null, "healthcare:speciality": null, "natural": "water", "water": "river", "landuse": null, "type": null }, "geometry": { "type": "Polygon", "coordinates": [ [ [ 78.0632686, 29.0110679 ], [ 78.0552005, 29.006489 ], [ 78.0521964, 29.0022853 ], [ 78.0517673, 28.992451 ], [ 78.0546855, 28.9886221 ], [ 78.0664443, 28.9820151 ], [ 78.0682849, 28.9806931 ], [ 78.0745982, 28.9761585 ], [ 78.0784606, 28.9724792 ], [ 78.0814647, 28.9655708 ], [ 78.0854987, 28.9619662 ], [ 78.0935668, 28.9570848 ], [ 78.0960559, 28.9519027 ], [ 78.1014632, 28.9420636 ], [ 78.1049823, 28.9359043 ], [ 78.1043815, 28.9284676 ], [ 78.1078147, 28.9193024 ], [ 78.1112479, 28.9102867 ], [ 78.1114196, 28.9005939 ], [ 78.1121921, 28.8951836 ], [ 78.1144237, 28.8899985 ], [ 78.1202602, 28.8899233 ], [ 78.1280707, 28.8881197 ], [ 78.1268691, 28.8846628 ], [ 78.125925, 28.878951 ], [ 78.1261825, 28.8731637 ], [ 78.1286716, 28.8711344 ], [ 78.1387996, 28.8685036 ], [ 78.1469442, 28.8650498 ], [ 78.1521745, 28.8566708 ], [ 78.1582234, 28.8454268 ], [ 78.1586506, 28.8344034 ], [ 78.1591521, 28.8333217 ], [ 78.1576002, 28.83002 ], [ 78.1561814, 28.8292819 ], [ 78.1528447, 28.8240585 ], [ 78.1526341, 28.8219012 ], [ 78.1509936, 28.8196092 ], [ 78.1516587, 28.8169674 ], [ 78.151066, 28.8134063 ], [ 78.15043, 28.812459 ], [ 78.1491582, 28.8115861 ], [ 78.1489462, 28.8069425 ], [ 78.1491794, 28.8050851 ], [ 78.1487978, 28.8035433 ], [ 78.1481619, 28.802726 ], [ 78.1480135, 28.8017601 ], [ 78.1481407, 28.8013143 ], [ 78.1479923, 28.8001254 ], [ 78.1480771, 28.7988623 ], [ 78.1475895, 28.7978778 ], [ 78.1466144, 28.7977663 ], [ 78.1459361, 28.7973948 ], [ 78.14335, 28.7934008 ], [ 78.1432864, 28.7915431 ], [ 78.1418661, 28.7884406 ], [ 78.1412726, 28.7875489 ], [ 78.1402339, 28.7871959 ], [ 78.1400219, 28.7864528 ], [ 78.1400431, 28.7856911 ], [ 78.1397251, 28.7844277 ], [ 78.1402339, 28.7836289 ], [ 78.1400855, 28.7812136 ], [ 78.1420809, 28.7777346 ], [ 78.1424809, 28.776996 ], [ 78.1425233, 28.7762343 ], [ 78.14282, 28.7759927 ], [ 78.142714, 28.7755468 ], [ 78.1429048, 28.7748779 ], [ 78.14282, 28.7744506 ], [ 78.1423113, 28.7742648 ], [ 78.141421, 28.7737445 ], [ 78.1411, 28.7729 ], [ 78.1412084, 28.7718118 ], [ 78.1447324, 28.764959 ], [ 78.143095, 28.763708 ], [ 78.1414867, 28.7624791 ], [ 78.1396168, 28.7645381 ], [ 78.1392588, 28.7665722 ], [ 78.1385169, 28.7691922 ], [ 78.1376901, 28.769824 ], [ 78.1376054, 28.7716077 ], [ 78.1378385, 28.7733915 ], [ 78.137351, 28.7749522 ], [ 78.1373934, 28.7778136 ], [ 78.135367, 28.7798466 ], [ 78.1349441, 28.7825094 ], [ 78.1348617, 28.7839094 ], [ 78.134141, 28.7853024 ], [ 78.1335345, 28.7868689 ], [ 78.1333022, 28.7885893 ], [ 78.1321575, 28.7899268 ], [ 78.1324543, 28.7908743 ], [ 78.1336202, 28.7924162 ], [ 78.1349768, 28.7938838 ], [ 78.1359596, 28.7960578 ], [ 78.1372038, 28.7992896 ], [ 78.1393765, 28.8020094 ], [ 78.1420369, 28.8020094 ], [ 78.1442095, 28.8051566 ], [ 78.1433612, 28.8114724 ], [ 78.1413274, 28.8139372 ], [ 78.1397312, 28.814753 ], [ 78.1394651, 28.817084 ], [ 78.1408037, 28.8210554 ], [ 78.142, 28.8251 ], [ 78.1439878, 28.8356911 ], [ 78.1462048, 28.8381381 ], [ 78.1489983, 28.8393422 ], [ 78.1498721, 28.8400137 ], [ 78.1498675, 28.8414723 ], [ 78.1497356, 28.8435173 ], [ 78.1495811, 28.8455167 ], [ 78.1486744, 28.8486487 ], [ 78.1479835, 28.8531689 ], [ 78.1449794, 28.8596338 ], [ 78.1391047, 28.8621865 ], [ 78.1331348, 28.8624903 ], [ 78.1289291, 28.8614379 ], [ 78.1212043, 28.8583559 ], [ 78.1162261, 28.8600849 ], [ 78.1085013, 28.8613628 ], [ 78.1024074, 28.865497 ], [ 78.102579, 28.8712847 ], [ 78.0999183, 28.8788007 ], [ 78.1039523, 28.886767 ], [ 78.1059264, 28.893305 ], [ 78.1057548, 28.9000679 ], [ 78.1042956, 28.9063796 ], [ 78.1010341, 28.913818 ], [ 78.1015491, 28.9242607 ], [ 78.100438, 28.9316371 ], [ 78.0969142, 28.9386836 ], [ 78.0948543, 28.9412374 ], [ 78.0927943, 28.948523 ], [ 78.0871295, 28.9526538 ], [ 78.0798339, 28.9552073 ], [ 78.0778598, 28.9598635 ], [ 78.0727356, 28.9678504 ], [ 78.0657577, 28.9718785 ], [ 78.0558013, 28.9815646 ], [ 78.0485915, 28.9862947 ], [ 78.0451583, 28.9921507 ], [ 78.0456733, 28.9974058 ], [ 78.0464458, 29.0031861 ], [ 78.048849, 29.0078402 ], [ 78.050909, 29.0118185 ], [ 78.0545997, 29.0157966 ], [ 78.0594062, 29.0172978 ], [ 78.0630111, 29.0182735 ], [ 78.0692767, 29.0188739 ], [ 78.0737295, 29.0194209 ], [ 78.0744266, 29.0152712 ], [ 78.0632686, 29.0110679 ] ] ] } },
{ "type": "Feature", "properties": { "element": "way", "id": 283842171, "addr:district": null, "addr:full": null, "addr:postcode": null, "addr:state": null, "amenity": null, "name": null, "source": null, "addr:block": null, "addr:subdistrict": null, "description": null, "operator": null, "operator:type": null, "healthcare": null, "healthcare:speciality": null, "natural": "water", "water": "river", "landuse": null, "type": null }, "geometry": { "type": "Polygon", "coordinates": [ [ [ 78.0351227, 29.3731264 ], [ 78.0389413, 29.3733428 ], [ 78.0411026, 29.3734653 ], [ 78.0411026, 29.3733278 ], [ 78.0413055, 29.3732983 ], [ 78.0414403, 29.3721677 ], [ 78.041536, 29.3720045 ], [ 78.0418109, 29.3700958 ], [ 78.0400514, 29.3680388 ], [ 78.0381631, 29.3643361 ], [ 78.0376911, 29.3612692 ], [ 78.038764, 29.3581273 ], [ 78.0421114, 29.3561823 ], [ 78.0504798, 29.355696 ], [ 78.0572605, 29.3518058 ], [ 78.0616808, 29.3486637 ], [ 78.0663585, 29.3467185 ], [ 78.07168, 29.3441373 ], [ 78.078289, 29.3406208 ], [ 78.0844259, 29.3389373 ], [ 78.0902195, 29.3363559 ], [ 78.0934116, 29.3340031 ], [ 78.0944681, 29.3331385 ], [ 78.0953049, 29.3317729 ], [ 78.0951547, 29.327227 ], [ 78.0948543, 29.3262402 ], [ 78.0948597, 29.3252487 ], [ 78.0953894, 29.3242514 ], [ 78.0968284, 29.3229242 ], [ 78.0992317, 29.3172741 ], [ 78.1039094, 29.3125592 ], [ 78.1046819, 29.309603 ], [ 78.1058406, 29.3053368 ], [ 78.1072139, 29.3024926 ], [ 78.1079435, 29.2958309 ], [ 78.1065273, 29.2896553 ], [ 78.1027937, 29.2830302 ], [ 78.1009483, 29.2796613 ], [ 78.1021928, 29.2723991 ], [ 78.1030082, 29.2648369 ], [ 78.1042957, 29.2581353 ], [ 78.1064415, 29.2528935 ], [ 78.1105613, 29.2464532 ], [ 78.1118899, 29.2408143 ], [ 78.1111621, 29.2337586 ], [ 78.1078147, 29.2287403 ], [ 78.0982875, 29.2257442 ], [ 78.0926227, 29.2231974 ], [ 78.0912494, 29.2201262 ], [ 78.0930518, 29.2157064 ], [ 78.0988025, 29.2088517 ], [ 78.108716, 29.1973513 ], [ 78.1112909, 29.1943543 ], [ 78.1140804, 29.1877604 ], [ 78.1138658, 29.1832644 ], [ 78.1133508, 29.1782435 ], [ 78.1124067, 29.171911 ], [ 78.1088018, 29.1662525 ], [ 78.1057119, 29.1625051 ], [ 78.1036305, 29.1598817 ], [ 78.1005302, 29.1569974 ], [ 78.0900889, 29.1517407 ], [ 78.0747655, 29.1488633 ], [ 78.0691909, 29.1455648 ], [ 78.0647277, 29.1343947 ], [ 78.0659293, 29.1266723 ], [ 78.0674743, 29.1164749 ], [ 78.066101, 29.110851 ], [ 78.0683326, 29.1039518 ], [ 78.0703925, 29.101102 ], [ 78.0703925, 29.0980271 ], [ 78.0719375, 29.0916521 ], [ 78.0742549, 29.0861768 ], [ 78.0761432, 29.0783008 ], [ 78.0757999, 29.069599 ], [ 78.075714, 29.059471 ], [ 78.0757999, 29.0571451 ], [ 78.077259, 29.0551194 ], [ 78.0903911, 29.049417 ], [ 78.0965709, 29.0458153 ], [ 78.0975144, 29.040788 ], [ 78.0987167, 29.0354599 ], [ 78.0981158, 29.0310322 ], [ 78.0957984, 29.0278802 ], [ 78.0910777, 29.0224015 ], [ 78.0812072, 29.017598 ], [ 78.0744266, 29.0152712 ], [ 78.0737295, 29.0194209 ], [ 78.0795764, 29.0209004 ], [ 78.0857562, 29.0240526 ], [ 78.0916785, 29.0296063 ], [ 78.0930518, 29.0349346 ], [ 78.0918502, 29.0404126 ], [ 78.0886745, 29.0459654 ], [ 78.0750274, 29.0518931 ], [ 78.0685901, 29.05677 ], [ 78.0673884, 29.0597711 ], [ 78.0679034, 29.0640475 ], [ 78.0699634, 29.0713244 ], [ 78.0658435, 29.0765755 ], [ 78.0633544, 29.0815263 ], [ 78.0618953, 29.0866268 ], [ 78.060522, 29.101477 ], [ 78.0605422, 29.1122097 ], [ 78.0539576, 29.1260339 ], [ 78.0518335, 29.1321567 ], [ 78.0522583, 29.1404128 ], [ 78.0593739, 29.1486681 ], [ 78.0745609, 29.1552534 ], [ 78.0838006, 29.157943 ], [ 78.0917644, 29.1616806 ], [ 78.0955409, 29.1645288 ], [ 78.1006908, 29.1728478 ], [ 78.1034373, 29.1816907 ], [ 78.1024074, 29.190458 ], [ 78.1005806, 29.1969811 ], [ 78.0955409, 29.205443 ], [ 78.088932, 29.2139834 ], [ 78.0871295, 29.2181785 ], [ 78.0873286, 29.2248682 ], [ 78.0942535, 29.2274669 ], [ 78.09803, 29.2303881 ], [ 78.1000041, 29.2363052 ], [ 78.1000041, 29.2426712 ], [ 78.0973434, 29.2505346 ], [ 78.0968284, 29.2595955 ], [ 78.0944251, 29.270752 ], [ 78.0932235, 29.2752442 ], [ 78.0962276, 29.2799608 ], [ 78.1023215, 29.2893933 ], [ 78.1042098, 29.294259 ], [ 78.1048106, 29.300322 ], [ 78.1019782, 29.3082558 ], [ 78.0947684, 29.3120728 ], [ 78.0930518, 29.3167129 ], [ 78.0882453, 29.3242712 ], [ 78.0820655, 29.331829 ], [ 78.0690192, 29.3354207 ], [ 78.0547713, 29.3325773 ], [ 78.04533, 29.3329514 ], [ 78.0371953, 29.3389502 ], [ 78.031488, 29.3507986 ], [ 78.0300987, 29.3571804 ], [ 78.0308872, 29.3623838 ], [ 78.0337784, 29.3679141 ], [ 78.0351302, 29.3704338 ], [ 78.0351227, 29.3731264 ] ] ] } },
{ "type": "Feature", "properties": { "element": "way", "id": 395138577, "addr:district": null, "addr:full": null, "addr:postcode": null, "addr:state": null, "amenity": null, "name": null, "source": null, "addr:block": null, "addr:subdistrict": null, "description": null, "operator": null, "operator:type": null, "healthcare": null, "healthcare:speciality": null, "natural": "water", "water": null, "landuse": "basin", "type": null }, "geometry": { "type": "Polygon", "coordinates": [ [ [ 78.407504, 29.0000458 ], [ 78.407851, 28.9998153 ], [ 78.4080102, 28.9994365 ], [ 78.407791, 28.9989709 ], [ 78.4073396, 28.9992014 ], [ 78.4072222, 28.9991421 ], [ 78.4061915, 28.999651 ], [ 78.4060036, 28.9998724 ], [ 78.4060584, 29.0000595 ], [ 78.4061863, 29.0000504 ], [ 78.4063402, 29.0002855 ], [ 78.4063246, 29.0004315 ], [ 78.4064237, 29.0005525 ], [ 78.4067368, 29.0005456 ], [ 78.4068021, 29.0004909 ], [ 78.406682, 29.000322 ], [ 78.4069586, 29.0001554 ], [ 78.4070943, 29.0002809 ], [ 78.4072117, 29.0001828 ], [ 78.4071413, 29.000023 ], [ 78.4073944, 28.999902 ], [ 78.407504, 29.0000458 ] ] ] } },
{ "type": "Feature", "properties": { "element": "way", "id": 399642601, "addr:district": null, "addr:full": null, "addr:postcode": null, "addr:state": null, "amenity": null, "name": null, "source": null, "addr:block": null, "addr:subdistrict": null, "description": null, "operator": null, "operator:type": null, "healthcare": null, "healthcare:speciality": null, "natural": "water", "water": null, "landuse": null, "type": null }, "geometry": { "type": "Polygon", "coordinates": [ [ [ 78.2149153, 28.8382079 ], [ 78.214926, 28.8382878 ], [ 78.2149657, 28.8383451 ], [ 78.2149582, 28.8384288 ], [ 78.2149797, 28.8385134 ], [ 78.2150408, 28.8385989 ], [ 78.2150677, 28.83866 ], [ 78.2150977, 28.838706 ], [ 78.2151514, 28.8387154 ], [ 78.215264, 28.8387154 ], [ 78.2153981, 28.8386731 ], [ 78.2154571, 28.8386214 ], [ 78.2154968, 28.8385519 ], [ 78.2155, 28.8384852 ], [ 78.2154271, 28.8383827 ], [ 78.2153252, 28.8382981 ], [ 78.2151943, 28.8382079 ], [ 78.215073, 28.8381619 ], [ 78.2150119, 28.8381515 ], [ 78.2149529, 28.8381515 ], [ 78.2149153, 28.8382079 ] ] ] } },
{ "type": "Feature", "properties": { "element": "way", "id": 478126511, "addr:district": null, "addr:full": null, "addr:postcode": null, "addr:state": null, "amenity": null, "name": null, "source": null, "addr:block": null, "addr:subdistrict": null, "description": null, "operator": null, "operator:type": null, "healthcare": null, "healthcare:speciality": null, "natural": "water", "water": null, "landuse": null, "type": null }, "geometry": { "type": "Polygon", "coordinates": [ [ [ 78.4620175, 28.9050681 ], [ 78.4621543, 28.9051385 ], [ 78.4624225, 28.9051785 ], [ 78.4625915, 28.9051033 ], [ 78.4627041, 28.9051996 ], [ 78.4628516, 28.9052512 ], [ 78.4629375, 28.905317 ], [ 78.4636831, 28.9054532 ], [ 78.4637743, 28.9054109 ], [ 78.4638816, 28.905425 ], [ 78.4640694, 28.9055142 ], [ 78.4641713, 28.9055377 ], [ 78.4642732, 28.9055095 ], [ 78.4643537, 28.9054485 ], [ 78.4644073, 28.9053639 ], [ 78.4646541, 28.9051667 ], [ 78.4646755, 28.9050728 ], [ 78.4646702, 28.9048521 ], [ 78.4648418, 28.9047347 ], [ 78.4647238, 28.9043402 ], [ 78.4648096, 28.9042885 ], [ 78.4650135, 28.9043073 ], [ 78.4650457, 28.9042134 ], [ 78.4649384, 28.9041805 ], [ 78.4647775, 28.9040443 ], [ 78.4647614, 28.9039551 ], [ 78.4647828, 28.9038612 ], [ 78.4647238, 28.903772 ], [ 78.4640211, 28.9038847 ], [ 78.4639299, 28.9039363 ], [ 78.4638226, 28.9039457 ], [ 78.4637314, 28.9038847 ], [ 78.4634042, 28.9039457 ], [ 78.4632915, 28.9039222 ], [ 78.4632164, 28.9038518 ], [ 78.4631091, 28.9038189 ], [ 78.4630018, 28.9038189 ], [ 78.4628999, 28.9037813 ], [ 78.4626102, 28.9036264 ], [ 78.4624278, 28.9036639 ], [ 78.4623367, 28.9037532 ], [ 78.4623527, 28.9040396 ], [ 78.4621918, 28.9045093 ], [ 78.4621221, 28.9048004 ], [ 78.4620161, 28.9050059 ], [ 78.4620175, 28.9050681 ] ] ] } },
{ "type": "Feature", "properties": { "element": "way", "id": 579960742, "addr:district": null, "addr:full": null, "addr:postcode": null, "addr:state": null, "amenity": null, "name": null, "source": null, "addr:block": null, "addr:subdistrict": null, "description": null, "operator": null, "operator:type": null, "healthcare": null, "healthcare:speciality": null, "natural": "water", "water": "pond", "landuse": null, "type": null }, "geometry": { "type": "Polygon", "coordinates": [ [ [ 78.434386, 29.0405626 ], [ 78.4344568, 29.0404853 ], [ 78.4344957, 29.0404543 ], [ 78.4345311, 29.0404234 ], [ 78.43457, 29.0404017 ], [ 78.4346089, 29.0403831 ], [ 78.4346585, 29.0403739 ], [ 78.4347116, 29.0403615 ], [ 78.4347682, 29.0403708 ], [ 78.4348213, 29.0403862 ], [ 78.4348779, 29.0403986 ], [ 78.4349239, 29.0404048 ], [ 78.4349664, 29.0404079 ], [ 78.435016, 29.0404203 ], [ 78.435069, 29.0404326 ], [ 78.4351151, 29.0404481 ], [ 78.4351717, 29.0404791 ], [ 78.4352212, 29.0405038 ], [ 78.4352566, 29.0405286 ], [ 78.4352991, 29.0405533 ], [ 78.4353416, 29.0405781 ], [ 78.4353911, 29.0406059 ], [ 78.4354336, 29.0406369 ], [ 78.4354584, 29.0406709 ], [ 78.4354831, 29.0407018 ], [ 78.4355114, 29.0407421 ], [ 78.4355185, 29.0407792 ], [ 78.435515, 29.0408163 ], [ 78.4355044, 29.0408782 ], [ 78.4354831, 29.0409246 ], [ 78.4354654, 29.0409618 ], [ 78.4354548, 29.0409989 ], [ 78.4354477, 29.0410422 ], [ 78.4354442, 29.0410917 ], [ 78.4354513, 29.0411412 ], [ 78.4354477, 29.0411876 ], [ 78.4354088, 29.0412186 ], [ 78.4353486, 29.0412248 ], [ 78.4352991, 29.0412186 ], [ 78.4352531, 29.0411969 ], [ 78.4352141, 29.0411722 ], [ 78.4351717, 29.0411505 ], [ 78.4351363, 29.0411196 ], [ 78.435108, 29.0410917 ], [ 78.4350761, 29.0410608 ], [ 78.4350443, 29.0410206 ], [ 78.4350089, 29.0409834 ], [ 78.4349735, 29.0409525 ], [ 78.4349381, 29.0409246 ], [ 78.4349062, 29.0408999 ], [ 78.4348744, 29.040872 ], [ 78.4348248, 29.0408287 ], [ 78.4347894, 29.0407978 ], [ 78.4347505, 29.0407668 ], [ 78.4347151, 29.0407452 ], [ 78.4346727, 29.0407297 ], [ 78.4346231, 29.040708 ], [ 78.4345806, 29.0407049 ], [ 78.4345382, 29.0406957 ], [ 78.4344992, 29.0406771 ], [ 78.4344638, 29.0406523 ], [ 78.434386, 29.0405626 ] ] ] } },
{ "type": "Feature", "properties": { "element": "way", "id": 581420358, "addr:district": null, "addr:full": null, "addr:postcode": null, "addr:state": null, "amenity": null, "name": null, "source": null, "addr:block": null, "addr:subdistrict": null, "description": null, "operator": null, "operator:type": null, "healthcare": null, "healthcare:speciality": null, "natural": "water", "water": "pond", "landuse": null, "type": null }, "geometry": { "type": "Polygon", "coordinates": [ [ [ 78.6150309, 28.8229338 ], [ 78.6155539, 28.8225492 ], [ 78.616147, 28.8225246 ], [ 78.6171137, 28.8229051 ], [ 78.6174546, 28.8232856 ], [ 78.6172959, 28.8236743 ], [ 78.6170203, 28.8238707 ], [ 78.6166467, 28.8239853 ], [ 78.6161984, 28.8240057 ], [ 78.6158295, 28.8240221 ], [ 78.6154605, 28.8235188 ], [ 78.615101, 28.8230811 ], [ 78.6150309, 28.8229338 ] ] ] } },
{ "type": "Feature", "properties": { "element": "way", "id": 706125911, "addr:district": null, "addr:full": null, "addr:postcode": null, "addr:state": null, "amenity": null, "name": null, "source": null, "addr:block": null, "addr:subdistrict": null, "description": null, "operator": null, "operator:type": null, "healthcare": null, "healthcare:speciality": null, "natural": "water", "water": null, "landuse": null, "type": null }, "geometry": { "type": "Polygon", "coordinates": [ [ [ 78.2795673, 29.0274802 ], [ 78.2797604, 29.0270955 ], [ 78.280195, 29.0268188 ], [ 78.2802701, 29.0267953 ], [ 78.2803076, 29.0269548 ], [ 78.2804525, 29.027058 ], [ 78.2804793, 29.0272316 ], [ 78.280431, 29.0274661 ], [ 78.2803076, 29.0276115 ], [ 78.280136, 29.0277006 ], [ 78.2799536, 29.0278226 ], [ 78.2798892, 29.0278226 ], [ 78.2795673, 29.0274802 ] ] ] } },
{ "type": "Feature", "properties": { "element": "way", "id": 1075747051, "addr:district": null, "addr:full": null, "addr:postcode": null, "addr:state": null, "amenity": null, "name": null, "source": null, "addr:block": null, "addr:subdistrict": null, "description": null, "operator": null, "operator:type": null, "healthcare": null, "healthcare:speciality": null, "natural": "water", "water": null, "landuse": null, "type": null }, "geometry": { "type": "Polygon", "coordinates": [ [ [ 78.2336707, 28.8286587 ], [ 78.2340379, 28.8284331 ], [ 78.2336972, 28.8280077 ], [ 78.2333301, 28.8282334 ], [ 78.2336707, 28.8286587 ] ] ] } },
{ "type": "Feature", "properties": { "element": "way", "id": 1153582129, "addr:district": null, "addr:full": null, "addr:postcode": null, "addr:state": null, "amenity": null, "name": null, "source": null, "addr:block": null, "addr:subdistrict": null, "description": null, "operator": null, "operator:type": null, "healthcare": null, "healthcare:speciality": null, "natural": "water", "water": "pond", "landuse": null, "type": null }, "geometry": { "type": "Polygon", "coordinates": [ [ [ 78.4161336, 28.668617 ], [ 78.4162307, 28.6686396 ], [ 78.4162967, 28.6686915 ], [ 78.4166154, 28.6690614 ], [ 78.416659, 28.6691622 ], [ 78.4166476, 28.669286 ], [ 78.4166095, 28.6693662 ], [ 78.4165534, 28.6694604 ], [ 78.4164692, 28.6695116 ], [ 78.4163526, 28.6695179 ], [ 78.4162976, 28.6694518 ], [ 78.4161879, 28.6694655 ], [ 78.4161458, 28.6693768 ], [ 78.4161426, 28.6692407 ], [ 78.4160882, 28.6691599 ], [ 78.4160586, 28.6690246 ], [ 78.4160586, 28.6689251 ], [ 78.4160893, 28.6688355 ], [ 78.4160821, 28.6687307 ], [ 78.4161336, 28.668617 ] ] ] } },
{ "type": "Feature", "properties": { "element": "way", "id": 1207712290, "addr:district": null, "addr:full": null, "addr:postcode": null, "addr:state": null, "amenity": null, "name": null, "source": null, "addr:block": null, "addr:subdistrict": null, "description": null, "operator": null, "operator:type": null, "healthcare": null, "healthcare:speciality": null, "natural": "water", "water": "lake", "landuse": null, "type": null }, "geometry": { "type": "Polygon", "coordinates": [ [ [ 78.6390531, 29.1467728 ], [ 78.6389415, 29.1467228 ], [ 78.6387611, 29.1466928 ], [ 78.6387296, 29.1466528 ], [ 78.6388298, 29.1464527 ], [ 78.6390531, 29.1465127 ], [ 78.6391161, 29.1466003 ], [ 78.6391276, 29.1466528 ], [ 78.6390531, 29.1467728 ] ] ] } },
{ "type": "Feature", "properties": { "element": "way", "id": 1207712291, "addr:district": null, "addr:full": null, "addr:postcode": null, "addr:state": null, "amenity": null, "name": null, "source": null, "addr:block": null, "addr:subdistrict": null, "description": null, "operator": null, "operator:type": null, "healthcare": null, "healthcare:speciality": null, "natural": "water", "water": "lake", "landuse": null, "type": null }, "geometry": { "type": "Polygon", "coordinates": [ [ [ 78.6494249, 29.1382318 ], [ 78.6489839, 29.1378116 ], [ 78.6487548, 29.1373864 ], [ 78.6487491, 29.1372914 ], [ 78.6488063, 29.1372013 ], [ 78.6488063, 29.1370863 ], [ 78.6489552, 29.1369262 ], [ 78.6489037, 29.1367011 ], [ 78.6489209, 29.1362559 ], [ 78.648961, 29.1361508 ], [ 78.6491213, 29.1360007 ], [ 78.6493962, 29.1359407 ], [ 78.6494993, 29.1359857 ], [ 78.649694, 29.1362659 ], [ 78.6497513, 29.136476 ], [ 78.6497169, 29.1367911 ], [ 78.6498086, 29.1368662 ], [ 78.6499231, 29.1370612 ], [ 78.6498716, 29.1371713 ], [ 78.6495337, 29.1375065 ], [ 78.6496425, 29.1381668 ], [ 78.6495623, 29.1382468 ], [ 78.6494249, 29.1382318 ] ] ] } },
{ "type": "Feature", "properties": { "element": "way", "id": 1213068527, "addr:district": null, "addr:full": null, "addr:postcode": null, "addr:state": null, "amenity": null, "name": null, "source": null, "addr:block": null, "addr:subdistrict": null, "description": null, "operator": null, "operator:type": null, "healthcare": null, "healthcare:speciality": null, "natural": "water", "water": "river", "landuse": null, "type": null }, "geometry": { "type": "Polygon", "coordinates": [ [ [ 78.6909807, 29.0673483 ], [ 78.691383, 29.0670576 ], [ 78.6923486, 29.0661105 ], [ 78.6927134, 29.0658385 ], [ 78.694025, 29.0651071 ], [ 78.6936629, 29.0647554 ], [ 78.6928207, 29.0650508 ], [ 78.6924344, 29.0652853 ], [ 78.6915976, 29.0659651 ], [ 78.6907285, 29.0668326 ], [ 78.6897683, 29.0674655 ], [ 78.6888188, 29.0677844 ], [ 78.6883467, 29.0678266 ], [ 78.6882287, 29.0678547 ], [ 78.6880034, 29.0679485 ], [ 78.6866623, 29.0685862 ], [ 78.6859596, 29.0691488 ], [ 78.6855465, 29.0698146 ], [ 78.685112, 29.0706117 ], [ 78.6850369, 29.0707898 ], [ 78.684994, 29.0709868 ], [ 78.6848867, 29.0727497 ], [ 78.685171, 29.0739171 ], [ 78.6854017, 29.0745125 ], [ 78.6860132, 29.0756096 ], [ 78.6865872, 29.0769692 ], [ 78.6866019, 29.0773965 ], [ 78.6870539, 29.0797447 ], [ 78.6870861, 29.0805604 ], [ 78.6867213, 29.0815262 ], [ 78.6862278, 29.0819481 ], [ 78.6855197, 29.0821263 ], [ 78.6845863, 29.0821544 ], [ 78.6841786, 29.0823982 ], [ 78.6831593, 29.082792 ], [ 78.6830199, 29.0829279 ], [ 78.6825424, 29.0835186 ], [ 78.6819953, 29.0847984 ], [ 78.6819148, 29.0851875 ], [ 78.6819202, 29.0855532 ], [ 78.6820757, 29.0859235 ], [ 78.6820489, 29.0868471 ], [ 78.6824351, 29.0888206 ], [ 78.6821401, 29.0897957 ], [ 78.682065, 29.0906301 ], [ 78.6822367, 29.0911926 ], [ 78.6825585, 29.091727 ], [ 78.6826444, 29.092327 ], [ 78.6839855, 29.0938271 ], [ 78.6846399, 29.0944177 ], [ 78.6875582, 29.0962552 ], [ 78.6881912, 29.096799 ], [ 78.6884165, 29.0977552 ], [ 78.6879659, 29.0990583 ], [ 78.687129, 29.0997801 ], [ 78.6867535, 29.1000051 ], [ 78.6865497, 29.1000895 ], [ 78.6860561, 29.1000707 ], [ 78.6854017, 29.0998926 ], [ 78.6839318, 29.0993208 ], [ 78.6828053, 29.0990676 ], [ 78.680166, 29.0978208 ], [ 78.679018, 29.0976052 ], [ 78.6777305, 29.0977927 ], [ 78.6766362, 29.0982145 ], [ 78.6749196, 29.0993395 ], [ 78.6739325, 29.1006144 ], [ 78.6734605, 29.1015519 ], [ 78.6733746, 29.1021612 ], [ 78.6731279, 29.1029487 ], [ 78.6730528, 29.1037455 ], [ 78.6733854, 29.1072982 ], [ 78.6732244, 29.1082544 ], [ 78.6726344, 29.1091543 ], [ 78.6720121, 29.1104291 ], [ 78.6720979, 29.1112446 ], [ 78.6728382, 29.1122663 ], [ 78.6736643, 29.1129224 ], [ 78.6755741, 29.1137285 ], [ 78.6767113, 29.1140941 ], [ 78.67787, 29.114769 ], [ 78.6790395, 29.1158281 ], [ 78.679415, 29.1168123 ], [ 78.6794364, 29.1172153 ], [ 78.6792326, 29.1178902 ], [ 78.6788946, 29.1183776 ], [ 78.6784977, 29.1187384 ], [ 78.6775213, 29.118954 ], [ 78.6758637, 29.1188275 ], [ 78.6742866, 29.1180402 ], [ 78.6732781, 29.1177543 ], [ 78.6727256, 29.1178152 ], [ 78.6715561, 29.1181011 ], [ 78.6704189, 29.1186869 ], [ 78.669244, 29.1198491 ], [ 78.6690134, 29.1201819 ], [ 78.66889, 29.1210769 ], [ 78.6686218, 29.1218549 ], [ 78.6691689, 29.1220892 ], [ 78.669405, 29.1211051 ], [ 78.6700165, 29.1200928 ], [ 78.670428, 29.1196788 ], [ 78.6710787, 29.1190243 ], [ 78.6717224, 29.1186494 ], [ 78.6725807, 29.1183307 ], [ 78.6731923, 29.1182651 ], [ 78.6740935, 29.1183776 ], [ 78.675735, 29.119493 ], [ 78.6765718, 29.1197273 ], [ 78.677014, 29.1197608 ], [ 78.6776876, 29.119671 ], [ 78.678782, 29.1191274 ], [ 78.6794579, 29.1185838 ], [ 78.679887, 29.1179371 ], [ 78.6801284, 29.1171357 ], [ 78.6800963, 29.1164983 ], [ 78.6797529, 29.1158563 ], [ 78.6793506, 29.1153173 ], [ 78.6781704, 29.1142675 ], [ 78.6772639, 29.1137473 ], [ 78.6757672, 29.113063 ], [ 78.6747855, 29.1128147 ], [ 78.6741364, 29.1123038 ], [ 78.673321, 29.111582 ], [ 78.6727899, 29.1109259 ], [ 78.6726934, 29.1101479 ], [ 78.6730903, 29.1093324 ], [ 78.6736053, 29.1088355 ], [ 78.6739433, 29.1083434 ], [ 78.6742169, 29.1070123 ], [ 78.6741578, 29.1058265 ], [ 78.6738682, 29.104486 ], [ 78.6738682, 29.1040736 ], [ 78.6740184, 29.1034549 ], [ 78.6739057, 29.1024893 ], [ 78.6739325, 29.1016925 ], [ 78.6742598, 29.1008816 ], [ 78.6749625, 29.1000567 ], [ 78.675676, 29.0994848 ], [ 78.6763412, 29.0990161 ], [ 78.6776394, 29.0986036 ], [ 78.6789107, 29.0984302 ], [ 78.6800587, 29.0984114 ], [ 78.6809063, 29.0986552 ], [ 78.6828911, 29.1000613 ], [ 78.6836743, 29.1003238 ], [ 78.684994, 29.1006051 ], [ 78.6863029, 29.1005769 ], [ 78.6870968, 29.100427 ], [ 78.6877191, 29.1001082 ], [ 78.688792, 29.099002 ], [ 78.6891997, 29.0981958 ], [ 78.6892533, 29.0976896 ], [ 78.6891675, 29.0969208 ], [ 78.6886632, 29.096274 ], [ 78.6876547, 29.0953833 ], [ 78.6852193, 29.0939115 ], [ 78.6844146, 29.0930114 ], [ 78.6837816, 29.0928052 ], [ 78.6831969, 29.0919333 ], [ 78.682993, 29.0910661 ], [ 78.6830252, 29.0898613 ], [ 78.6831486, 29.0893738 ], [ 78.6831486, 29.0882956 ], [ 78.6827516, 29.0871049 ], [ 78.6826658, 29.085722 ], [ 78.6827624, 29.0852672 ], [ 78.683567, 29.0835139 ], [ 78.6842, 29.0828857 ], [ 78.6852515, 29.0825763 ], [ 78.6869573, 29.0823419 ], [ 78.6871612, 29.0822482 ], [ 78.6874509, 29.0818731 ], [ 78.6874992, 29.0815871 ], [ 78.6877406, 29.0795993 ], [ 78.6876816, 29.0789242 ], [ 78.6870325, 29.0762988 ], [ 78.6859971, 29.0742265 ], [ 78.6857665, 29.0722714 ], [ 78.6857772, 29.0718213 ], [ 78.6859167, 29.0713993 ], [ 78.6859918, 29.0704147 ], [ 78.6863136, 29.0698615 ], [ 78.6875796, 29.0688769 ], [ 78.6896932, 29.068061 ], [ 78.689897, 29.0680048 ], [ 78.6900365, 29.0680516 ], [ 78.6909807, 29.0673483 ] ] ] } },
{ "type": "Feature", "properties": { "element": "way", "id": 1213542268, "addr:district": null, "addr:full": null, "addr:postcode": null, "addr:state": null, "amenity": null, "name": null, "source": null, "addr:block": null, "addr:subdistrict": null, "description": null, "operator": null, "operator:type": null, "healthcare": null, "healthcare:speciality": null, "natural": "water", "water": "river", "landuse": null, "type": null }, "geometry": { "type": "Polygon", "coordinates": [ [ [ 78.6686218, 29.1218549 ], [ 78.6684984, 29.1221595 ], [ 78.6683589, 29.1223235 ], [ 78.668139, 29.123092 ], [ 78.6679888, 29.1243761 ], [ 78.6682033, 29.1250227 ], [ 78.6685467, 29.1256647 ], [ 78.6690885, 29.126124 ], [ 78.670038, 29.1264286 ], [ 78.6713254, 29.1265926 ], [ 78.6721301, 29.126452 ], [ 78.6727846, 29.126288 ], [ 78.6735946, 29.1260115 ], [ 78.6743134, 29.1256882 ], [ 78.6745548, 29.1255195 ], [ 78.6757672, 29.1243479 ], [ 78.6762339, 29.1240761 ], [ 78.6770707, 29.1238278 ], [ 78.6778378, 29.1239402 ], [ 78.6787981, 29.1245869 ], [ 78.6794043, 29.1250743 ], [ 78.6801392, 29.1260068 ], [ 78.6805115, 29.1269689 ], [ 78.6807979, 29.1279182 ], [ 78.6809117, 29.1282843 ], [ 78.6810565, 29.1285748 ], [ 78.6812335, 29.1294932 ], [ 78.6812335, 29.130243 ], [ 78.6809492, 29.1309787 ], [ 78.6802894, 29.1319158 ], [ 78.6798227, 29.1322438 ], [ 78.6790985, 29.132525 ], [ 78.6786157, 29.132525 ], [ 78.6778164, 29.132689 ], [ 78.6774462, 29.1326421 ], [ 78.6768857, 29.1326562 ], [ 78.6763385, 29.1324078 ], [ 78.6748874, 29.1320377 ], [ 78.6741364, 29.1318877 ], [ 78.6735785, 29.1318409 ], [ 78.67235, 29.131958 ], [ 78.6714327, 29.1319861 ], [ 78.6705744, 29.1322345 ], [ 78.6695176, 29.132375 ], [ 78.6687344, 29.1325344 ], [ 78.6678386, 29.1329748 ], [ 78.6677098, 29.1331576 ], [ 78.6676079, 29.1340338 ], [ 78.6676776, 29.1346945 ], [ 78.668139, 29.1363485 ], [ 78.6690134, 29.1379323 ], [ 78.6698556, 29.1392676 ], [ 78.6701345, 29.140022 ], [ 78.6702204, 29.1405561 ], [ 78.6696571, 29.1415775 ], [ 78.6690938, 29.1421632 ], [ 78.6682892, 29.1428426 ], [ 78.6672324, 29.1436063 ], [ 78.6662668, 29.1439999 ], [ 78.6651832, 29.1445527 ], [ 78.6650276, 29.1446839 ], [ 78.6643839, 29.1449416 ], [ 78.6636007, 29.1454382 ], [ 78.6624527, 29.146394 ], [ 78.6616856, 29.1475372 ], [ 78.6612135, 29.1485492 ], [ 78.6604196, 29.149786 ], [ 78.6602694, 29.1502639 ], [ 78.6600012, 29.150798 ], [ 78.6599153, 29.1512102 ], [ 78.6601943, 29.1518942 ], [ 78.6603069, 29.1520207 ], [ 78.6608541, 29.1519786 ], [ 78.6614066, 29.1522831 ], [ 78.662045, 29.1529109 ], [ 78.6629462, 29.1534168 ], [ 78.663252, 29.1537026 ], [ 78.6636382, 29.1543538 ], [ 78.6643839, 29.1548035 ], [ 78.6651725, 29.1552111 ], [ 78.665843, 29.1553845 ], [ 78.6665672, 29.1553329 ], [ 78.6669856, 29.155108 ], [ 78.6673397, 29.1547895 ], [ 78.6678868, 29.1542507 ], [ 78.6682087, 29.1538057 ], [ 78.6682677, 29.1534356 ], [ 78.6682516, 29.1532435 ], [ 78.6681873, 29.1530561 ], [ 78.6681122, 29.1529765 ], [ 78.6680156, 29.152775 ], [ 78.6678171, 29.1521472 ], [ 78.6677527, 29.1514539 ], [ 78.6677259, 29.1507605 ], [ 78.6677957, 29.1492753 ], [ 78.6681551, 29.1484133 ], [ 78.6686432, 29.1478417 ], [ 78.6692655, 29.1473545 ], [ 78.6700058, 29.146989 ], [ 78.6709553, 29.1467313 ], [ 78.6719799, 29.1468391 ], [ 78.6725378, 29.1470827 ], [ 78.6732191, 29.1477152 ], [ 78.6736965, 29.1480666 ], [ 78.674013, 29.1484086 ], [ 78.6742544, 29.1489896 ], [ 78.6745065, 29.1494112 ], [ 78.6748123, 29.149786 ], [ 78.675456, 29.1501702 ], [ 78.6769313, 29.1505262 ], [ 78.6772746, 29.1506434 ], [ 78.678031, 29.1510463 ], [ 78.6784601, 29.1516085 ], [ 78.6785459, 29.1517818 ], [ 78.6785406, 29.1522878 ], [ 78.6782134, 29.1528781 ], [ 78.6776179, 29.1533794 ], [ 78.6772907, 29.1534871 ], [ 78.6762339, 29.1537073 ], [ 78.6755258, 29.1540305 ], [ 78.6751181, 29.1543304 ], [ 78.6746031, 29.1548925 ], [ 78.6742544, 29.1554828 ], [ 78.6741793, 29.1560075 ], [ 78.6742169, 29.1568555 ], [ 78.6744314, 29.1577877 ], [ 78.6747426, 29.1584623 ], [ 78.6753112, 29.159001 ], [ 78.6759925, 29.1594273 ], [ 78.6766899, 29.159699 ], [ 78.6773497, 29.1598677 ], [ 78.6783045, 29.1599895 ], [ 78.6792111, 29.1599895 ], [ 78.6800694, 29.1598911 ], [ 78.681373, 29.1596194 ], [ 78.6820489, 29.1593196 ], [ 78.6843502, 29.1584576 ], [ 78.6851603, 29.1582515 ], [ 78.68626, 29.1581484 ], [ 78.6878157, 29.1582187 ], [ 78.6889422, 29.1584201 ], [ 78.6901277, 29.1588511 ], [ 78.6916083, 29.1598021 ], [ 78.6919409, 29.1602331 ], [ 78.6921769, 29.1608514 ], [ 78.6916673, 29.1624629 ], [ 78.6916405, 29.1631046 ], [ 78.6914366, 29.1640509 ], [ 78.6912435, 29.1644444 ], [ 78.6911738, 29.1646552 ], [ 78.6910182, 29.1648613 ], [ 78.6906964, 29.1651564 ], [ 78.6903262, 29.1652829 ], [ 78.689838, 29.1652969 ], [ 78.689248, 29.1651892 ], [ 78.689087, 29.1651049 ], [ 78.6884057, 29.164182 ], [ 78.6881, 29.1639104 ], [ 78.687365, 29.1634419 ], [ 78.6869949, 29.163278 ], [ 78.6864853, 29.1631374 ], [ 78.6861366, 29.1631421 ], [ 78.6856216, 29.1633014 ], [ 78.6849672, 29.1637558 ], [ 78.6846399, 29.164079 ], [ 78.684538, 29.1642851 ], [ 78.6845165, 29.1651095 ], [ 78.6848491, 29.1654749 ], [ 78.6862653, 29.1666741 ], [ 78.6871505, 29.1675735 ], [ 78.6878049, 29.1683557 ], [ 78.6881635, 29.1688884 ], [ 78.6884969, 29.1696204 ], [ 78.689028, 29.1714004 ], [ 78.6894679, 29.1733442 ], [ 78.6896074, 29.1735222 ], [ 78.6896288, 29.1746557 ], [ 78.6895645, 29.1753724 ], [ 78.6895698, 29.1755808 ], [ 78.6894786, 29.1767447 ], [ 78.6891782, 29.1777002 ], [ 78.6885483, 29.1790201 ], [ 78.6884272, 29.1792739 ], [ 78.6882663, 29.1803418 ], [ 78.6880302, 29.1809694 ], [ 78.6876869, 29.1814846 ], [ 78.6875367, 29.1816251 ], [ 78.6867106, 29.1817843 ], [ 78.6853373, 29.1816532 ], [ 78.6847901, 29.1815221 ], [ 78.6843824, 29.181241 ], [ 78.6825371, 29.1804636 ], [ 78.6814105, 29.1801357 ], [ 78.6808205, 29.180042 ], [ 78.6798656, 29.1797704 ], [ 78.6790502, 29.1797048 ], [ 78.6781061, 29.1797891 ], [ 78.6774838, 29.1800889 ], [ 78.6769903, 29.1808664 ], [ 78.6768293, 29.1816157 ], [ 78.6768937, 29.1820185 ], [ 78.6773282, 29.1825384 ], [ 78.6775911, 29.1827398 ], [ 78.678031, 29.182974 ], [ 78.6789, 29.1833205 ], [ 78.6795437, 29.1838545 ], [ 78.6800909, 29.18466 ], [ 78.6800265, 29.185044 ], [ 78.6801016, 29.185784 ], [ 78.6800909, 29.1865427 ], [ 78.6798656, 29.1872827 ], [ 78.6794257, 29.1878634 ], [ 78.6795866, 29.1888094 ], [ 78.67993, 29.189718 ], [ 78.6802304, 29.1900271 ], [ 78.6812603, 29.1904392 ], [ 78.6814964, 29.1904954 ], [ 78.6821937, 29.1905703 ], [ 78.6828053, 29.1904766 ], [ 78.6831593, 29.1902519 ], [ 78.68361, 29.1898023 ], [ 78.6842644, 29.1894182 ], [ 78.6848652, 29.1889874 ], [ 78.6857772, 29.1888844 ], [ 78.6863029, 29.1892309 ], [ 78.6869895, 29.190102 ], [ 78.6871719, 29.1909169 ], [ 78.6872148, 29.1913664 ], [ 78.6871397, 29.1917692 ], [ 78.6868071, 29.1920127 ], [ 78.6860025, 29.1922656 ], [ 78.6855626, 29.1923874 ], [ 78.6849189, 29.1924248 ], [ 78.6847043, 29.1924061 ], [ 78.6825268, 29.1919455 ], [ 78.6819148, 29.191816 ], [ 78.6810028, 29.1917224 ], [ 78.6807239, 29.1916568 ], [ 78.6800158, 29.1917036 ], [ 78.6791682, 29.1916755 ], [ 78.6783314, 29.1917036 ], [ 78.6775213, 29.1920361 ], [ 78.6764109, 29.1926683 ], [ 78.6759174, 29.1930336 ], [ 78.6749947, 29.1933614 ], [ 78.674587, 29.1935768 ], [ 78.673321, 29.1937173 ], [ 78.6724949, 29.194195 ], [ 78.6719906, 29.1945977 ], [ 78.6716795, 29.1947476 ], [ 78.6714649, 29.1947757 ], [ 78.669523, 29.1957029 ], [ 78.6692011, 29.1960494 ], [ 78.6690509, 29.1964615 ], [ 78.6692119, 29.1978289 ], [ 78.6695981, 29.1987842 ], [ 78.6699092, 29.1992619 ], [ 78.6707568, 29.2002733 ], [ 78.6711109, 29.2009102 ], [ 78.6712503, 29.2010694 ], [ 78.6730957, 29.2030736 ], [ 78.6737975, 29.2037363 ], [ 78.6748016, 29.2046843 ], [ 78.6760354, 29.2059393 ], [ 78.6776554, 29.2073065 ], [ 78.6795866, 29.2087206 ], [ 78.6818612, 29.2106684 ], [ 78.6835027, 29.2121948 ], [ 78.6842966, 29.2131781 ], [ 78.684833, 29.2139647 ], [ 78.684994, 29.2144984 ], [ 78.6848223, 29.2157157 ], [ 78.6844468, 29.2166521 ], [ 78.6833417, 29.2181878 ], [ 78.6818612, 29.2198826 ], [ 78.6814964, 29.2204351 ], [ 78.6811584, 29.221142 ], [ 78.6809921, 29.2216196 ], [ 78.6806488, 29.2221392 ], [ 78.6803538, 29.2224763 ], [ 78.6799622, 29.2226683 ], [ 78.6794579, 29.2227759 ], [ 78.6788517, 29.2227572 ], [ 78.6784708, 29.2226121 ], [ 78.6784118, 29.2225278 ], [ 78.678267, 29.2223078 ], [ 78.6784118, 29.221863 ], [ 78.6784601, 29.2215587 ], [ 78.6787015, 29.2211373 ], [ 78.6789966, 29.2202291 ], [ 78.6790341, 29.2197749 ], [ 78.6784333, 29.2197094 ], [ 78.6783475, 29.2204164 ], [ 78.6778378, 29.2216102 ], [ 78.6777306, 29.2219613 ], [ 78.6777037, 29.222172 ], [ 78.6776608, 29.2226964 ], [ 78.6776876, 29.2229913 ], [ 78.6777681, 29.2232956 ], [ 78.6778539, 29.2234735 ], [ 78.678031, 29.2236701 ], [ 78.6781329, 29.2237076 ], [ 78.6784065, 29.2237685 ], [ 78.6786318, 29.2237638 ], [ 78.6793027, 29.2235725 ], [ 78.6798119, 29.2232347 ], [ 78.6799085, 29.2231786 ], [ 78.6803484, 29.2229351 ], [ 78.6806542, 29.2228368 ], [ 78.680799, 29.2227338 ], [ 78.6810082, 29.2224389 ], [ 78.6814105, 29.2217038 ], [ 78.6819202, 29.2211795 ], [ 78.6829984, 29.2202291 ], [ 78.6831272, 29.2200605 ], [ 78.6830413, 29.2200137 ], [ 78.6831593, 29.2198545 ], [ 78.6832237, 29.2196766 ], [ 78.6834276, 29.2194051 ], [ 78.6839425, 29.2189182 ], [ 78.684243, 29.2184687 ], [ 78.6844844, 29.2178179 ], [ 78.6850154, 29.2169284 ], [ 78.6854124, 29.2159405 ], [ 78.6856484, 29.2151445 ], [ 78.6855948, 29.2148823 ], [ 78.685348, 29.2143392 ], [ 78.685348, 29.2141519 ], [ 78.6850691, 29.2133934 ], [ 78.684082, 29.2118764 ], [ 78.6838996, 29.2115018 ], [ 78.6831701, 29.2107714 ], [ 78.6812389, 29.2090015 ], [ 78.679769, 29.2077748 ], [ 78.6772585, 29.2057707 ], [ 78.6771297, 29.2055928 ], [ 78.6764431, 29.2048997 ], [ 78.6759388, 29.2046563 ], [ 78.6757672, 29.2045345 ], [ 78.6753702, 29.2043659 ], [ 78.6752093, 29.2042161 ], [ 78.6746299, 29.2036074 ], [ 78.674469, 29.2034856 ], [ 78.6742008, 29.2031672 ], [ 78.6737931, 29.2023431 ], [ 78.6731923, 29.2017718 ], [ 78.673042, 29.201444 ], [ 78.672452, 29.2009289 ], [ 78.6720657, 29.2007229 ], [ 78.6719048, 29.2005824 ], [ 78.6714542, 29.1999081 ], [ 78.6714005, 29.1997208 ], [ 78.6709607, 29.199393 ], [ 78.6704886, 29.1989528 ], [ 78.6701989, 29.1985875 ], [ 78.6701345, 29.1984002 ], [ 78.6699736, 29.197267 ], [ 78.6701238, 29.1963211 ], [ 78.6705422, 29.1958996 ], [ 78.6714649, 29.195347 ], [ 78.672452, 29.1950192 ], [ 78.6734712, 29.1947382 ], [ 78.6736536, 29.1947663 ], [ 78.6743188, 29.1943449 ], [ 78.6750913, 29.1939889 ], [ 78.675617, 29.1936049 ], [ 78.6788142, 29.1926496 ], [ 78.679887, 29.1924248 ], [ 78.6823869, 29.1923967 ], [ 78.6832988, 29.1926121 ], [ 78.6843342, 29.1930617 ], [ 78.6852515, 29.1931788 ], [ 78.6856699, 29.1933146 ], [ 78.6859971, 29.1933521 ], [ 78.6865175, 29.1931788 ], [ 78.6869574, 29.1928978 ], [ 78.6872363, 29.1926543 ], [ 78.6873972, 29.1924201 ], [ 78.6878049, 29.1917364 ], [ 78.6877352, 29.1906593 ], [ 78.6875957, 29.1900786 ], [ 78.6873758, 29.1896243 ], [ 78.6870485, 29.1891607 ], [ 78.6867642, 29.188889 ], [ 78.6864048, 29.1886877 ], [ 78.6855143, 29.1884488 ], [ 78.6848491, 29.1885893 ], [ 78.6842108, 29.1888516 ], [ 78.6834276, 29.189348 ], [ 78.6827103, 29.1897947 ], [ 78.6823225, 29.1899568 ], [ 78.6817646, 29.1899006 ], [ 78.6808097, 29.1896524 ], [ 78.6803216, 29.1894791 ], [ 78.6802626, 29.1893948 ], [ 78.6801767, 29.1890108 ], [ 78.6801338, 29.1885284 ], [ 78.6801714, 29.1882193 ], [ 78.6806917, 29.1867581 ], [ 78.680799, 29.1863273 ], [ 78.6806381, 29.1849972 ], [ 78.6804235, 29.1842198 ], [ 78.6798763, 29.1835079 ], [ 78.6792487, 29.1828896 ], [ 78.6788437, 29.182625 ], [ 78.6781521, 29.1824961 ], [ 78.6779264, 29.1824541 ], [ 78.677457, 29.1818827 ], [ 78.6772799, 29.1815314 ], [ 78.6772907, 29.1812083 ], [ 78.6774597, 29.180871 ], [ 78.6776662, 29.1806298 ], [ 78.67787, 29.1804753 ], [ 78.6787337, 29.1800233 ], [ 78.6789215, 29.1799858 ], [ 78.6803108, 29.1803512 ], [ 78.6809029, 29.1805481 ], [ 78.6829019, 29.1812129 ], [ 78.6845326, 29.1819529 ], [ 78.6853909, 29.1822714 ], [ 78.6861634, 29.1824026 ], [ 78.6869252, 29.1824213 ], [ 78.6874509, 29.1822527 ], [ 78.6879659, 29.1819061 ], [ 78.6883306, 29.1814471 ], [ 78.6887866, 29.1806415 ], [ 78.6891139, 29.1792552 ], [ 78.6895001, 29.1786791 ], [ 78.6899239, 29.1775316 ], [ 78.6901948, 29.1758454 ], [ 78.6902082, 29.1744918 ], [ 78.6901385, 29.1734004 ], [ 78.6899775, 29.1727681 ], [ 78.6897147, 29.1711568 ], [ 78.6893928, 29.1702668 ], [ 78.6889154, 29.1687258 ], [ 78.6884862, 29.1677421 ], [ 78.6874509, 29.1667397 ], [ 78.6869734, 29.1664586 ], [ 78.6858255, 29.1656014 ], [ 78.6854607, 29.1648566 ], [ 78.6853266, 29.1644772 ], [ 78.6853588, 29.1642851 ], [ 78.685509, 29.1638963 ], [ 78.685745, 29.1636902 ], [ 78.6862975, 29.1635637 ], [ 78.6868179, 29.1635824 ], [ 78.6871451, 29.1636996 ], [ 78.6874455, 29.1639759 ], [ 78.6877191, 29.1643928 ], [ 78.6881858, 29.1649737 ], [ 78.6885881, 29.1654187 ], [ 78.6888188, 29.1655873 ], [ 78.6898005, 29.1659012 ], [ 78.6901009, 29.1659152 ], [ 78.690412, 29.1658543 ], [ 78.6909753, 29.1654421 ], [ 78.6913294, 29.1651142 ], [ 78.6918497, 29.1645287 ], [ 78.691898, 29.1644256 ], [ 78.6919624, 29.1637558 ], [ 78.6923915, 29.1629735 ], [ 78.6926866, 29.1620741 ], [ 78.6927026, 29.1616806 ], [ 78.6926758, 29.1610997 ], [ 78.6925632, 29.1604017 ], [ 78.6925256, 29.1603127 ], [ 78.6920696, 29.1597459 ], [ 78.6919677, 29.1594882 ], [ 78.6917317, 29.1593945 ], [ 78.6916888, 29.1593102 ], [ 78.6915439, 29.1593008 ], [ 78.6913723, 29.1591884 ], [ 78.6913562, 29.1590947 ], [ 78.6911792, 29.1590666 ], [ 78.6910289, 29.1588839 ], [ 78.690471, 29.1584576 ], [ 78.6900043, 29.1582093 ], [ 78.6897522, 29.1581531 ], [ 78.6896664, 29.1580969 ], [ 78.6894411, 29.1581109 ], [ 78.6893499, 29.1580594 ], [ 78.6872041, 29.1577409 ], [ 78.6860347, 29.1577315 ], [ 78.6853105, 29.1577783 ], [ 78.6845702, 29.1579329 ], [ 78.6839157, 29.158139 ], [ 78.6831969, 29.1582608 ], [ 78.6822313, 29.1585419 ], [ 78.681829, 29.1587808 ], [ 78.6806971, 29.1590291 ], [ 78.679592, 29.1592165 ], [ 78.6790341, 29.1594133 ], [ 78.6784279, 29.1595163 ], [ 78.6776662, 29.1595257 ], [ 78.6771566, 29.1593617 ], [ 78.6761963, 29.1589354 ], [ 78.6755902, 29.1584763 ], [ 78.6750913, 29.1578954 ], [ 78.6748552, 29.1574785 ], [ 78.6747855, 29.1569491 ], [ 78.6747855, 29.1564338 ], [ 78.6748928, 29.1557077 ], [ 78.6753648, 29.1548644 ], [ 78.6758691, 29.1543351 ], [ 78.6762983, 29.1540961 ], [ 78.6777735, 29.1538572 ], [ 78.6781007, 29.153712 ], [ 78.6785141, 29.1533561 ], [ 78.6788571, 29.1530608 ], [ 78.6789751, 29.1528031 ], [ 78.6789858, 29.1521707 ], [ 78.6789161, 29.1516272 ], [ 78.6786854, 29.1511259 ], [ 78.6781704, 29.1506481 ], [ 78.6776715, 29.1503295 ], [ 78.6767918, 29.149964 ], [ 78.6760569, 29.1498422 ], [ 78.6756653, 29.1497017 ], [ 78.6751717, 29.1493831 ], [ 78.6747426, 29.1489755 ], [ 78.674072, 29.1477105 ], [ 78.6737019, 29.147331 ], [ 78.6728489, 29.1467688 ], [ 78.6720443, 29.146469 ], [ 78.6715776, 29.1463612 ], [ 78.6709607, 29.146319 ], [ 78.6704618, 29.14638 ], [ 78.6702365, 29.146469 ], [ 78.669861, 29.1465439 ], [ 78.6692762, 29.1467595 ], [ 78.6686808, 29.1470874 ], [ 78.6681819, 29.1475794 ], [ 78.6675757, 29.1483992 ], [ 78.6672217, 29.1489614 ], [ 78.666991, 29.1497017 ], [ 78.6669052, 29.1504653 ], [ 78.6669695, 29.1512805 ], [ 78.6671787, 29.1520676 ], [ 78.6673558, 29.1529202 ], [ 78.6673182, 29.1535386 ], [ 78.6670285, 29.1543023 ], [ 78.6666369, 29.1547145 ], [ 78.6660415, 29.1549207 ], [ 78.6656338, 29.1549253 ], [ 78.6651671, 29.154752 ], [ 78.6645931, 29.1544428 ], [ 78.6639816, 29.15389 ], [ 78.6630589, 29.1527422 ], [ 78.6621845, 29.1520816 ], [ 78.6613476, 29.1515757 ], [ 78.6611438, 29.151482 ], [ 78.6608005, 29.1513883 ], [ 78.6605912, 29.1512243 ], [ 78.660543, 29.15114 ], [ 78.6604249, 29.1508776 ], [ 78.6605215, 29.1505122 ], [ 78.661176, 29.1496642 ], [ 78.6622864, 29.1476403 ], [ 78.6626244, 29.1471717 ], [ 78.6638421, 29.1460145 ], [ 78.6649418, 29.1452415 ], [ 78.6668837, 29.1443653 ], [ 78.667683, 29.1440889 ], [ 78.6680478, 29.1439108 ], [ 78.6685198, 29.1435782 ], [ 78.6695713, 29.1427067 ], [ 78.6698985, 29.1422616 ], [ 78.6704242, 29.1416572 ], [ 78.6705691, 29.1411371 ], [ 78.6706442, 29.1404015 ], [ 78.6703277, 29.1390662 ], [ 78.6701399, 29.1386679 ], [ 78.6700165, 29.1385507 ], [ 78.6695659, 29.1375012 ], [ 78.668772, 29.1361189 ], [ 78.6681336, 29.1340057 ], [ 78.6681014, 29.1335465 ], [ 78.6682624, 29.1332747 ], [ 78.6689141, 29.1329256 ], [ 78.6693621, 29.1328249 ], [ 78.6710948, 29.1328296 ], [ 78.6727792, 29.132614 ], [ 78.6733103, 29.1326328 ], [ 78.6742169, 29.1325765 ], [ 78.6751395, 29.1327405 ], [ 78.6770815, 29.1332419 ], [ 78.6782831, 29.1332419 ], [ 78.6788785, 29.1331763 ], [ 78.6798817, 29.1327077 ], [ 78.6803377, 29.1325484 ], [ 78.6808258, 29.1321782 ], [ 78.6811155, 29.131794 ], [ 78.6813623, 29.1313816 ], [ 78.6817029, 29.1302664 ], [ 78.6817297, 29.1295588 ], [ 78.6815929, 29.1283381 ], [ 78.6814588, 29.1280664 ], [ 78.6809143, 29.1257561 ], [ 78.6804771, 29.1250298 ], [ 78.6800802, 29.1246525 ], [ 78.6799514, 29.1245987 ], [ 78.6798522, 29.1244885 ], [ 78.6786801, 29.1237036 ], [ 78.6784038, 29.1236427 ], [ 78.678267, 29.1235583 ], [ 78.677634, 29.1233802 ], [ 78.6773148, 29.1233568 ], [ 78.6767542, 29.1233849 ], [ 78.6761427, 29.1236989 ], [ 78.6758503, 29.1237856 ], [ 78.675397, 29.1240223 ], [ 78.6750108, 29.1244932 ], [ 78.6731654, 29.1255054 ], [ 78.6719799, 29.1259365 ], [ 78.6714381, 29.126056 ], [ 78.6709928, 29.1260865 ], [ 78.6702311, 29.1259178 ], [ 78.6693245, 29.1255476 ], [ 78.6688149, 29.1249665 ], [ 78.668611, 29.124526 ], [ 78.6685842, 29.1244276 ], [ 78.6686325, 29.1236638 ], [ 78.6691207, 29.1222391 ], [ 78.6691689, 29.1220892 ], [ 78.6686218, 29.1218549 ] ] ] } },
{ "type": "Feature", "properties": { "element": "way", "id": 1376657804, "addr:district": null, "addr:full": null, "addr:postcode": null, "addr:state": null, "amenity": null, "name": null, "source": null, "addr:block": null, "addr:subdistrict": null, "description": null, "operator": null, "operator:type": null, "healthcare": null, "healthcare:speciality": null, "natural": "water", "water": "pond", "landuse": null, "type": null }, "geometry": { "type": "Polygon", "coordinates": [ [ [ 78.1738524, 28.7962953 ], [ 78.1745626, 28.7968691 ], [ 78.1753754, 28.7960904 ], [ 78.1753277, 28.7958135 ], [ 78.1752549, 28.7957367 ], [ 78.1750742, 28.7956407 ], [ 78.1749553, 28.7956325 ], [ 78.1748349, 28.7957175 ], [ 78.1746941, 28.7957188 ], [ 78.1744571, 28.7958155 ], [ 78.1741981, 28.7956284 ], [ 78.1741081, 28.7956632 ], [ 78.1740353, 28.7956824 ], [ 78.173979, 28.7957147 ], [ 78.1739508, 28.7957695 ], [ 78.173961, 28.795849 ], [ 78.1740228, 28.7959361 ], [ 78.1739946, 28.7960314 ], [ 78.1739367, 28.7960691 ], [ 78.1738413, 28.7961239 ], [ 78.1738524, 28.7962953 ] ] ] } }
]
}
