{
"type": "FeatureCollection",
"name": "Baghpat_resources",
"crs": { "type": "name", "properties": { "name": "urn:ogc:def:crs:OGC:1.3:CRS84" } },
"features": [
{ "type": "Feature", "properties": { "element": "node", "id": 7018011394, "addr:district": "Baghpat", "addr:full": "Delhi- Sharanpur Road , Barut", "addr:postcode": "250611", "addr:state": "Uttar Pradesh", "amenity": "clinic", "name": "Tomar Nursing Home, Baghpat", "source": "OpenGovernmentData", "addr:block": null, "addr:subdistrict": null, "description": null, "alt_name": null, "int_name": null, "old_name": null, "natural": null, "water": null, "source:position": null, "source:tracer": null, "source:zoomlevel": null, "landuse": null, "man_made": null, "intermittent": null, "type": null }, "geometry": { "type": "Point", "coordinates": [ 77.2545598, 29.1031924 ] } },
{ "type": "Feature", "properties": { "element": "node", "id": 7018695194, "addr:district": "Baghpat", "addr:full": "Delhi Road, Baghpat", "addr:postcode": "250609", "addr:state": "Uttar Pradesh", "amenity": "hospital", "name": "Raksha Hospital and Trauma Centre", "source": "OpenGovernmentData", "addr:block": null, "addr:subdistrict": null, "description": null, "alt_name": null, "int_name": null, "old_name": null, "natural": null, "water": null, "source:position": null, "source:tracer": null, "source:zoomlevel": null, "landuse": null, "man_made": null, "intermittent": null, "type": null }, "geometry": { "type": "Point", "coordinates": [ 77.2296676, 28.9356942 ] } },
{ "type": "Feature", "properties": { "element": "node", "id": 7019563456, "addr:district": "Baghpat", "addr:full": "Gandhi Road Baraut", "addr:postcode": "250611", "addr:state": "Uttar Pradesh", "amenity": "hospital", "name": "Sanmati Hospital, Baghpat", "source": "OpenGovernmentData", "addr:block": null, "addr:subdistrict": null, "description": null, "alt_name": null, "int_name": null, "old_name": null, "natural": null, "water": null, "source:position": null, "source:tracer": null, "source:zoomlevel": null, "landuse": null, "man_made": null, "intermittent": null, "type": null }, "geometry": { "type": "Point", "coordinates": [ 77.2672209, 29.1002682 ] } },
{ "type": "Feature", "properties": { "element": "node", "id": 7020001207, "addr:district": "Baghpat", "addr:full": "Near P N Sharma Park,Ramesh Nagar, Delhi Road", "addr:postcode": "250611", "addr:state": "Uttar Pradesh", "amenity": "hospital", "name": "Astha Multispeciality Hospital", "source": "OpenGovernmentData", "addr:block": null, "addr:subdistrict": null, "description": null, "alt_name": null, "int_name": null, "old_name": null, "natural": null, "water": null, "source:position": null, "source:tracer": null, "source:zoomlevel": null, "landuse": null, "man_made": null, "intermittent": null, "type": null }, "geometry": { "type": "Point", "coordinates": [ 77.2584102, 29.0918981 ] } },
{ "type": "Feature", "properties": { "element": "node", "id": 7024841674, "addr:district": "Saharanpur", "addr:full": "Parkash Puram Behind Tarawati Hospital Bajori Road", "addr:postcode": "247001", "addr:state": "Uttar Pradesh", "amenity": "clinic", "name": "Usha Nursing Home, Saharanpur", "source": "OpenGovernmentData", "addr:block": null, "addr:subdistrict": null, "description": null, "alt_name": null, "int_name": null, "old_name": null, "natural": null, "water": null, "source:position": null, "source:tracer": null, "source:zoomlevel": null, "landuse": null, "man_made": null, "intermittent": null, "type": null }, "geometry": { "type": "Point", "coordinates": [ 77.2541024, 29.1003636 ] } },
{ "type": "Feature", "properties": { "element": "node", "id": 7024892129, "addr:district": "Baghpat", "addr:full": "Gandhi Road , Baraut", "addr:postcode": "250611", "addr:state": "Uttar Pradesh", "amenity": "hospital", "name": "Mainawati Hospital", "source": "OpenGovernmentData", "addr:block": null, "addr:subdistrict": null, "description": null, "alt_name": null, "int_name": null, "old_name": null, "natural": null, "water": null, "source:position": null, "source:tracer": null, "source:zoomlevel": null, "landuse": null, "man_made": null, "intermittent": null, "type": null }, "geometry": { "type": "Point", "coordinates": [ 77.2693032, 29.1000057 ] } },
{ "type": "Feature", "properties": { "element": "node", "id": 7027410911, "addr:district": "Baghpat", "addr:full": "Near Canal, Gandhi Road", "addr:postcode": "250611", "addr:state": "Uttar Pradesh", "amenity": "hospital", "name": "Anand Hospital", "source": "OpenGovernmentData", "addr:block": null, "addr:subdistrict": null, "description": null, "alt_name": null, "int_name": null, "old_name": null, "natural": null, "water": null, "source:position": null, "source:tracer": null, "source:zoomlevel": null, "landuse": null, "man_made": null, "intermittent": null, "type": null }, "geometry": { "type": "Point", "coordinates": [ 77.2718078, 29.0965728 ] } },
{ "type": "Feature", "properties": { "element": "node", "id": 7027718107, "addr:district": "Baghpat", "addr:full": "Near Meerut Road, Bypass,Delhi Road", "addr:postcode": "250609", "addr:state": "Uttar Pradesh", "amenity": "hospital", "name": "Jeevan Deep Hospital, Baghpat", "source": "OpenGovernmentData", "addr:block": null, "addr:subdistrict": null, "description": null, "alt_name": null, "int_name": null, "old_name": null, "natural": null, "water": null, "source:position": null, "source:tracer": null, "source:zoomlevel": null, "landuse": null, "man_made": null, "intermittent": null, "type": null }, "geometry": { "type": "Point", "coordinates": [ 77.2242824, 28.940924 ] } },
{ "type": "Feature", "properties": { "element": "node", "id": 7028056472, "addr:district": "Baghpat", "addr:full": "Near Canal, Gandhi Road, Baraut", "addr:postcode": "250611", "addr:state": "Uttar Pradesh", "amenity": "clinic", "name": "Verma Nursing Home, Baghpat", "source": "OpenGovernmentData", "addr:block": null, "addr:subdistrict": null, "description": null, "alt_name": null, "int_name": null, "old_name": null, "natural": null, "water": null, "source:position": null, "source:tracer": null, "source:zoomlevel": null, "landuse": null, "man_made": null, "intermittent": null, "type": null }, "geometry": { "type": "Point", "coordinates": [ 77.2694099, 29.0976114 ] } },
{ "type": "Feature", "properties": { "element": "node", "id": 7028192970, "addr:district": "Baghpat", "addr:full": "Kotana Road, Baraut", "addr:postcode": "250611", "addr:state": "Uttar Pradesh", "amenity": "clinic", "name": "Tarun Nursing Home", "source": "OpenGovernmentData", "addr:block": null, "addr:subdistrict": null, "description": null, "alt_name": null, "int_name": null, "old_name": null, "natural": null, "water": null, "source:position": null, "source:tracer": null, "source:zoomlevel": null, "landuse": null, "man_made": null, "intermittent": null, "type": null }, "geometry": { "type": "Point", "coordinates": [ 77.2570758, 29.0990981 ] } },
{ "type": "Feature", "properties": { "element": "node", "id": 7029081440, "addr:district": "Baraut", "addr:full": "Near Railway Colony, Gandhi Road", "addr:postcode": "250611", "addr:state": "Uttar Pradesh", "amenity": "hospital", "name": "M.M Children Hospital", "source": "OpenGovernmentData", "addr:block": null, "addr:subdistrict": null, "description": null, "alt_name": null, "int_name": null, "old_name": null, "natural": null, "water": null, "source:position": null, "source:tracer": null, "source:zoomlevel": null, "landuse": null, "man_made": null, "intermittent": null, "type": null }, "geometry": { "type": "Point", "coordinates": [ 77.2714671, 29.0994092 ] } },
{ "type": "Feature", "properties": { "element": "node", "id": 7030415506, "addr:district": "Baghpat", "addr:full": "Near Thakurdwara Baraut", "addr:postcode": "250611", "addr:state": "Uttar Pradesh", "amenity": "clinic", "name": "Akshay Nursing Home - Baraut", "source": "OpenGovernmentData", "addr:block": null, "addr:subdistrict": null, "description": null, "alt_name": null, "int_name": null, "old_name": null, "natural": null, "water": null, "source:position": null, "source:tracer": null, "source:zoomlevel": null, "landuse": null, "man_made": null, "intermittent": null, "type": null }, "geometry": { "type": "Point", "coordinates": [ 77.2612513, 29.1025321 ] } },
{ "type": "Feature", "properties": { "element": "node", "id": 7030526550, "addr:district": "Baghpat", "addr:full": "New Mandi, Barut", "addr:postcode": "250609", "addr:state": "Uttar Pradesh", "amenity": "clinic", "name": "Jeevan Jyoti Nursing Home - Baraut", "source": "OpenGovernmentData", "addr:block": null, "addr:subdistrict": null, "description": null, "alt_name": null, "int_name": null, "old_name": null, "natural": null, "water": null, "source:position": null, "source:tracer": null, "source:zoomlevel": null, "landuse": null, "man_made": null, "intermittent": null, "type": null }, "geometry": { "type": "Point", "coordinates": [ 77.2606324, 29.0999055 ] } },
{ "type": "Feature", "properties": { "element": "node", "id": 7031632596, "addr:district": "Baghpat", "addr:full": "Baraut", "addr:postcode": "250611", "addr:state": "Uttar Pradesh", "amenity": "clinic", "name": "Katiyar Nursing Home, Baghpat", "source": "OpenGovernmentData", "addr:block": null, "addr:subdistrict": null, "description": null, "alt_name": null, "int_name": null, "old_name": null, "natural": null, "water": null, "source:position": null, "source:tracer": null, "source:zoomlevel": null, "landuse": null, "man_made": null, "intermittent": null, "type": null }, "geometry": { "type": "Point", "coordinates": [ 77.2557333, 29.100332 ] } },
{ "type": "Feature", "properties": { "element": "node", "id": 7033003032, "addr:district": "Baghpat", "addr:full": "Paras Vihar Mohalla Badauli Road,Bauraut", "addr:postcode": "250611", "addr:state": "Uttar Pradesh", "amenity": "hospital", "name": "Bhopal Memorial Hospital", "source": "OpenGovernmentData", "addr:block": null, "addr:subdistrict": null, "description": null, "alt_name": null, "int_name": null, "old_name": null, "natural": null, "water": null, "source:position": null, "source:tracer": null, "source:zoomlevel": null, "landuse": null, "man_made": null, "intermittent": null, "type": null }, "geometry": { "type": "Point", "coordinates": [ 77.2587803, 29.0961275 ] } },
{ "type": "Feature", "properties": { "element": "node", "id": 7167157719, "addr:district": "Baghpat", "addr:full": "ON TANDA KIRTHAL ROAD", "addr:postcode": "250617", "addr:state": "Uttar Pradesh", "amenity": "hospital", "name": "Government Hospital", "source": "OpenGovernmentData", "addr:block": "Chapprouli", "addr:subdistrict": "Baraut", "description": null, "alt_name": null, "int_name": null, "old_name": null, "natural": null, "water": null, "source:position": null, "source:tracer": null, "source:zoomlevel": null, "landuse": null, "man_made": null, "intermittent": null, "type": null }, "geometry": { "type": "Point", "coordinates": [ 77.2443406, 29.2401891 ] } },
{ "type": "Feature", "properties": { "element": "node", "id": 7167606092, "addr:district": "Baghpat", "addr:full": "BUDHANA ROAD, DAHA", "addr:postcode": "250622", "addr:state": "Uttar Pradesh", "amenity": "hospital", "name": "Government Hospital daha", "source": "OpenGovernmentData", "addr:block": "Binoli", "addr:subdistrict": "Baraut", "description": "Government Hospital", "alt_name": null, "int_name": null, "old_name": null, "natural": null, "water": null, "source:position": null, "source:tracer": null, "source:zoomlevel": null, "landuse": null, "man_made": null, "intermittent": null, "type": null }, "geometry": { "type": "Point", "coordinates": [ 77.4120652, 29.1990968 ] } },
{ "type": "Feature", "properties": { "element": "node", "id": 7172778466, "addr:district": "Baghpat", "addr:full": "Aphc Bijrol", "addr:postcode": "250611", "addr:state": "Uttar Pradesh", "amenity": "hospital", "name": "Government Hospital Bijrol", "source": "OpenGovernmentData", "addr:block": null, "addr:subdistrict": "Baraut", "description": null, "alt_name": null, "int_name": null, "old_name": null, "natural": null, "water": null, "source:position": null, "source:tracer": null, "source:zoomlevel": null, "landuse": null, "man_made": null, "intermittent": null, "type": null }, "geometry": { "type": "Point", "coordinates": [ 77.3206488, 29.1265961 ] } },
{ "type": "Feature", "properties": { "element": "node", "id": 7172993090, "addr:district": "Baghpat", "addr:full": "NEAR WATTER TANK, TIKRI, TIKRI PHC", "addr:postcode": "250625", "addr:state": "Uttar Pradesh", "amenity": "hospital", "name": "Government Hospital tikiri", "source": "OpenGovernmentData", "addr:block": "Binoli", "addr:subdistrict": "Baraut", "description": "Government Hospital", "alt_name": null, "int_name": null, "old_name": null, "natural": null, "water": null, "source:position": null, "source:tracer": null, "source:zoomlevel": null, "landuse": null, "man_made": null, "intermittent": null, "type": null }, "geometry": { "type": "Point", "coordinates": [ 77.3540302, 29.2334841 ] } },
{ "type": "Feature", "properties": { "element": "node", "id": 7188078642, "addr:district": "Baghpat", "addr:full": "near court, goaripur", "addr:postcode": "250609", "addr:state": "Uttar Pradesh", "amenity": "hospital", "name": "District Combined Hospital Baghpat", "source": "OpenGovernmentData", "addr:block": null, "addr:subdistrict": null, "description": "District Hospital", "alt_name": null, "int_name": null, "old_name": null, "natural": null, "water": null, "source:position": null, "source:tracer": null, "source:zoomlevel": null, "landuse": null, "man_made": null, "intermittent": null, "type": null }, "geometry": { "type": "Point", "coordinates": [ 77.2170076, 28.9464293 ] } },
{ "type": "Feature", "properties": { "element": "node", "id": 7188999952, "addr:district": "Baghpat", "addr:full": "MEERUT BAGHPAT ROAD, DAULA", "addr:postcode": "250601", "addr:state": "Uttar Pradesh", "amenity": "hospital", "name": "Government Hospital Aminagar saray", "source": "OpenGovernmentData", "addr:block": "PILANA (PHC DAULA)", "addr:subdistrict": null, "description": "Government Hospital", "alt_name": null, "int_name": null, "old_name": null, "natural": null, "water": null, "source:position": null, "source:tracer": null, "source:zoomlevel": null, "landuse": null, "man_made": null, "intermittent": null, "type": null }, "geometry": { "type": "Point", "coordinates": [ 77.3927513, 28.9877528 ] } },
{ "type": "Feature", "properties": { "element": "node", "id": 7199863699, "addr:district": "Baghpat", "addr:full": "MEERUT BAGHPAT ROAD, DAULA", "addr:postcode": "250601", "addr:state": "Uttar Pradesh", "amenity": "hospital", "name": "Governmrnt Hospital,DAULA", "source": "OpenGovernmentData", "addr:block": "PILANA (PHC DAULA)", "addr:subdistrict": null, "description": null, "alt_name": null, "int_name": null, "old_name": null, "natural": null, "water": null, "source:position": null, "source:tracer": null, "source:zoomlevel": null, "landuse": null, "man_made": null, "intermittent": null, "type": null }, "geometry": { "type": "Point", "coordinates": [ 77.3356765, 28.9573229 ] } },
{ "type": "Feature", "properties": { "element": "relation", "id": 9050760, "addr:district": null, "addr:full": null, "addr:postcode": null, "addr:state": null, "amenity": null, "name": null, "source": null, "addr:block": null, "addr:subdistrict": null, "description": null, "alt_name": null, "int_name": null, "old_name": null, "natural": "water", "water": "river", "source:position": null, "source:tracer": null, "source:zoomlevel": null, "landuse": null, "man_made": null, "intermittent": null, "type": "multipolygon" }, "geometry": { "type": "Polygon", "coordinates": [ [ [ 77.144655, 29.1393895 ], [ 77.1437323, 29.139441 ], [ 77.1438664, 29.141184 ], [ 77.1437967, 29.1429222 ], [ 77.1435285, 29.1444403 ], [ 77.1435285, 29.144698 ], [ 77.143566, 29.1449322 ], [ 77.1437538, 29.145368 ], [ 77.143845, 29.145724 ], [ 77.1438611, 29.1459255 ], [ 77.1438396, 29.1461598 ], [ 77.1436331, 29.1465744 ], [ 77.1434882, 29.1469961 ], [ 77.1434373, 29.1473451 ], [ 77.1434319, 29.1478042 ], [ 77.1434641, 29.1481181 ], [ 77.1436036, 29.1486054 ], [ 77.1437323, 29.1488326 ], [ 77.143963, 29.1491863 ], [ 77.1440113, 29.1493011 ], [ 77.1439952, 29.1493972 ], [ 77.143963, 29.1495752 ], [ 77.1438369, 29.1499149 ], [ 77.1435821, 29.1503342 ], [ 77.1432629, 29.1506199 ], [ 77.1429223, 29.1507956 ], [ 77.1422437, 29.1511423 ], [ 77.1415061, 29.1515522 ], [ 77.1410876, 29.1517232 ], [ 77.1407765, 29.151906 ], [ 77.1405485, 29.1521402 ], [ 77.1400094, 29.1532201 ], [ 77.1382625, 29.1560961 ], [ 77.1360284, 29.1585807 ], [ 77.1346664, 29.1604158 ], [ 77.1339476, 29.1613292 ], [ 77.1336365, 29.1619429 ], [ 77.1328533, 29.1632733 ], [ 77.1322578, 29.1641399 ], [ 77.1321183, 29.1643272 ], [ 77.1334165, 29.1650862 ], [ 77.1359431, 29.1665874 ], [ 77.1369034, 29.1657326 ], [ 77.138498, 29.1643882 ], [ 77.1387045, 29.1642699 ], [ 77.1390089, 29.1641774 ], [ 77.139194, 29.1641118 ], [ 77.1393764, 29.1640298 ], [ 77.1414256, 29.1626502 ], [ 77.1416429, 29.1623715 ], [ 77.1417743, 29.162149 ], [ 77.141954, 29.1618 ], [ 77.1422464, 29.1612332 ], [ 77.1433675, 29.1598723 ], [ 77.1451914, 29.1573473 ], [ 77.1466076, 29.1553095 ], [ 77.1471065, 29.1542601 ], [ 77.148056, 29.1518052 ], [ 77.1485925, 29.1502779 ], [ 77.149065, 29.1487592 ], [ 77.149204, 29.1459489 ], [ 77.1491289, 29.1446652 ], [ 77.14885, 29.1431284 ], [ 77.1486783, 29.1412215 ], [ 77.1482385, 29.1393051 ], [ 77.144655, 29.1393895 ] ], [ [ 77.1455508, 29.1413761 ], [ 77.1460175, 29.1403547 ], [ 77.1463501, 29.1398767 ], [ 77.1465379, 29.1396425 ], [ 77.1466787, 29.1395136 ], [ 77.1467793, 29.1394984 ], [ 77.1468504, 29.1395113 ], [ 77.1469375, 29.1395652 ], [ 77.1473613, 29.1399447 ], [ 77.1474203, 29.1400759 ], [ 77.1474498, 29.1402305 ], [ 77.1476, 29.1420086 ], [ 77.1475518, 29.1422522 ], [ 77.1474338, 29.1423975 ], [ 77.1471173, 29.1426973 ], [ 77.1468866, 29.142777 ], [ 77.1466184, 29.1427536 ], [ 77.146275, 29.1425521 ], [ 77.1456528, 29.141929 ], [ 77.1455455, 29.1416759 ], [ 77.1455213, 29.141512 ], [ 77.1455508, 29.1413761 ] ], [ [ 77.1452638, 29.1461035 ], [ 77.1456984, 29.1456046 ], [ 77.1459022, 29.1454125 ], [ 77.1460605, 29.1453211 ], [ 77.1462268, 29.1453094 ], [ 77.1463756, 29.1453691 ], [ 77.1464668, 29.1454734 ], [ 77.146672, 29.1457147 ], [ 77.1468866, 29.1461504 ], [ 77.1469134, 29.1466189 ], [ 77.1467632, 29.1475278 ], [ 77.1465741, 29.1486323 ], [ 77.1465138, 29.1489978 ], [ 77.146444, 29.1491606 ], [ 77.1463609, 29.1492004 ], [ 77.1462817, 29.1491969 ], [ 77.1461892, 29.1491442 ], [ 77.1460658, 29.1489849 ], [ 77.1458995, 29.1487647 ], [ 77.145744, 29.1485527 ], [ 77.1456823, 29.1484297 ], [ 77.1456635, 29.1483243 ], [ 77.1456313, 29.1480853 ], [ 77.1455495, 29.1478429 ], [ 77.1452236, 29.1473217 ], [ 77.145111, 29.1469141 ], [ 77.1451324, 29.1464854 ], [ 77.1452638, 29.1461035 ] ], [ [ 77.1417609, 29.15311 ], [ 77.1429223, 29.1524564 ], [ 77.1434426, 29.1521004 ], [ 77.1438932, 29.1517022 ], [ 77.1446121, 29.1509994 ], [ 77.1449286, 29.1506363 ], [ 77.145068, 29.1505801 ], [ 77.1451753, 29.1505942 ], [ 77.1452357, 29.1506808 ], [ 77.1451941, 29.1508694 ], [ 77.1450573, 29.1513414 ], [ 77.1448749, 29.1517303 ], [ 77.1442741, 29.1527656 ], [ 77.1429464, 29.154567 ], [ 77.142815, 29.1546396 ], [ 77.142697, 29.1546724 ], [ 77.1425602, 29.1546302 ], [ 77.142477, 29.1545787 ], [ 77.141844, 29.1539369 ], [ 77.1416241, 29.1535902 ], [ 77.1415892, 29.1534192 ], [ 77.1416697, 29.1532201 ], [ 77.1417609, 29.15311 ] ], [ [ 77.144199, 29.1542788 ], [ 77.1442419, 29.1540446 ], [ 77.1449983, 29.1528874 ], [ 77.14517, 29.1527188 ], [ 77.1453255, 29.152686 ], [ 77.1454141, 29.1527375 ], [ 77.1454436, 29.1528078 ], [ 77.1454167, 29.153295 ], [ 77.1451217, 29.1540961 ], [ 77.1447837, 29.1545599 ], [ 77.1445423, 29.1546536 ], [ 77.1444297, 29.1546349 ], [ 77.1442795, 29.154499 ], [ 77.144199, 29.1542788 ] ] ] } },
{ "type": "Feature", "properties": { "element": "relation", "id": 9050761, "addr:district": null, "addr:full": null, "addr:postcode": null, "addr:state": null, "amenity": null, "name": null, "source": null, "addr:block": null, "addr:subdistrict": null, "description": null, "alt_name": null, "int_name": null, "old_name": null, "natural": "water", "water": "river", "source:position": null, "source:tracer": null, "source:zoomlevel": null, "landuse": null, "man_made": null, "intermittent": null, "type": "multipolygon" }, "geometry": { "type": "Polygon", "coordinates": [ [ [ 77.1359431, 29.1665874 ], [ 77.1334165, 29.1650862 ], [ 77.1321183, 29.1643272 ], [ 77.1319305, 29.1647676 ], [ 77.1318555, 29.1650721 ], [ 77.1316677, 29.1656295 ], [ 77.1313566, 29.1661495 ], [ 77.1308577, 29.1668427 ], [ 77.1302193, 29.167461 ], [ 77.1295917, 29.167995 ], [ 77.1291035, 29.1684447 ], [ 77.1282291, 29.1691473 ], [ 77.1277732, 29.1697235 ], [ 77.1273816, 29.1705291 ], [ 77.1271348, 29.1712083 ], [ 77.1269095, 29.1719906 ], [ 77.1267593, 29.1730538 ], [ 77.1267271, 29.1739531 ], [ 77.1268988, 29.1748806 ], [ 77.1272421, 29.1764075 ], [ 77.1274137, 29.1781311 ], [ 77.1276498, 29.1797985 ], [ 77.1276981, 29.180309 ], [ 77.1278804, 29.1807118 ], [ 77.1282828, 29.1812879 ], [ 77.1288407, 29.1818593 ], [ 77.12964, 29.1823932 ], [ 77.130214, 29.1826461 ], [ 77.1321881, 29.1836203 ], [ 77.1327728, 29.1839622 ], [ 77.1333468, 29.1843884 ], [ 77.1358627, 29.1862898 ], [ 77.1364045, 29.1866926 ], [ 77.1367666, 29.1869923 ], [ 77.1370214, 29.1873201 ], [ 77.1389687, 29.1897835 ], [ 77.1450305, 29.1946867 ], [ 77.1454703, 29.1966395 ], [ 77.1457761, 29.197253 ], [ 77.1462195, 29.1977604 ], [ 77.1484655, 29.1984175 ], [ 77.1484762, 29.1975324 ], [ 77.148453, 29.1952674 ], [ 77.1483618, 29.1937454 ], [ 77.1482164, 29.1922342 ], [ 77.1478414, 29.190781 ], [ 77.1477449, 29.190205 ], [ 77.1477342, 29.1895541 ], [ 77.1477932, 29.188889 ], [ 77.1477771, 29.1877276 ], [ 77.1476912, 29.1870345 ], [ 77.1475142, 29.1865333 ], [ 77.1472406, 29.1858777 ], [ 77.1452451, 29.182618 ], [ 77.1444672, 29.1810443 ], [ 77.1440113, 29.1802434 ], [ 77.1436626, 29.1799203 ], [ 77.1425307, 29.1794004 ], [ 77.1407639, 29.1786219 ], [ 77.1395051, 29.1782482 ], [ 77.1383518, 29.1780889 ], [ 77.1367693, 29.1779765 ], [ 77.1356602, 29.1779097 ], [ 77.1355543, 29.1778805 ], [ 77.1354443, 29.1778173 ], [ 77.1352297, 29.1776346 ], [ 77.1346074, 29.1768993 ], [ 77.1335882, 29.1758735 ], [ 77.1328908, 29.1748478 ], [ 77.1325368, 29.1738126 ], [ 77.1319467, 29.1715409 ], [ 77.1315336, 29.1707446 ], [ 77.1314371, 29.1701966 ], [ 77.1314129, 29.1694705 ], [ 77.1314236, 29.1693347 ], [ 77.1314867, 29.1691567 ], [ 77.1315899, 29.1690478 ], [ 77.1320888, 29.1687445 ], [ 77.1325797, 29.1684447 ], [ 77.1329686, 29.1682222 ], [ 77.133438, 29.1679904 ], [ 77.1345162, 29.1674517 ], [ 77.1350849, 29.1671566 ], [ 77.1357768, 29.1667256 ], [ 77.1359431, 29.1665874 ] ], [ [ 77.1284115, 29.1703324 ], [ 77.1285591, 29.170302 ], [ 77.1286851, 29.170323 ], [ 77.1289533, 29.1704402 ], [ 77.1292055, 29.1707165 ], [ 77.1295702, 29.1713301 ], [ 77.1298063, 29.1718922 ], [ 77.1299082, 29.1723512 ], [ 77.1299404, 29.1727541 ], [ 77.1299404, 29.1729929 ], [ 77.1298492, 29.1732271 ], [ 77.1295917, 29.1734567 ], [ 77.1293959, 29.1736276 ], [ 77.1293369, 29.1737822 ], [ 77.1293423, 29.173993 ], [ 77.1294683, 29.1742623 ], [ 77.1301496, 29.1754426 ], [ 77.1303374, 29.1757752 ], [ 77.1305305, 29.1762295 ], [ 77.1306753, 29.1767916 ], [ 77.1307987, 29.1772997 ], [ 77.1308604, 29.177637 ], [ 77.1309435, 29.178117 ], [ 77.1310508, 29.1786931 ], [ 77.131201, 29.1806134 ], [ 77.1312278, 29.1810959 ], [ 77.1313298, 29.1815502 ], [ 77.1316972, 29.1822972 ], [ 77.1316758, 29.1825805 ], [ 77.1315229, 29.1827632 ], [ 77.1313405, 29.1828709 ], [ 77.1309569, 29.1828311 ], [ 77.1303266, 29.1825337 ], [ 77.1294254, 29.1820653 ], [ 77.1286261, 29.1813347 ], [ 77.1282023, 29.1807305 ], [ 77.1280307, 29.1802153 ], [ 77.1280253, 29.1797282 ], [ 77.1282345, 29.1788477 ], [ 77.1283096, 29.1782482 ], [ 77.1283096, 29.1779719 ], [ 77.1282291, 29.1776674 ], [ 77.1277571, 29.1769274 ], [ 77.12758, 29.1765855 ], [ 77.1274567, 29.176192 ], [ 77.1272153, 29.1746932 ], [ 77.1271563, 29.1734847 ], [ 77.1272099, 29.1731241 ], [ 77.1273762, 29.1726697 ], [ 77.127623, 29.1718735 ], [ 77.1278375, 29.1712552 ], [ 77.1281862, 29.1704917 ], [ 77.1284115, 29.1703324 ] ], [ [ 77.1345082, 29.1799413 ], [ 77.1344948, 29.1798032 ], [ 77.1345216, 29.179665 ], [ 77.1346021, 29.1796123 ], [ 77.1347254, 29.1796346 ], [ 77.1348569, 29.1797704 ], [ 77.1349937, 29.179946 ], [ 77.1354443, 29.1805572 ], [ 77.1365762, 29.1816485 ], [ 77.1368122, 29.1820326 ], [ 77.1369436, 29.1824166 ], [ 77.1371233, 29.1827913 ], [ 77.1373513, 29.1830887 ], [ 77.1378502, 29.1833931 ], [ 77.1380487, 29.183557 ], [ 77.1381748, 29.1836999 ], [ 77.138274, 29.1839949 ], [ 77.1382257, 29.1842151 ], [ 77.1380782, 29.1844211 ], [ 77.1379387, 29.1845335 ], [ 77.13781, 29.1845862 ], [ 77.1376812, 29.1845851 ], [ 77.1375096, 29.1844937 ], [ 77.137177, 29.1842104 ], [ 77.1369544, 29.1839177 ], [ 77.136426, 29.1830957 ], [ 77.1362329, 29.1828522 ], [ 77.1359727, 29.1825641 ], [ 77.1355087, 29.1821731 ], [ 77.135219, 29.1818733 ], [ 77.134999, 29.181604 ], [ 77.1349025, 29.1813441 ], [ 77.1345082, 29.1799413 ] ] ] } },
{ "type": "Feature", "properties": { "element": "relation", "id": 9050980, "addr:district": null, "addr:full": null, "addr:postcode": null, "addr:state": null, "amenity": null, "name": null, "source": null, "addr:block": null, "addr:subdistrict": null, "description": null, "alt_name": null, "int_name": null, "old_name": null, "natural": "water", "water": "river", "source:position": null, "source:tracer": null, "source:zoomlevel": null, "landuse": null, "man_made": null, "intermittent": null, "type": "multipolygon" }, "geometry": { "type": "Polygon", "coordinates": [ [ [ 77.1411627, 29.0862845 ], [ 77.1402722, 29.085947 ], [ 77.1376598, 29.0887831 ], [ 77.1355462, 29.0920364 ], [ 77.1350956, 29.0928521 ], [ 77.1348703, 29.0935458 ], [ 77.1348488, 29.0949708 ], [ 77.1350419, 29.0960771 ], [ 77.1351385, 29.0964755 ], [ 77.1353477, 29.0969021 ], [ 77.1355998, 29.0973099 ], [ 77.1359646, 29.0976989 ], [ 77.1367425, 29.0983223 ], [ 77.1370214, 29.0986317 ], [ 77.1372628, 29.0990629 ], [ 77.1375149, 29.0995786 ], [ 77.137692, 29.0997239 ], [ 77.1380138, 29.0998645 ], [ 77.1386307, 29.1000004 ], [ 77.1389365, 29.1001481 ], [ 77.1392316, 29.1003613 ], [ 77.1396017, 29.1007176 ], [ 77.1400147, 29.1012098 ], [ 77.1400899, 29.1013901 ], [ 77.1401221, 29.1016409 ], [ 77.1399611, 29.1024565 ], [ 77.1398431, 29.1033143 ], [ 77.1397734, 29.1044345 ], [ 77.1396983, 29.1046876 ], [ 77.1395749, 29.1048985 ], [ 77.1392798, 29.1053485 ], [ 77.1392342, 29.1054937 ], [ 77.1392262, 29.1056344 ], [ 77.1392852, 29.1062437 ], [ 77.139371, 29.1070592 ], [ 77.1395293, 29.1076029 ], [ 77.1396124, 29.1078865 ], [ 77.1396178, 29.108245 ], [ 77.1394944, 29.1092667 ], [ 77.1392584, 29.1106072 ], [ 77.1388936, 29.1115117 ], [ 77.1381479, 29.1130302 ], [ 77.1373808, 29.1138598 ], [ 77.1364313, 29.1143097 ], [ 77.1350741, 29.1149142 ], [ 77.1327943, 29.1163015 ], [ 77.131716, 29.1174216 ], [ 77.1307987, 29.1187291 ], [ 77.1299672, 29.1203271 ], [ 77.1299243, 29.1205661 ], [ 77.1299457, 29.1208286 ], [ 77.1301174, 29.1211707 ], [ 77.1306807, 29.1216206 ], [ 77.1311313, 29.1219064 ], [ 77.131716, 29.1221829 ], [ 77.1322605, 29.1223094 ], [ 77.1326092, 29.1224477 ], [ 77.1332771, 29.1228156 ], [ 77.1348596, 29.1240761 ], [ 77.136088, 29.1249009 ], [ 77.1375954, 29.1264473 ], [ 77.138164, 29.127244 ], [ 77.1387541, 29.1279234 ], [ 77.1395963, 29.1288419 ], [ 77.1403098, 29.1297697 ], [ 77.1411145, 29.1314519 ], [ 77.1418494, 29.1337808 ], [ 77.142756, 29.1360065 ], [ 77.1434909, 29.1385133 ], [ 77.1437323, 29.139441 ], [ 77.144655, 29.1393895 ], [ 77.1482385, 29.1393051 ], [ 77.1481579, 29.1385882 ], [ 77.1480185, 29.1370233 ], [ 77.1479166, 29.1356316 ], [ 77.1474445, 29.1337011 ], [ 77.1471655, 29.1326515 ], [ 77.1469724, 29.1317893 ], [ 77.14679, 29.1305616 ], [ 77.1466505, 29.1284717 ], [ 77.1471763, 29.126841 ], [ 77.1482116, 29.1241652 ], [ 77.1490753, 29.1226141 ], [ 77.1493649, 29.1218549 ], [ 77.1494615, 29.1205146 ], [ 77.1494347, 29.119493 ], [ 77.1493596, 29.1187056 ], [ 77.1492442, 29.1181644 ], [ 77.1491396, 29.1180156 ], [ 77.148968, 29.1178879 ], [ 77.1487547, 29.1177965 ], [ 77.1485013, 29.1176887 ], [ 77.147584, 29.1172903 ], [ 77.147128, 29.1169951 ], [ 77.1469617, 29.1167326 ], [ 77.1469027, 29.116353 ], [ 77.1467686, 29.1149939 ], [ 77.1467096, 29.1138504 ], [ 77.146672, 29.1122803 ], [ 77.1469563, 29.1111602 ], [ 77.1470958, 29.1107712 ], [ 77.1471763, 29.1104431 ], [ 77.1472192, 29.1101151 ], [ 77.1472567, 29.1093558 ], [ 77.1475357, 29.1085122 ], [ 77.1475705, 29.108327 ], [ 77.1475625, 29.1081372 ], [ 77.1474874, 29.1075232 ], [ 77.1472299, 29.1068342 ], [ 77.1469939, 29.1064546 ], [ 77.1467525, 29.1058172 ], [ 77.1466184, 29.1052453 ], [ 77.1466184, 29.1046829 ], [ 77.1467256, 29.1041861 ], [ 77.1470582, 29.1028081 ], [ 77.1473372, 29.10143 ], [ 77.147541, 29.1005676 ], [ 77.1477449, 29.0998739 ], [ 77.1478146, 29.0990161 ], [ 77.1478951, 29.0983036 ], [ 77.1477395, 29.0978349 ], [ 77.1472192, 29.0970146 ], [ 77.1469295, 29.0964333 ], [ 77.1465486, 29.0960536 ], [ 77.1456796, 29.0954677 ], [ 77.1448481, 29.095013 ], [ 77.1444672, 29.0948349 ], [ 77.1442312, 29.0946755 ], [ 77.1439683, 29.0942865 ], [ 77.1436787, 29.0936489 ], [ 77.1434104, 29.0932224 ], [ 77.142874, 29.0923224 ], [ 77.1423483, 29.090752 ], [ 77.1420264, 29.0894207 ], [ 77.1420157, 29.0884081 ], [ 77.1421766, 29.0877893 ], [ 77.1426165, 29.086908 ], [ 77.1411627, 29.0862845 ] ], [ [ 77.1436277, 29.0954279 ], [ 77.1436116, 29.0952497 ], [ 77.1436545, 29.0951349 ], [ 77.1437323, 29.0950646 ], [ 77.1438825, 29.095088 ], [ 77.1442741, 29.0953224 ], [ 77.1449715, 29.0960138 ], [ 77.1457922, 29.0965411 ], [ 77.146098, 29.0967896 ], [ 77.1467578, 29.0979942 ], [ 77.1468195, 29.0982098 ], [ 77.1467954, 29.0983013 ], [ 77.1466854, 29.0983575 ], [ 77.146208, 29.0984044 ], [ 77.1460028, 29.0984518 ], [ 77.1459344, 29.0984466 ], [ 77.1458767, 29.0984055 ], [ 77.1458593, 29.0983329 ], [ 77.1458982, 29.0981325 ], [ 77.1459264, 29.0978911 ], [ 77.1458808, 29.0976919 ], [ 77.1457627, 29.0975091 ], [ 77.1453765, 29.0971411 ], [ 77.1448803, 29.0967896 ], [ 77.1438879, 29.0958661 ], [ 77.1436277, 29.0954279 ] ], [ [ 77.1422088, 29.0972044 ], [ 77.1423912, 29.0974599 ], [ 77.1425253, 29.0976567 ], [ 77.1428204, 29.0980739 ], [ 77.1430081, 29.0984864 ], [ 77.1432817, 29.0991473 ], [ 77.1433568, 29.0995832 ], [ 77.1433219, 29.0996746 ], [ 77.1431959, 29.0997309 ], [ 77.1429169, 29.0997356 ], [ 77.1427131, 29.0997004 ], [ 77.1425629, 29.0995903 ], [ 77.1425213, 29.0995059 ], [ 77.1425253, 29.0993981 ], [ 77.1425709, 29.0991989 ], [ 77.1426125, 29.0989024 ], [ 77.1425468, 29.0986341 ], [ 77.1423751, 29.0984208 ], [ 77.1420318, 29.0981724 ], [ 77.1418896, 29.0980434 ], [ 77.1418333, 29.0979216 ], [ 77.1418253, 29.0977528 ], [ 77.1418816, 29.0974599 ], [ 77.1419111, 29.0972677 ], [ 77.1420157, 29.0971845 ], [ 77.1421015, 29.0971728 ], [ 77.1422088, 29.0972044 ] ], [ [ 77.1453443, 29.0998879 ], [ 77.1453389, 29.09967 ], [ 77.1453953, 29.0994426 ], [ 77.1457601, 29.0988755 ], [ 77.1459022, 29.0987559 ], [ 77.1461704, 29.0986153 ], [ 77.1464601, 29.0985966 ], [ 77.1467055, 29.0985731 ], [ 77.146786, 29.0986176 ], [ 77.1467981, 29.0986856 ], [ 77.1467149, 29.0988016 ], [ 77.1466264, 29.0988907 ], [ 77.1465674, 29.0990126 ], [ 77.146212, 29.1005512 ], [ 77.1461543, 29.1006976 ], [ 77.1460685, 29.1007797 ], [ 77.1459746, 29.1008008 ], [ 77.1459022, 29.1007703 ], [ 77.1457788, 29.1006144 ], [ 77.1455643, 29.1003238 ], [ 77.1453443, 29.0998879 ] ], [ [ 77.1429008, 29.1034314 ], [ 77.1419996, 29.1012707 ], [ 77.142005, 29.1010597 ], [ 77.1420854, 29.1008863 ], [ 77.142536, 29.1002629 ], [ 77.1428096, 29.1002113 ], [ 77.1433461, 29.1003332 ], [ 77.1438611, 29.1008019 ], [ 77.144258, 29.1012988 ], [ 77.1444994, 29.1017019 ], [ 77.1447462, 29.1022831 ], [ 77.1449876, 29.1033658 ], [ 77.1449715, 29.103722 ], [ 77.1449232, 29.1039119 ], [ 77.1446389, 29.104561 ], [ 77.144537, 29.1050157 ], [ 77.144596, 29.1053063 ], [ 77.1446872, 29.1055781 ], [ 77.1449983, 29.106014 ], [ 77.1454811, 29.1069092 ], [ 77.1457386, 29.1074951 ], [ 77.1457064, 29.1079638 ], [ 77.1453846, 29.1084653 ], [ 77.1451163, 29.1086949 ], [ 77.144773, 29.1089527 ], [ 77.1443626, 29.1090629 ], [ 77.1439522, 29.1090183 ], [ 77.1434855, 29.1089152 ], [ 77.1433192, 29.1087793 ], [ 77.1432066, 29.1086153 ], [ 77.1430403, 29.108156 ], [ 77.142933, 29.1063562 ], [ 77.1429384, 29.1051094 ], [ 77.1429437, 29.1039189 ], [ 77.1429008, 29.1034314 ] ], [ [ 77.1399772, 29.1070733 ], [ 77.1399772, 29.1068811 ], [ 77.1402937, 29.1057187 ], [ 77.1407095, 29.1042915 ], [ 77.140806, 29.1041462 ], [ 77.140869, 29.1041169 ], [ 77.1409281, 29.1041111 ], [ 77.1409884, 29.1041439 ], [ 77.141034, 29.1043454 ], [ 77.1412164, 29.1051657 ], [ 77.1415222, 29.1064265 ], [ 77.1415275, 29.1069795 ], [ 77.1413988, 29.1074014 ], [ 77.1412647, 29.1076216 ], [ 77.1410555, 29.1076732 ], [ 77.1407497, 29.1076638 ], [ 77.1404439, 29.1075701 ], [ 77.1401221, 29.1073451 ], [ 77.1399772, 29.1070733 ] ], [ [ 77.1322632, 29.1183963 ], [ 77.1325314, 29.1177121 ], [ 77.1329069, 29.1172341 ], [ 77.1343338, 29.1162687 ], [ 77.1359646, 29.1155282 ], [ 77.13781, 29.114619 ], [ 77.1398914, 29.1128849 ], [ 77.1409267, 29.1119148 ], [ 77.1412325, 29.1116125 ], [ 77.1414444, 29.1115703 ], [ 77.1416402, 29.1116476 ], [ 77.1418387, 29.1121304 ], [ 77.1419567, 29.1126084 ], [ 77.1419942, 29.1154626 ], [ 77.1420854, 29.1171122 ], [ 77.1422034, 29.1176184 ], [ 77.1422303, 29.1180589 ], [ 77.1421444, 29.1185182 ], [ 77.1418065, 29.1195773 ], [ 77.1416187, 29.1207114 ], [ 77.1416724, 29.1214237 ], [ 77.1417636, 29.1219533 ], [ 77.142005, 29.123317 ], [ 77.1423268, 29.1245588 ], [ 77.142477, 29.1254632 ], [ 77.1426433, 29.1273283 ], [ 77.1427023, 29.1283545 ], [ 77.1428096, 29.129287 ], [ 77.1427694, 29.1294405 ], [ 77.1426916, 29.129526 ], [ 77.1425937, 29.129553 ], [ 77.1424931, 29.1295014 ], [ 77.1424341, 29.1294065 ], [ 77.1423429, 29.1291793 ], [ 77.1422732, 29.1290387 ], [ 77.1421659, 29.1289075 ], [ 77.1418816, 29.1287013 ], [ 77.1410501, 29.1281437 ], [ 77.1372199, 29.1246479 ], [ 77.1346342, 29.1224547 ], [ 77.1331859, 29.1208895 ], [ 77.1324348, 29.1197085 ], [ 77.1322954, 29.1191462 ], [ 77.1322632, 29.1183963 ] ] ] } },
{ "type": "Feature", "properties": { "element": "relation", "id": 9053732, "addr:district": null, "addr:full": null, "addr:postcode": null, "addr:state": null, "amenity": null, "name": null, "source": null, "addr:block": null, "addr:subdistrict": null, "description": null, "alt_name": null, "int_name": null, "old_name": null, "natural": "water", "water": "river", "source:position": null, "source:tracer": null, "source:zoomlevel": null, "landuse": null, "man_made": null, "intermittent": null, "type": "multipolygon" }, "geometry": { "type": "Polygon", "coordinates": [ [ [ 77.2018818, 28.9978406 ], [ 77.201035, 28.997631 ], [ 77.1995116, 28.9972275 ], [ 77.198664, 28.9990198 ], [ 77.1983313, 28.9999488 ], [ 77.1977413, 29.0015064 ], [ 77.1975374, 29.0018349 ], [ 77.1973121, 29.0020788 ], [ 77.1963465, 29.0030078 ], [ 77.1958637, 29.0034582 ], [ 77.1956197, 29.0036975 ], [ 77.1953702, 29.0039039 ], [ 77.1937877, 29.0048798 ], [ 77.1924251, 29.0059729 ], [ 77.1921676, 29.0061652 ], [ 77.191878, 29.0062872 ], [ 77.1912664, 29.0064843 ], [ 77.1902847, 29.0070613 ], [ 77.1900541, 29.007249 ], [ 77.1897376, 29.0075633 ], [ 77.1893567, 29.00807 ], [ 77.1887049, 29.0089778 ], [ 77.1884769, 29.0092382 ], [ 77.1882623, 29.0093554 ], [ 77.1879834, 29.009468 ], [ 77.1874312, 29.0096666 ], [ 77.1847218, 29.0109787 ], [ 77.1840781, 29.0114056 ], [ 77.1836704, 29.0116917 ], [ 77.1812636, 29.0136409 ], [ 77.1774829, 29.0165463 ], [ 77.1703076, 29.020525 ], [ 77.1687305, 29.0215476 ], [ 77.1694279, 29.0222419 ], [ 77.1709522, 29.0235463 ], [ 77.171266, 29.0233962 ], [ 77.1736336, 29.0223451 ], [ 77.1747816, 29.0220074 ], [ 77.1752402, 29.0219441 ], [ 77.1758062, 29.0219699 ], [ 77.1768307, 29.0219699 ], [ 77.1787619, 29.0217635 ], [ 77.1807843, 29.0212803 ], [ 77.1826458, 29.0206189 ], [ 77.184298, 29.0197933 ], [ 77.1857357, 29.0188457 ], [ 77.1867656, 29.0179732 ], [ 77.1883321, 29.016533 ], [ 77.1886432, 29.0161108 ], [ 77.1888524, 29.0156511 ], [ 77.1889597, 29.0151726 ], [ 77.1890348, 29.0149052 ], [ 77.189185, 29.0146519 ], [ 77.1902632, 29.0131695 ], [ 77.1922374, 29.0109927 ], [ 77.1938252, 29.0094352 ], [ 77.1946728, 29.0085861 ], [ 77.1952361, 29.0082436 ], [ 77.1956438, 29.0079574 ], [ 77.195971, 29.0076994 ], [ 77.1962929, 29.0073663 ], [ 77.196545, 29.006944 ], [ 77.1969151, 29.0063904 ], [ 77.1970546, 29.0062239 ], [ 77.1971995, 29.0061043 ], [ 77.1993077, 29.0045467 ], [ 77.2002196, 29.0038335 ], [ 77.2006166, 29.00343 ], [ 77.2010243, 29.0028201 ], [ 77.2016036, 29.0012343 ], [ 77.201786, 28.9995453 ], [ 77.2018925, 28.9985069 ], [ 77.2018818, 28.9978406 ] ], [ [ 77.18256, 29.0141734 ], [ 77.1825707, 29.0140233 ], [ 77.1830428, 29.0134322 ], [ 77.1848667, 29.0120154 ], [ 77.1859825, 29.0115182 ], [ 77.1883535, 29.0105424 ], [ 77.1885788, 29.0105564 ], [ 77.1887183, 29.0107769 ], [ 77.1886915, 29.0109458 ], [ 77.1881497, 29.0120389 ], [ 77.1871948, 29.0133524 ], [ 77.1869641, 29.013784 ], [ 77.1867764, 29.0139435 ], [ 77.1863955, 29.0140233 ], [ 77.1840888, 29.0140467 ], [ 77.1826109, 29.0142086 ], [ 77.1825828, 29.0141945 ], [ 77.18256, 29.0141734 ] ], [ [ 77.1804464, 29.0202225 ], [ 77.180492, 29.0196877 ], [ 77.1805295, 29.019547 ], [ 77.1805872, 29.0194508 ], [ 77.1806663, 29.0193899 ], [ 77.1812618, 29.0192374 ], [ 77.1821831, 29.0191518 ], [ 77.1825519, 29.0191506 ], [ 77.1826176, 29.0191835 ], [ 77.1826525, 29.0192181 ], [ 77.1826679, 29.0193025 ], [ 77.1826431, 29.0194133 ], [ 77.1824902, 29.0196432 ], [ 77.1823803, 29.0198672 ], [ 77.1823695, 29.0199704 ], [ 77.1823648, 29.0200671 ], [ 77.1823568, 29.0201662 ], [ 77.1823145, 29.0202067 ], [ 77.1822455, 29.0202237 ], [ 77.1821778, 29.0202254 ], [ 77.1820182, 29.0202014 ], [ 77.1817875, 29.0201357 ], [ 77.1816561, 29.0201416 ], [ 77.1815488, 29.0201709 ], [ 77.1813583, 29.0202624 ], [ 77.1811947, 29.0203984 ], [ 77.1809801, 29.020511 ], [ 77.1806985, 29.0205626 ], [ 77.1805617, 29.0205544 ], [ 77.1805014, 29.0205128 ], [ 77.1804444, 29.0203943 ], [ 77.1804464, 29.0202225 ] ], [ [ 77.1760342, 29.0212064 ], [ 77.1758236, 29.0211912 ], [ 77.1754226, 29.021217 ], [ 77.1753328, 29.0212099 ], [ 77.1752851, 29.0211748 ], [ 77.1752885, 29.0211337 ], [ 77.1753368, 29.0210762 ], [ 77.1758652, 29.0209191 ], [ 77.1764123, 29.0207573 ], [ 77.1767852, 29.0205907 ], [ 77.1773109, 29.0202835 ], [ 77.1779197, 29.0199176 ], [ 77.1782067, 29.0198285 ], [ 77.1786761, 29.0197769 ], [ 77.1793601, 29.0198449 ], [ 77.1797758, 29.0199504 ], [ 77.1799126, 29.0200607 ], [ 77.1800387, 29.0202976 ], [ 77.1799797, 29.0206189 ], [ 77.1798456, 29.0207666 ], [ 77.1796256, 29.0209003 ], [ 77.1787941, 29.0212498 ], [ 77.1780539, 29.0214961 ], [ 77.1774048, 29.0216227 ], [ 77.1772264, 29.0216286 ], [ 77.1770346, 29.0216028 ], [ 77.176816, 29.0215172 ], [ 77.176694, 29.0214363 ], [ 77.176529, 29.0213237 ], [ 77.1763654, 29.0212627 ], [ 77.1760342, 29.0212064 ] ] ] } },
{ "type": "Feature", "properties": { "element": "relation", "id": 9053776, "addr:district": null, "addr:full": null, "addr:postcode": null, "addr:state": null, "amenity": null, "name": null, "source": null, "addr:block": null, "addr:subdistrict": null, "description": null, "alt_name": null, "int_name": null, "old_name": null, "natural": "water", "water": "river", "source:position": null, "source:tracer": null, "source:zoomlevel": null, "landuse": null, "man_made": null, "intermittent": null, "type": "multipolygon" }, "geometry": { "type": "Polygon", "coordinates": [ [ [ 77.2312286, 28.8968532 ], [ 77.2300994, 28.8971044 ], [ 77.2306037, 28.8979498 ], [ 77.231124, 28.8990112 ], [ 77.2312313, 28.8994245 ], [ 77.2312742, 28.8999739 ], [ 77.2307539, 28.9017773 ], [ 77.2302604, 28.9028387 ], [ 77.2296595, 28.9036464 ], [ 77.2289944, 28.9041536 ], [ 77.2273958, 28.9053183 ], [ 77.2253251, 28.9073094 ], [ 77.2226858, 28.9093991 ], [ 77.2222137, 28.9096856 ], [ 77.2216183, 28.9099485 ], [ 77.2206259, 28.9103618 ], [ 77.2195637, 28.9109722 ], [ 77.2182891, 28.9118648 ], [ 77.2170102, 28.9128224 ], [ 77.2163772, 28.9134798 ], [ 77.2157335, 28.914109 ], [ 77.2152722, 28.9145222 ], [ 77.2146821, 28.9150106 ], [ 77.21421, 28.9155741 ], [ 77.2119851, 28.918592 ], [ 77.2118819, 28.9189502 ], [ 77.2119355, 28.9192648 ], [ 77.2120964, 28.9195935 ], [ 77.2126973, 28.9206265 ], [ 77.2137272, 28.9226079 ], [ 77.2138292, 28.9230352 ], [ 77.2138131, 28.9236033 ], [ 77.2133624, 28.9255941 ], [ 77.2122681, 28.928045 ], [ 77.2110665, 28.9301484 ], [ 77.2107392, 28.9305286 ], [ 77.2103476, 28.9308479 ], [ 77.2095591, 28.9314629 ], [ 77.2092748, 28.9317775 ], [ 77.2090173, 28.9321108 ], [ 77.2077405, 28.9337353 ], [ 77.2068393, 28.9345803 ], [ 77.2055089, 28.9358198 ], [ 77.2040284, 28.9373033 ], [ 77.202816, 28.9389182 ], [ 77.202065, 28.939998 ], [ 77.2030735, 28.9406928 ], [ 77.2044897, 28.9417115 ], [ 77.2046613, 28.9414768 ], [ 77.2063565, 28.939322 ], [ 77.207188, 28.9384065 ], [ 77.2073463, 28.9382985 ], [ 77.2075501, 28.9382046 ], [ 77.2079283, 28.9381155 ], [ 77.2088188, 28.9380169 ], [ 77.2094625, 28.9379558 ], [ 77.2097173, 28.9379112 ], [ 77.2099185, 28.9378432 ], [ 77.2104657, 28.93743 ], [ 77.2110182, 28.9368714 ], [ 77.2120267, 28.9358151 ], [ 77.2124559, 28.935308 ], [ 77.2127867, 28.9346203 ], [ 77.2133195, 28.933416 ], [ 77.2137594, 28.9324301 ], [ 77.2138828, 28.9322282 ], [ 77.2140652, 28.9320874 ], [ 77.2144192, 28.9318902 ], [ 77.2148269, 28.9315287 ], [ 77.2154117, 28.9308197 ], [ 77.2156691, 28.9304958 ], [ 77.215991, 28.9300122 ], [ 77.2165435, 28.9285239 ], [ 77.2169351, 28.9269088 ], [ 77.2177291, 28.9227676 ], [ 77.2183084, 28.9190958 ], [ 77.2190172, 28.9158939 ], [ 77.2192848, 28.9151702 ], [ 77.2196871, 28.9144283 ], [ 77.2205722, 28.9132873 ], [ 77.2210067, 28.9126486 ], [ 77.2214144, 28.912226 ], [ 77.2229916, 28.9111413 ], [ 77.22444, 28.9103665 ], [ 77.2264731, 28.9098123 ], [ 77.2273743, 28.9095212 ], [ 77.2285974, 28.9091173 ], [ 77.2303355, 28.9083472 ], [ 77.231816, 28.9075818 ], [ 77.2331786, 28.9064547 ], [ 77.233935, 28.9056376 ], [ 77.2342032, 28.9050365 ], [ 77.2344178, 28.9039329 ], [ 77.2345036, 28.9031345 ], [ 77.2344768, 28.9024489 ], [ 77.2342515, 28.9017914 ], [ 77.2336641, 28.9002604 ], [ 77.2333744, 28.8993446 ], [ 77.2331196, 28.8979028 ], [ 77.2327226, 28.8966019 ], [ 77.2312286, 28.8968532 ] ], [ [ 77.216844, 28.9145974 ], [ 77.2167796, 28.9152172 ], [ 77.2165382, 28.9171001 ], [ 77.2163343, 28.9184478 ], [ 77.2160232, 28.9196968 ], [ 77.2157013, 28.9201851 ], [ 77.2153902, 28.9204293 ], [ 77.2151059, 28.9204762 ], [ 77.2148001, 28.9203917 ], [ 77.2143602, 28.9202274 ], [ 77.2140384, 28.9197954 ], [ 77.2139043, 28.919415 ], [ 77.2136682, 28.9187671 ], [ 77.2135287, 28.9181144 ], [ 77.2135287, 28.9176026 ], [ 77.2136092, 28.9172645 ], [ 77.2140008, 28.9166775 ], [ 77.2143495, 28.9163113 ], [ 77.2156745, 28.9149965 ], [ 77.2162941, 28.9144588 ], [ 77.216557, 28.9143555 ], [ 77.2167474, 28.9143814 ], [ 77.216844, 28.9145974 ] ], [ [ 77.2097844, 28.9356273 ], [ 77.2103959, 28.9347024 ], [ 77.2117585, 28.9334771 ], [ 77.2121179, 28.9333127 ], [ 77.2124398, 28.9333174 ], [ 77.2126248, 28.9333808 ], [ 77.2126543, 28.9335076 ], [ 77.2126141, 28.9336508 ], [ 77.2122145, 28.9343268 ], [ 77.2112811, 28.9358151 ], [ 77.2102404, 28.9369277 ], [ 77.2099534, 28.9370146 ], [ 77.2095993, 28.9371014 ], [ 77.2093418, 28.937092 ], [ 77.2091246, 28.9370451 ], [ 77.2090012, 28.9369277 ], [ 77.2089851, 28.9367798 ], [ 77.2090441, 28.9365873 ], [ 77.2097844, 28.9356273 ] ] ] } },
{ "type": "Feature", "properties": { "element": "relation", "id": 9053777, "addr:district": null, "addr:full": null, "addr:postcode": null, "addr:state": null, "amenity": null, "name": null, "source": null, "addr:block": null, "addr:subdistrict": null, "description": null, "alt_name": null, "int_name": null, "old_name": null, "natural": "water", "water": "river", "source:position": null, "source:tracer": null, "source:zoomlevel": null, "landuse": null, "man_made": null, "intermittent": null, "type": "multipolygon" }, "geometry": { "type": "Polygon", "coordinates": [ [ [ 77.2030735, 28.9406928 ], [ 77.202065, 28.939998 ], [ 77.2013168, 28.9408672 ], [ 77.1990244, 28.9434263 ], [ 77.1976284, 28.9456509 ], [ 77.197001, 28.9470959 ], [ 77.1967757, 28.9481192 ], [ 77.196722, 28.9494054 ], [ 77.1967971, 28.9500814 ], [ 77.1970868, 28.9522406 ], [ 77.1972477, 28.953738 ], [ 77.1972263, 28.9542074 ], [ 77.1972021, 28.9544914 ], [ 77.1972021, 28.9546862 ], [ 77.1972424, 28.9548246 ], [ 77.1973041, 28.9549396 ], [ 77.1974784, 28.9552541 ], [ 77.1980685, 28.9561037 ], [ 77.198782, 28.9573757 ], [ 77.1995008, 28.9594316 ], [ 77.1999997, 28.9605205 ], [ 77.2006595, 28.9619286 ], [ 77.2008419, 28.9631583 ], [ 77.2009385, 28.9643035 ], [ 77.200917, 28.9645417 ], [ 77.2008365, 28.9647259 ], [ 77.2005522, 28.965031 ], [ 77.2000319, 28.9655426 ], [ 77.1985781, 28.9670116 ], [ 77.197516, 28.9682084 ], [ 77.1965772, 28.9692831 ], [ 77.1957779, 28.970095 ], [ 77.1955097, 28.9704611 ], [ 77.1953165, 28.9709774 ], [ 77.1952736, 28.9717376 ], [ 77.1955848, 28.9737463 ], [ 77.1959495, 28.9762899 ], [ 77.1967864, 28.9808419 ], [ 77.1971619, 28.9835401 ], [ 77.1972424, 28.9842675 ], [ 77.1973818, 28.9845209 ], [ 77.1976018, 28.984671 ], [ 77.198149, 28.9847884 ], [ 77.1990985, 28.9850042 ], [ 77.1994016, 28.9851121 ], [ 77.1996617, 28.985267 ], [ 77.1999836, 28.9857222 ], [ 77.2002518, 28.9862993 ], [ 77.2004127, 28.9866794 ], [ 77.2005093, 28.9872097 ], [ 77.2005469, 28.9879182 ], [ 77.200638, 28.9889787 ], [ 77.200917, 28.9905553 ], [ 77.2009921, 28.9914374 ], [ 77.2011316, 28.9927513 ], [ 77.2010243, 28.9936474 ], [ 77.2007936, 28.9945577 ], [ 77.2002035, 28.9958293 ], [ 77.1995116, 28.9972275 ], [ 77.201035, 28.997631 ], [ 77.2018818, 28.9978406 ], [ 77.20258, 28.9952146 ], [ 77.2027302, 28.9944357 ], [ 77.2028267, 28.9935161 ], [ 77.2027394, 28.9918739 ], [ 77.2027804, 28.9882322 ], [ 77.2029678, 28.986824 ], [ 77.203169, 28.9853099 ], [ 77.2027677, 28.9820479 ], [ 77.2027624, 28.9815317 ], [ 77.2028589, 28.9810108 ], [ 77.2030789, 28.9801192 ], [ 77.2032291, 28.9782327 ], [ 77.2032613, 28.976731 ], [ 77.203213, 28.975905 ], [ 77.2028696, 28.9742672 ], [ 77.2028696, 28.9734553 ], [ 77.203272, 28.9718315 ], [ 77.2041249, 28.9686026 ], [ 77.2044966, 28.9662721 ], [ 77.2043548, 28.9659001 ], [ 77.2042624, 28.9651561 ], [ 77.2041515, 28.9644552 ], [ 77.2040344, 28.9632098 ], [ 77.2039543, 28.9626437 ], [ 77.2041678, 28.9611682 ], [ 77.2038138, 28.9597414 ], [ 77.2037172, 28.959272 ], [ 77.2036636, 28.9588965 ], [ 77.203964, 28.9570002 ], [ 77.2042, 28.9558972 ], [ 77.2041893, 28.9552917 ], [ 77.2040766, 28.9548692 ], [ 77.2035456, 28.9538366 ], [ 77.202934, 28.9529353 ], [ 77.2027409, 28.9525786 ], [ 77.2026765, 28.95225 ], [ 77.2027355, 28.9501612 ], [ 77.2027516, 28.9469926 ], [ 77.2027838, 28.9462228 ], [ 77.2028589, 28.9455937 ], [ 77.2032988, 28.9440915 ], [ 77.2038674, 28.9426832 ], [ 77.2044897, 28.9417115 ], [ 77.2030735, 28.9406928 ] ], [ [ 77.1961856, 28.9704611 ], [ 77.1970975, 28.9694568 ], [ 77.1975857, 28.9690391 ], [ 77.1979827, 28.9687622 ], [ 77.198841, 28.9683961 ], [ 77.1993184, 28.9681849 ], [ 77.1994659, 28.968077 ], [ 77.1995249, 28.9679983 ], [ 77.1995598, 28.967908 ], [ 77.1995759, 28.9675724 ], [ 77.1995786, 28.9672345 ], [ 77.1996081, 28.967089 ], [ 77.1996832, 28.9669459 ], [ 77.1999299, 28.9666314 ], [ 77.2005281, 28.9660494 ], [ 77.2007158, 28.9658852 ], [ 77.2008151, 28.9658617 ], [ 77.2009277, 28.9659391 ], [ 77.2009867, 28.9660682 ], [ 77.2010672, 28.9666643 ], [ 77.2010618, 28.9670679 ], [ 77.2007453, 28.9683351 ], [ 77.200579, 28.9690813 ], [ 77.200284, 28.969729 ], [ 77.1997449, 28.9703391 ], [ 77.1993104, 28.9706981 ], [ 77.1989349, 28.9710008 ], [ 77.1986264, 28.9712636 ], [ 77.1977895, 28.9721811 ], [ 77.1974516, 28.9725918 ], [ 77.1972531, 28.9727373 ], [ 77.1966577, 28.9731831 ], [ 77.1963894, 28.9732465 ], [ 77.1961829, 28.9731456 ], [ 77.1960756, 28.9729625 ], [ 77.1958905, 28.9722163 ], [ 77.1958637, 28.9716485 ], [ 77.1959549, 28.970907 ], [ 77.1961856, 28.9704611 ] ], [ [ 77.1991253, 28.9723947 ], [ 77.2002223, 28.9710501 ], [ 77.2003336, 28.9709351 ], [ 77.2004369, 28.9708706 ], [ 77.2005174, 28.9708659 ], [ 77.2005951, 28.9709281 ], [ 77.2006971, 28.9712625 ], [ 77.2007561, 28.9715687 ], [ 77.2008097, 28.9722539 ], [ 77.200807, 28.9738589 ], [ 77.2007936, 28.9742297 ], [ 77.2007561, 28.9745441 ], [ 77.2005227, 28.9749735 ], [ 77.2004369, 28.975133 ], [ 77.2003028, 28.9752668 ], [ 77.1997637, 28.9757056 ], [ 77.199533, 28.9761021 ], [ 77.1994337, 28.9764119 ], [ 77.1993935, 28.9766958 ], [ 77.1994002, 28.9771158 ], [ 77.1994176, 28.9771616 ], [ 77.1994471, 28.9771815 ], [ 77.1995142, 28.977212 ], [ 77.1995719, 28.977205 ], [ 77.1996215, 28.9771827 ], [ 77.1996483, 28.9771451 ], [ 77.1996859, 28.9768859 ], [ 77.1997744, 28.9764471 ], [ 77.2002786, 28.9755484 ], [ 77.2008875, 28.9750767 ], [ 77.2009485, 28.9750374 ], [ 77.2010055, 28.9750181 ], [ 77.2010639, 28.9750192 ], [ 77.2011262, 28.9750509 ], [ 77.2011611, 28.9751471 ], [ 77.2012255, 28.9753888 ], [ 77.201314, 28.9756986 ], [ 77.2015259, 28.9764001 ], [ 77.2015849, 28.9768014 ], [ 77.2015125, 28.9771533 ], [ 77.2014186, 28.9774865 ], [ 77.2011852, 28.9780403 ], [ 77.2001016, 28.9823248 ], [ 77.1999434, 28.9827095 ], [ 77.1997154, 28.982963 ], [ 77.1993881, 28.9830803 ], [ 77.1990609, 28.9831131 ], [ 77.198723, 28.9831084 ], [ 77.198216, 28.9829231 ], [ 77.1975669, 28.9826087 ], [ 77.1974114, 28.9825054 ], [ 77.1973175, 28.9822919 ], [ 77.1972719, 28.9820831 ], [ 77.1970653, 28.9802975 ], [ 77.1967167, 28.9780591 ], [ 77.1966577, 28.9768999 ], [ 77.196545, 28.9759332 ], [ 77.1965437, 28.9758358 ], [ 77.1965571, 28.9757466 ], [ 77.1966134, 28.9756874 ], [ 77.1967059, 28.9756293 ], [ 77.1970211, 28.9754756 ], [ 77.1973363, 28.9752985 ], [ 77.1976876, 28.9750275 ], [ 77.197988, 28.9745957 ], [ 77.1986049, 28.9733708 ], [ 77.1991253, 28.9723947 ] ], [ [ 77.1975374, 28.9840329 ], [ 77.1974087, 28.983058 ], [ 77.1974315, 28.9829723 ], [ 77.1974663, 28.9829489 ], [ 77.1975388, 28.9829489 ], [ 77.1977118, 28.9830122 ], [ 77.1983743, 28.9832351 ], [ 77.1987551, 28.9834041 ], [ 77.1989429, 28.9835401 ], [ 77.1990475, 28.9837607 ], [ 77.1991199, 28.9840469 ], [ 77.1991253, 28.9843895 ], [ 77.1989965, 28.9845115 ], [ 77.1987712, 28.9845396 ], [ 77.1980202, 28.9843426 ], [ 77.1976447, 28.9842065 ], [ 77.1975656, 28.9841244 ], [ 77.1975374, 28.9840329 ] ] ] } },
{ "type": "Feature", "properties": { "element": "relation", "id": 9053846, "addr:district": null, "addr:full": null, "addr:postcode": null, "addr:state": null, "amenity": null, "name": null, "source": null, "addr:block": null, "addr:subdistrict": null, "description": null, "alt_name": null, "int_name": null, "old_name": null, "natural": "water", "water": "river", "source:position": null, "source:tracer": null, "source:zoomlevel": null, "landuse": null, "man_made": null, "intermittent": null, "type": "multipolygon" }, "geometry": { "type": "Polygon", "coordinates": [ [ [ 77.2316987, 28.8934204 ], [ 77.2312796, 28.8919992 ], [ 77.2297776, 28.8892093 ], [ 77.2277498, 28.8862409 ], [ 77.2266126, 28.8844372 ], [ 77.2248852, 28.8823893 ], [ 77.2221494, 28.8791952 ], [ 77.2182655, 28.8754561 ], [ 77.2156522, 28.872203 ], [ 77.2141386, 28.8699897 ], [ 77.2130084, 28.8667372 ], [ 77.21259, 28.8655345 ], [ 77.2118175, 28.8636366 ], [ 77.2105622, 28.8619077 ], [ 77.2100472, 28.8609681 ], [ 77.2096986, 28.8594224 ], [ 77.2097093, 28.8582149 ], [ 77.2100097, 28.8566081 ], [ 77.2104388, 28.8554194 ], [ 77.2121286, 28.85284 ], [ 77.2130084, 28.8511485 ], [ 77.2138399, 28.8498611 ], [ 77.2145426, 28.8487616 ], [ 77.2153687, 28.8473896 ], [ 77.2157657, 28.8466096 ], [ 77.2164684, 28.8451483 ], [ 77.2146714, 28.8443542 ], [ 77.2134751, 28.8438091 ], [ 77.2120804, 28.8458249 ], [ 77.2116409, 28.8465481 ], [ 77.2111094, 28.8473567 ], [ 77.2104335, 28.8487052 ], [ 77.2099668, 28.8497248 ], [ 77.2098246, 28.8500232 ], [ 77.2096288, 28.850331 ], [ 77.2091138, 28.8511767 ], [ 77.2088617, 28.8517828 ], [ 77.2087276, 28.8522104 ], [ 77.2083467, 28.8536246 ], [ 77.2079597, 28.854948 ], [ 77.2070082, 28.8598076 ], [ 77.20685, 28.8613486 ], [ 77.20685, 28.8623117 ], [ 77.2067967, 28.8636682 ], [ 77.2067267, 28.8648063 ], [ 77.2068715, 28.865699 ], [ 77.2070271, 28.8664976 ], [ 77.2073856, 28.8674002 ], [ 77.2083114, 28.8694205 ], [ 77.2110152, 28.8730622 ], [ 77.2148211, 28.8776174 ], [ 77.2174074, 28.8808471 ], [ 77.2202288, 28.8843211 ], [ 77.2230208, 28.887216 ], [ 77.2253358, 28.8899139 ], [ 77.2276643, 28.8925811 ], [ 77.2295918, 28.8960571 ], [ 77.2300994, 28.8971044 ], [ 77.2312286, 28.8968532 ], [ 77.2327226, 28.8966019 ], [ 77.2324544, 28.8957471 ], [ 77.2316987, 28.8934204 ] ], [ [ 77.2084755, 28.8646137 ], [ 77.2085237, 28.862852 ], [ 77.2089663, 28.8614355 ], [ 77.2091031, 28.8611983 ], [ 77.2091889, 28.8611442 ], [ 77.2092774, 28.8611677 ], [ 77.2094142, 28.8612711 ], [ 77.2095457, 28.8614402 ], [ 77.210294, 28.8628614 ], [ 77.2106641, 28.864003 ], [ 77.2108251, 28.8644822 ], [ 77.2108358, 28.8647735 ], [ 77.2107822, 28.8657412 ], [ 77.2106668, 28.8660771 ], [ 77.2105086, 28.8664177 ], [ 77.2103047, 28.8665822 ], [ 77.2099882, 28.8665634 ], [ 77.209602, 28.8663614 ], [ 77.2091514, 28.8660184 ], [ 77.2087008, 28.8654547 ], [ 77.2085452, 28.86506 ], [ 77.2084755, 28.8646137 ] ], [ [ 77.2086954, 28.8679774 ], [ 77.2084621, 28.8663214 ], [ 77.2084567, 28.8661077 ], [ 77.2084942, 28.8660701 ], [ 77.2085291, 28.866063 ], [ 77.2085774, 28.8660889 ], [ 77.2087222, 28.8662157 ], [ 77.2092318, 28.8666432 ], [ 77.2095376, 28.8669486 ], [ 77.2099453, 28.8674841 ], [ 77.2103476, 28.868311 ], [ 77.2105515, 28.86887 ], [ 77.2107446, 28.8696475 ], [ 77.2107446, 28.8697532 ], [ 77.2107017, 28.8698236 ], [ 77.2105139, 28.8699129 ], [ 77.2103342, 28.869981 ], [ 77.2102028, 28.8699787 ], [ 77.2100955, 28.8699152 ], [ 77.2096556, 28.8695841 ], [ 77.2089744, 28.8687056 ], [ 77.2088188, 28.8683485 ], [ 77.2086954, 28.8679774 ] ], [ [ 77.215637, 28.8765834 ], [ 77.2145319, 28.8742958 ], [ 77.2143334, 28.8738894 ], [ 77.2143234, 28.8738477 ], [ 77.2143475, 28.8738172 ], [ 77.2144072, 28.8738149 ], [ 77.2146606, 28.8738401 ], [ 77.2148551, 28.8738977 ], [ 77.2153258, 28.874183 ], [ 77.2162056, 28.8748548 ], [ 77.2184533, 28.8769217 ], [ 77.2197461, 28.8779739 ], [ 77.2201753, 28.878561 ], [ 77.220422, 28.8790824 ], [ 77.2206795, 28.8799561 ], [ 77.2206366, 28.8806983 ], [ 77.220473, 28.8809167 ], [ 77.2203201, 28.8810154 ], [ 77.2200291, 28.8810318 ], [ 77.2197193, 28.8809801 ], [ 77.2193491, 28.8808204 ], [ 77.2187698, 28.8804775 ], [ 77.2182012, 28.8800125 ], [ 77.2171819, 28.8787959 ], [ 77.2161841, 28.87749 ], [ 77.215637, 28.8765834 ] ], [ [ 77.2219562, 28.884564 ], [ 77.2213474, 28.883843 ], [ 77.2211985, 28.8836739 ], [ 77.22117, 28.8836126 ], [ 77.2211804, 28.8835809 ], [ 77.2212374, 28.8835735 ], [ 77.2213742, 28.8836035 ], [ 77.2217068, 28.8837374 ], [ 77.2230238, 28.8843386 ], [ 77.2234315, 28.8845922 ], [ 77.2238606, 28.8849022 ], [ 77.224617, 28.8852827 ], [ 77.2256738, 28.885851 ], [ 77.2260976, 28.8861657 ], [ 77.2262853, 28.8864781 ], [ 77.2263819, 28.8868045 ], [ 77.2265214, 28.8872413 ], [ 77.2267413, 28.8877462 ], [ 77.2271007, 28.8884414 ], [ 77.2271571, 28.8886457 ], [ 77.2271302, 28.8889346 ], [ 77.2270203, 28.8891624 ], [ 77.2268781, 28.8892399 ], [ 77.2267386, 28.8892469 ], [ 77.2265428, 28.8892211 ], [ 77.2261244, 28.8891201 ], [ 77.2257435, 28.8889275 ], [ 77.2254753, 28.888749 ], [ 77.2246706, 28.8877862 ], [ 77.2232974, 28.8857947 ], [ 77.2222835, 28.8849022 ], [ 77.2219562, 28.884564 ] ] ] } },
{ "type": "Feature", "properties": { "element": "relation", "id": 9054118, "addr:district": null, "addr:full": null, "addr:postcode": null, "addr:state": null, "amenity": null, "name": null, "source": null, "addr:block": null, "addr:subdistrict": null, "description": null, "alt_name": null, "int_name": null, "old_name": null, "natural": "water", "water": "river", "source:position": null, "source:tracer": null, "source:zoomlevel": null, "landuse": null, "man_made": null, "intermittent": null, "type": "multipolygon" }, "geometry": { "type": "Polygon", "coordinates": [ [ [ 77.2065122, 28.7855079 ], [ 77.2072356, 28.784177 ], [ 77.2078418, 28.7829746 ], [ 77.2085412, 28.7814133 ], [ 77.2091791, 28.7803782 ], [ 77.2099166, 28.7793558 ], [ 77.2089529, 28.7789347 ], [ 77.2084722, 28.778689 ], [ 77.2078429, 28.7795392 ], [ 77.2073303, 28.7803352 ], [ 77.2068649, 28.781106 ], [ 77.2061816, 28.7822102 ], [ 77.2058181, 28.7829058 ], [ 77.2054402, 28.7834623 ], [ 77.2053577, 28.7839066 ], [ 77.2051451, 28.7841942 ], [ 77.2048684, 28.785252 ], [ 77.2046446, 28.7855921 ], [ 77.2043964, 28.7863883 ], [ 77.2037331, 28.7872569 ], [ 77.2033372, 28.7879907 ], [ 77.2031031, 28.7880785 ], [ 77.2029879, 28.7883258 ], [ 77.2030375, 28.7903513 ], [ 77.2025263, 28.7911399 ], [ 77.2020489, 28.7922823 ], [ 77.2017163, 28.7930627 ], [ 77.2016305, 28.7936081 ], [ 77.2015807, 28.7945397 ], [ 77.2015393, 28.7953146 ], [ 77.2019899, 28.797289 ], [ 77.2025478, 28.7988403 ], [ 77.2031057, 28.8005044 ], [ 77.2035885, 28.8019241 ], [ 77.2040605, 28.8030429 ], [ 77.2051871, 28.8051582 ], [ 77.2063887, 28.808411 ], [ 77.2066247, 28.8092665 ], [ 77.2070003, 28.8098587 ], [ 77.2076708, 28.8108693 ], [ 77.2078693, 28.811297 ], [ 77.2084594, 28.8120632 ], [ 77.2091648, 28.8128293 ], [ 77.2096503, 28.8134122 ], [ 77.2099775, 28.813854 ], [ 77.2109699, 28.8147095 ], [ 77.2119355, 28.8153675 ], [ 77.2129977, 28.8160537 ], [ 77.2137058, 28.8165331 ], [ 77.214312, 28.8168997 ], [ 77.2147465, 28.8172052 ], [ 77.2152561, 28.8175718 ], [ 77.2158784, 28.8181405 ], [ 77.2162577, 28.8186433 ], [ 77.2164769, 28.8189804 ], [ 77.2167569, 28.819194 ], [ 77.2175456, 28.8198581 ], [ 77.2179222, 28.820171 ], [ 77.2183835, 28.8208853 ], [ 77.2187269, 28.8213271 ], [ 77.2191238, 28.8219099 ], [ 77.2195047, 28.8227606 ], [ 77.2198534, 28.8235737 ], [ 77.2201538, 28.8242598 ], [ 77.220304, 28.8246405 ], [ 77.2205937, 28.8252092 ], [ 77.2214735, 28.8263042 ], [ 77.2223157, 28.8270327 ], [ 77.2235548, 28.8276624 ], [ 77.2245795, 28.8279444 ], [ 77.2255987, 28.8280525 ], [ 77.2258937, 28.8281324 ], [ 77.2261029, 28.8282499 ], [ 77.2263551, 28.8286023 ], [ 77.2264731, 28.8290629 ], [ 77.2265053, 28.8295 ], [ 77.2264355, 28.8299135 ], [ 77.2262585, 28.8303177 ], [ 77.2255933, 28.8310273 ], [ 77.2243059, 28.8325687 ], [ 77.2240323, 28.8328084 ], [ 77.2237158, 28.8330199 ], [ 77.2224981, 28.833659 ], [ 77.2213554, 28.8342981 ], [ 77.2204649, 28.8349184 ], [ 77.2198534, 28.8355951 ], [ 77.2182763, 28.837362 ], [ 77.2179329, 28.8377849 ], [ 77.2173107, 28.8384475 ], [ 77.2166133, 28.8392699 ], [ 77.2159696, 28.8403882 ], [ 77.215476, 28.8418261 ], [ 77.2151917, 28.8425263 ], [ 77.214961, 28.8429915 ], [ 77.214784, 28.843109 ], [ 77.2144139, 28.8432593 ], [ 77.213797, 28.8435272 ], [ 77.2134751, 28.8438091 ], [ 77.2146714, 28.8443542 ], [ 77.2164684, 28.8451483 ], [ 77.2169459, 28.8444857 ], [ 77.2176325, 28.8437997 ], [ 77.2186464, 28.8429586 ], [ 77.2207761, 28.8414032 ], [ 77.2228789, 28.8397774 ], [ 77.2244561, 28.8381891 ], [ 77.2254002, 28.8370331 ], [ 77.2263658, 28.8356233 ], [ 77.2270203, 28.8344579 ], [ 77.2274601, 28.8330105 ], [ 77.2275835, 28.8326204 ], [ 77.2277927, 28.8321787 ], [ 77.2282755, 28.8314597 ], [ 77.2284418, 28.8310038 ], [ 77.2285223, 28.8306326 ], [ 77.2285116, 28.8287903 ], [ 77.2282004, 28.8279021 ], [ 77.2278142, 28.8272865 ], [ 77.2273314, 28.8268729 ], [ 77.226972, 28.8267342 ], [ 77.2265267, 28.8266262 ], [ 77.2261593, 28.8266567 ], [ 77.2258079, 28.8268447 ], [ 77.2256818, 28.8268635 ], [ 77.225596, 28.8268588 ], [ 77.225529, 28.8268306 ], [ 77.2254592, 28.8267201 ], [ 77.2254029, 28.8263747 ], [ 77.2252124, 28.8252844 ], [ 77.2247779, 28.8242786 ], [ 77.2241718, 28.8235032 ], [ 77.2232866, 28.8224927 ], [ 77.2228628, 28.8217689 ], [ 77.2225302, 28.8211391 ], [ 77.2221279, 28.8206127 ], [ 77.2216237, 28.8201193 ], [ 77.2209923, 28.8199206 ], [ 77.2204506, 28.8195559 ], [ 77.2199839, 28.819288 ], [ 77.2198024, 28.8193599 ], [ 77.2197154, 28.8194766 ], [ 77.2195461, 28.8196644 ], [ 77.2194351, 28.8196871 ], [ 77.2193659, 28.8196692 ], [ 77.2192972, 28.8196205 ], [ 77.2192885, 28.8195172 ], [ 77.2194833, 28.8191741 ], [ 77.2194441, 28.8190902 ], [ 77.2192566, 28.8189975 ], [ 77.2190279, 28.8189366 ], [ 77.2189445, 28.8189538 ], [ 77.2188142, 28.8190025 ], [ 77.2187001, 28.8189716 ], [ 77.218545, 28.8186748 ], [ 77.2180509, 28.8179901 ], [ 77.2169191, 28.8166553 ], [ 77.2162002, 28.815955 ], [ 77.2156906, 28.8154333 ], [ 77.2147572, 28.8144462 ], [ 77.213695, 28.813337 ], [ 77.2132552, 28.8128199 ], [ 77.2128689, 28.812317 ], [ 77.2123057, 28.8115039 ], [ 77.2116026, 28.810882 ], [ 77.2110308, 28.8100881 ], [ 77.2104761, 28.8090122 ], [ 77.2098206, 28.8078944 ], [ 77.2094711, 28.8073441 ], [ 77.2089882, 28.8064579 ], [ 77.208599, 28.8056896 ], [ 77.2076891, 28.8046235 ], [ 77.2065052, 28.8024985 ], [ 77.2055543, 28.8012472 ], [ 77.2050713, 28.7996894 ], [ 77.2049133, 28.7986401 ], [ 77.2049066, 28.7968684 ], [ 77.2048058, 28.795701 ], [ 77.2046215, 28.7945819 ], [ 77.2045668, 28.7923507 ], [ 77.20446, 28.7910688 ], [ 77.2044403, 28.7897324 ], [ 77.2047835, 28.7887523 ], [ 77.2051489, 28.7876352 ], [ 77.2057373, 28.7865436 ], [ 77.2065122, 28.7855079 ] ], [ [ 77.2216102, 28.8384757 ], [ 77.2226295, 28.8383535 ], [ 77.2233242, 28.8381421 ], [ 77.2239371, 28.8378801 ], [ 77.2240497, 28.8378625 ], [ 77.224092, 28.8378724 ], [ 77.2240953, 28.83791 ], [ 77.2240216, 28.8380387 ], [ 77.2231042, 28.8391101 ], [ 77.2225691, 28.8396023 ], [ 77.2224364, 28.8396293 ], [ 77.2222741, 28.8396282 ], [ 77.2218516, 28.8394202 ], [ 77.2212481, 28.8391054 ], [ 77.2211891, 28.8390079 ], [ 77.2211556, 28.8389139 ], [ 77.2212025, 28.838713 ], [ 77.2212911, 28.8385838 ], [ 77.2214386, 28.8385227 ], [ 77.2216102, 28.8384757 ] ], [ [ 77.2195315, 28.8397727 ], [ 77.2196925, 28.8393403 ], [ 77.2199446, 28.8389174 ], [ 77.2202852, 28.8386214 ], [ 77.2204837, 28.8385744 ], [ 77.2207385, 28.8385462 ], [ 77.2208673, 28.8385861 ], [ 77.2209236, 28.8386331 ], [ 77.2210094, 28.8388305 ], [ 77.2210912, 28.8390126 ], [ 77.2212562, 28.8391876 ], [ 77.2215271, 28.8393591 ], [ 77.2219348, 28.8396011 ], [ 77.2219831, 28.839721 ], [ 77.221967, 28.8398408 ], [ 77.2219107, 28.8399818 ], [ 77.2217444, 28.8401462 ], [ 77.220583, 28.8408534 ], [ 77.2195691, 28.8412364 ], [ 77.2193626, 28.8412082 ], [ 77.2192365, 28.8411248 ], [ 77.2191453, 28.8409686 ], [ 77.2191668, 28.8408041 ], [ 77.2195315, 28.8397727 ] ] ] } },
{ "type": "Feature", "properties": { "element": "way", "id": 114978420, "addr:district": null, "addr:full": null, "addr:postcode": null, "addr:state": null, "amenity": "school", "name": "Janta Vedic Inter College, Baraut", "source": null, "addr:block": null, "addr:subdistrict": null, "description": null, "alt_name": "Jat College", "int_name": "Jat College", "old_name": "Jat Vedic Inter College", "natural": null, "water": null, "source:position": null, "source:tracer": null, "source:zoomlevel": null, "landuse": null, "man_made": null, "intermittent": null, "type": null }, "geometry": { "type": "Polygon", "coordinates": [ [ [ 77.2682837, 29.10562 ], [ 77.2687773, 29.1040921 ], [ 77.268273, 29.1039327 ], [ 77.2674147, 29.103539 ], [ 77.2668675, 29.1042983 ], [ 77.2665457, 29.1046639 ], [ 77.267919, 29.1054232 ], [ 77.2682837, 29.10562 ] ] ] } },
{ "type": "Feature", "properties": { "element": "way", "id": 114978423, "addr:district": null, "addr:full": null, "addr:postcode": null, "addr:state": null, "amenity": null, "name": null, "source": null, "addr:block": null, "addr:subdistrict": null, "description": null, "alt_name": null, "int_name": null, "old_name": null, "natural": "water", "water": "pond", "source:position": null, "source:tracer": null, "source:zoomlevel": null, "landuse": null, "man_made": null, "intermittent": null, "type": null }, "geometry": { "type": "Polygon", "coordinates": [ [ [ 77.1855459, 29.224536 ], [ 77.1850077, 29.2248033 ], [ 77.1849673, 29.2247549 ], [ 77.1847839, 29.2245351 ], [ 77.184434, 29.2243804 ], [ 77.1847461, 29.2240648 ], [ 77.1852126, 29.223884 ], [ 77.1855459, 29.224536 ] ] ] } },
{ "type": "Feature", "properties": { "element": "way", "id": 114981734, "addr:district": null, "addr:full": null, "addr:postcode": null, "addr:state": null, "amenity": "school", "name": null, "source": null, "addr:block": null, "addr:subdistrict": null, "description": null, "alt_name": null, "int_name": null, "old_name": null, "natural": null, "water": null, "source:position": null, "source:tracer": null, "source:zoomlevel": null, "landuse": null, "man_made": null, "intermittent": null, "type": null }, "geometry": { "type": "Polygon", "coordinates": [ [ [ 77.2671735, 29.1042342 ], [ 77.2681443, 29.1047201 ], [ 77.2685098, 29.1041792 ], [ 77.2675395, 29.1037048 ], [ 77.2671735, 29.1042342 ] ] ] } },
{ "type": "Feature", "properties": { "element": "way", "id": 131632773, "addr:district": null, "addr:full": null, "addr:postcode": null, "addr:state": null, "amenity": null, "name": null, "source": null, "addr:block": null, "addr:subdistrict": null, "description": null, "alt_name": null, "int_name": null, "old_name": null, "natural": "water", "water": null, "source:position": "Bing Imagery 2011", "source:tracer": "scanaerial", "source:zoomlevel": "16", "landuse": null, "man_made": null, "intermittent": null, "type": null }, "geometry": { "type": "Polygon", "coordinates": [ [ [ 77.4091101, 29.1775503 ], [ 77.4092388, 29.1775878 ], [ 77.4094748, 29.1774566 ], [ 77.4095607, 29.1772318 ], [ 77.4096465, 29.1771569 ], [ 77.4096465, 29.1767822 ], [ 77.4095821, 29.176726 ], [ 77.4093676, 29.1766885 ], [ 77.4090457, 29.1768946 ], [ 77.4089599, 29.1770445 ], [ 77.4090457, 29.1771569 ], [ 77.4089599, 29.1772318 ], [ 77.4089599, 29.1773817 ], [ 77.4090242, 29.1774754 ], [ 77.4091101, 29.1775503 ] ] ] } },
{ "type": "Feature", "properties": { "element": "way", "id": 131632778, "addr:district": null, "addr:full": null, "addr:postcode": null, "addr:state": null, "amenity": null, "name": null, "source": null, "addr:block": null, "addr:subdistrict": null, "description": null, "alt_name": null, "int_name": null, "old_name": null, "natural": "water", "water": null, "source:position": "Bing Imagery 2011", "source:tracer": "scanaerial", "source:zoomlevel": "16", "landuse": null, "man_made": null, "intermittent": null, "type": null }, "geometry": { "type": "Polygon", "coordinates": [ [ [ 77.4065995, 29.1768196 ], [ 77.4067068, 29.1767634 ], [ 77.4066854, 29.1769321 ], [ 77.4068785, 29.1769883 ], [ 77.4068141, 29.1768571 ], [ 77.4069858, 29.1767447 ], [ 77.4070287, 29.1765199 ], [ 77.4072862, 29.1763325 ], [ 77.4072218, 29.1762763 ], [ 77.407093, 29.1763513 ], [ 77.4069428, 29.1762576 ], [ 77.4068785, 29.1761639 ], [ 77.4066639, 29.1761639 ], [ 77.4065137, 29.1762951 ], [ 77.4063849, 29.1764449 ], [ 77.4064708, 29.1765948 ], [ 77.4064708, 29.1766698 ], [ 77.4064279, 29.1767072 ], [ 77.4064708, 29.1767447 ], [ 77.4063849, 29.1768571 ], [ 77.4064493, 29.1769133 ], [ 77.4064708, 29.1768946 ], [ 77.4065995, 29.1768196 ] ] ] } },
{ "type": "Feature", "properties": { "element": "way", "id": 131632797, "addr:district": null, "addr:full": null, "addr:postcode": null, "addr:state": null, "amenity": null, "name": null, "source": null, "addr:block": null, "addr:subdistrict": null, "description": null, "alt_name": null, "int_name": null, "old_name": null, "natural": "water", "water": null, "source:position": "Bing Imagery 2011", "source:tracer": "scanaerial", "source:zoomlevel": "16", "landuse": null, "man_made": null, "intermittent": null, "type": null }, "geometry": { "type": "Polygon", "coordinates": [ [ [ 77.4078655, 29.2004419 ], [ 77.4079728, 29.2005356 ], [ 77.4079728, 29.2006479 ], [ 77.4081659, 29.2007041 ], [ 77.4083161, 29.2006105 ], [ 77.4083161, 29.2005356 ], [ 77.4083805, 29.2004794 ], [ 77.4085093, 29.2005168 ], [ 77.4086595, 29.2004232 ], [ 77.4087024, 29.2001984 ], [ 77.4082088, 29.1997301 ], [ 77.408123, 29.1997301 ], [ 77.4080157, 29.1998238 ], [ 77.4081016, 29.1998987 ], [ 77.4081016, 29.2000111 ], [ 77.4079943, 29.2001422 ], [ 77.4079084, 29.2001422 ], [ 77.4078012, 29.2002359 ], [ 77.4078441, 29.2002733 ], [ 77.4078655, 29.2004419 ] ] ] } },
{ "type": "Feature", "properties": { "element": "way", "id": 131632825, "addr:district": null, "addr:full": null, "addr:postcode": null, "addr:state": null, "amenity": null, "name": null, "source": null, "addr:block": null, "addr:subdistrict": null, "description": null, "alt_name": null, "int_name": null, "old_name": null, "natural": "water", "water": null, "source:position": "Bing Imagery 2011", "source:tracer": "scanaerial", "source:zoomlevel": "16", "landuse": null, "man_made": null, "intermittent": null, "type": null }, "geometry": { "type": "Polygon", "coordinates": [ [ [ 77.4099684, 29.2054991 ], [ 77.4100327, 29.2054429 ], [ 77.4099898, 29.2052931 ], [ 77.4100327, 29.2052181 ], [ 77.4099898, 29.2051432 ], [ 77.4100327, 29.2049934 ], [ 77.4101615, 29.204881 ], [ 77.4101615, 29.2048061 ], [ 77.4098825, 29.2046001 ], [ 77.4091959, 29.2045626 ], [ 77.4087667, 29.2047874 ], [ 77.4086809, 29.2047874 ], [ 77.4085736, 29.204881 ], [ 77.408402, 29.2050683 ], [ 77.4083591, 29.2051432 ], [ 77.4083591, 29.2052931 ], [ 77.4081016, 29.2054804 ], [ 77.4081659, 29.2056489 ], [ 77.4082518, 29.205574 ], [ 77.4085093, 29.2055366 ], [ 77.408638, 29.2054242 ], [ 77.4087667, 29.2054242 ], [ 77.4088097, 29.2053867 ], [ 77.4089599, 29.2055178 ], [ 77.4090672, 29.2056115 ], [ 77.409153, 29.205574 ], [ 77.4092817, 29.205574 ], [ 77.4094105, 29.2057238 ], [ 77.4094963, 29.2057238 ], [ 77.4096251, 29.2056115 ], [ 77.4097967, 29.2055366 ], [ 77.4099684, 29.2054991 ] ] ] } },
{ "type": "Feature", "properties": { "element": "way", "id": 131632827, "addr:district": null, "addr:full": null, "addr:postcode": null, "addr:state": null, "amenity": null, "name": null, "source": null, "addr:block": null, "addr:subdistrict": null, "description": null, "alt_name": null, "int_name": null, "old_name": null, "natural": "water", "water": null, "source:position": "Bing Imagery 2011", "source:tracer": "scanaerial", "source:zoomlevel": "16", "landuse": null, "man_made": null, "intermittent": null, "type": null }, "geometry": { "type": "Polygon", "coordinates": [ [ [ 77.3725033, 29.1970328 ], [ 77.372632, 29.1970328 ], [ 77.3729539, 29.1968268 ], [ 77.372911, 29.1965646 ], [ 77.3730397, 29.1964147 ], [ 77.3729539, 29.1962274 ], [ 77.3728251, 29.1960775 ], [ 77.3727393, 29.1958528 ], [ 77.3726749, 29.1957966 ], [ 77.3724604, 29.1957591 ], [ 77.3722887, 29.1957591 ], [ 77.3722458, 29.1957216 ], [ 77.3720312, 29.1957216 ], [ 77.3718166, 29.1954969 ], [ 77.3716879, 29.1954594 ], [ 77.3715806, 29.195553 ], [ 77.3715806, 29.1956654 ], [ 77.3716235, 29.1957029 ], [ 77.3716664, 29.1959651 ], [ 77.3717093, 29.1960401 ], [ 77.3720098, 29.1962648 ], [ 77.3720741, 29.1963585 ], [ 77.3722243, 29.1964522 ], [ 77.3723102, 29.1966395 ], [ 77.3722243, 29.1967893 ], [ 77.3722243, 29.1969766 ], [ 77.3722887, 29.1970328 ], [ 77.3725033, 29.1970328 ] ] ] } },
{ "type": "Feature", "properties": { "element": "way", "id": 131632829, "addr:district": null, "addr:full": null, "addr:postcode": null, "addr:state": null, "amenity": null, "name": null, "source": null, "addr:block": null, "addr:subdistrict": null, "description": null, "alt_name": null, "int_name": null, "old_name": null, "natural": "water", "water": null, "source:position": "Bing Imagery 2011", "source:tracer": "scanaerial", "source:zoomlevel": "16", "landuse": null, "man_made": null, "intermittent": null, "type": null }, "geometry": { "type": "Polygon", "coordinates": [ [ [ 77.3518181, 29.232916 ], [ 77.3518395, 29.2329721 ], [ 77.3517537, 29.2330845 ], [ 77.3519039, 29.2331032 ], [ 77.3519254, 29.2331968 ], [ 77.3519897, 29.233253 ], [ 77.3521399, 29.2332343 ], [ 77.3521399, 29.2330096 ], [ 77.3522043, 29.2329534 ], [ 77.3523545, 29.2329347 ], [ 77.3522258, 29.2328223 ], [ 77.3522687, 29.2327474 ], [ 77.3521829, 29.2326351 ], [ 77.3522258, 29.2325227 ], [ 77.3521829, 29.2324853 ], [ 77.3521829, 29.2323355 ], [ 77.3519897, 29.2322419 ], [ 77.3516893, 29.2322793 ], [ 77.3514533, 29.2324104 ], [ 77.3515821, 29.2325227 ], [ 77.3515821, 29.2326351 ], [ 77.3515391, 29.2326725 ], [ 77.3516893, 29.2326913 ], [ 77.3517537, 29.2327849 ], [ 77.3518181, 29.232916 ] ] ] } },
{ "type": "Feature", "properties": { "element": "way", "id": 131632831, "addr:district": null, "addr:full": null, "addr:postcode": null, "addr:state": null, "amenity": null, "name": null, "source": null, "addr:block": null, "addr:subdistrict": null, "description": null, "alt_name": null, "int_name": null, "old_name": null, "natural": "water", "water": null, "source:position": "Bing Imagery 2011", "source:tracer": "scanaerial", "source:zoomlevel": "16", "landuse": null, "man_made": null, "intermittent": null, "type": null }, "geometry": { "type": "Polygon", "coordinates": [ [ [ 77.3684049, 29.1937548 ], [ 77.3684692, 29.1936611 ], [ 77.3685765, 29.1936424 ], [ 77.3686194, 29.19353 ], [ 77.368598, 29.1934363 ], [ 77.3683405, 29.1934363 ], [ 77.3682547, 29.1933989 ], [ 77.368083, 29.1932116 ], [ 77.3677397, 29.1932116 ], [ 77.3676538, 29.1932865 ], [ 77.3675251, 29.1931741 ], [ 77.3674607, 29.1932303 ], [ 77.3675036, 29.1933801 ], [ 77.3674607, 29.1934551 ], [ 77.3674607, 29.1935675 ], [ 77.3675036, 29.1936424 ], [ 77.3674178, 29.1937173 ], [ 77.3674178, 29.1937923 ], [ 77.3675251, 29.1938859 ], [ 77.3678255, 29.1938484 ], [ 77.3679113, 29.1938859 ], [ 77.3680401, 29.193811 ], [ 77.3681259, 29.1938484 ], [ 77.3682976, 29.1938484 ], [ 77.3684049, 29.1937548 ] ] ] } },
{ "type": "Feature", "properties": { "element": "way", "id": 131632840, "addr:district": null, "addr:full": null, "addr:postcode": null, "addr:state": null, "amenity": null, "name": null, "source": null, "addr:block": null, "addr:subdistrict": null, "description": null, "alt_name": null, "int_name": null, "old_name": null, "natural": "water", "water": null, "source:position": "Bing Imagery 2011", "source:tracer": "scanaerial", "source:zoomlevel": "16", "landuse": null, "man_made": null, "intermittent": null, "type": null }, "geometry": { "type": "Polygon", "coordinates": [ [ [ 77.4074793, 29.1744403 ], [ 77.407372, 29.1742716 ], [ 77.407372, 29.1741943 ], [ 77.407372, 29.1740843 ], [ 77.4072218, 29.1739531 ], [ 77.4070501, 29.1739906 ], [ 77.4068141, 29.1741967 ], [ 77.4068141, 29.1742716 ], [ 77.4066424, 29.1744215 ], [ 77.4065995, 29.1747213 ], [ 77.4065566, 29.1747588 ], [ 77.4065566, 29.1748337 ], [ 77.406621, 29.1748899 ], [ 77.4068785, 29.1750023 ], [ 77.4070072, 29.1750023 ], [ 77.4073076, 29.1747026 ], [ 77.4074793, 29.1747026 ], [ 77.4075437, 29.1746464 ], [ 77.4075437, 29.1745714 ], [ 77.4074793, 29.1744403 ] ] ] } },
{ "type": "Feature", "properties": { "element": "way", "id": 131632842, "addr:district": null, "addr:full": null, "addr:postcode": null, "addr:state": null, "amenity": null, "name": null, "source": null, "addr:block": null, "addr:subdistrict": null, "description": null, "alt_name": null, "int_name": null, "old_name": null, "natural": "water", "water": null, "source:position": "Bing Imagery 2011", "source:tracer": "scanaerial", "source:zoomlevel": "16", "landuse": null, "man_made": null, "intermittent": null, "type": null }, "geometry": { "type": "Polygon", "coordinates": [ [ [ 77.4020505, 29.2302383 ], [ 77.4020505, 29.2301259 ], [ 77.4018788, 29.2299387 ], [ 77.4019217, 29.2298263 ], [ 77.4018574, 29.2298076 ], [ 77.4016857, 29.2299199 ], [ 77.4014282, 29.2301446 ], [ 77.4013424, 29.2301446 ], [ 77.4011493, 29.2303506 ], [ 77.4012351, 29.2305753 ], [ 77.4013853, 29.2307064 ], [ 77.401557, 29.2308187 ], [ 77.4016857, 29.2308187 ], [ 77.4018145, 29.2306689 ], [ 77.4021578, 29.2306315 ], [ 77.4022222, 29.2305379 ], [ 77.4020934, 29.2303506 ], [ 77.4020505, 29.2302383 ] ] ] } },
{ "type": "Feature", "properties": { "element": "way", "id": 131632846, "addr:district": null, "addr:full": null, "addr:postcode": null, "addr:state": null, "amenity": null, "name": null, "source": null, "addr:block": null, "addr:subdistrict": null, "description": null, "alt_name": null, "int_name": null, "old_name": null, "natural": "water", "water": null, "source:position": "Bing Imagery 2011", "source:tracer": "scanaerial", "source:zoomlevel": "16", "landuse": null, "man_made": null, "intermittent": null, "type": null }, "geometry": { "type": "Polygon", "coordinates": [ [ [ 77.3548865, 29.2244707 ], [ 77.3548222, 29.2244145 ], [ 77.3546934, 29.2244145 ], [ 77.3545861, 29.2245081 ], [ 77.3545861, 29.2245831 ], [ 77.3544145, 29.2246954 ], [ 77.354393, 29.2247516 ], [ 77.3541784, 29.2248639 ], [ 77.353878, 29.2249014 ], [ 77.3536849, 29.2250699 ], [ 77.3536849, 29.2251448 ], [ 77.3538351, 29.2251636 ], [ 77.3538995, 29.2252197 ], [ 77.3539853, 29.225407 ], [ 77.3539424, 29.2256317 ], [ 77.3540068, 29.2256879 ], [ 77.3540497, 29.2256505 ], [ 77.3541784, 29.2256505 ], [ 77.3542428, 29.2257066 ], [ 77.3541999, 29.225819 ], [ 77.3542643, 29.2258752 ], [ 77.3544788, 29.2258377 ], [ 77.3545218, 29.2259126 ], [ 77.3546076, 29.2259126 ], [ 77.3546934, 29.2258003 ], [ 77.354908, 29.2257254 ], [ 77.3551011, 29.2255568 ], [ 77.3551011, 29.2254445 ], [ 77.3553157, 29.2252572 ], [ 77.3551869, 29.2251074 ], [ 77.3552299, 29.2249576 ], [ 77.3551869, 29.2248827 ], [ 77.3551226, 29.2248265 ], [ 77.3549509, 29.2248265 ], [ 77.3548436, 29.2247329 ], [ 77.3548651, 29.2246392 ], [ 77.3548865, 29.2244707 ] ] ] } },
{ "type": "Feature", "properties": { "element": "way", "id": 131632849, "addr:district": null, "addr:full": null, "addr:postcode": null, "addr:state": null, "amenity": null, "name": null, "source": null, "addr:block": null, "addr:subdistrict": null, "description": null, "alt_name": null, "int_name": null, "old_name": null, "natural": "water", "water": null, "source:position": "Bing Imagery 2011", "source:tracer": "scanaerial", "source:zoomlevel": "16", "landuse": null, "man_made": null, "intermittent": null, "type": null }, "geometry": { "type": "Polygon", "coordinates": [ [ [ 77.4111485, 29.1753583 ], [ 77.4110842, 29.1753396 ], [ 77.4109125, 29.1755269 ], [ 77.4108052, 29.1755831 ], [ 77.4108052, 29.1756581 ], [ 77.4105477, 29.1758454 ], [ 77.4108696, 29.1762014 ], [ 77.4109983, 29.1762389 ], [ 77.4110413, 29.1762014 ], [ 77.4112773, 29.1761827 ], [ 77.4112773, 29.1756955 ], [ 77.41117, 29.175452 ], [ 77.4111485, 29.1753583 ] ] ] } },
{ "type": "Feature", "properties": { "element": "way", "id": 131632855, "addr:district": null, "addr:full": null, "addr:postcode": null, "addr:state": null, "amenity": null, "name": null, "source": null, "addr:block": null, "addr:subdistrict": null, "description": null, "alt_name": null, "int_name": null, "old_name": null, "natural": "water", "water": null, "source:position": "Bing Imagery 2011", "source:tracer": "scanaerial", "source:zoomlevel": "16", "landuse": null, "man_made": null, "intermittent": null, "type": null }, "geometry": { "type": "Polygon", "coordinates": [ [ [ 77.4270916, 29.2226852 ], [ 77.4270701, 29.2227414 ], [ 77.427156, 29.2228912 ], [ 77.4271131, 29.2231159 ], [ 77.4270701, 29.2231533 ], [ 77.4271774, 29.2231346 ], [ 77.4273491, 29.2233219 ], [ 77.4275208, 29.223247 ], [ 77.4276066, 29.2232844 ], [ 77.4277353, 29.2232095 ], [ 77.4278426, 29.2231159 ], [ 77.4278426, 29.2229661 ], [ 77.4276924, 29.2227975 ], [ 77.4275422, 29.2227414 ], [ 77.4275422, 29.2224043 ], [ 77.427392, 29.2222732 ], [ 77.4270487, 29.2222357 ], [ 77.4270701, 29.2221795 ], [ 77.4270058, 29.2221234 ], [ 77.4268341, 29.2221234 ], [ 77.4268126, 29.222217 ], [ 77.4269414, 29.2222919 ], [ 77.4269414, 29.2224043 ], [ 77.4270701, 29.2225166 ], [ 77.4270916, 29.2226852 ] ] ] } },
{ "type": "Feature", "properties": { "element": "way", "id": 131632866, "addr:district": null, "addr:full": null, "addr:postcode": null, "addr:state": null, "amenity": null, "name": null, "source": null, "addr:block": null, "addr:subdistrict": null, "description": null, "alt_name": null, "int_name": null, "old_name": null, "natural": "water", "water": null, "source:position": "Bing Imagery 2011", "source:tracer": "scanaerial", "source:zoomlevel": "16", "landuse": null, "man_made": null, "intermittent": null, "type": null }, "geometry": { "type": "Polygon", "coordinates": [ [ [ 77.3949909, 29.2306315 ], [ 77.3950124, 29.2305753 ], [ 77.3949265, 29.2305004 ], [ 77.3948407, 29.2302757 ], [ 77.3948836, 29.2301634 ], [ 77.3947978, 29.230051 ], [ 77.3949265, 29.2299012 ], [ 77.3948407, 29.2297889 ], [ 77.3948407, 29.2296391 ], [ 77.3947549, 29.2296016 ], [ 77.3948407, 29.2295267 ], [ 77.3947978, 29.2294143 ], [ 77.3947978, 29.2291522 ], [ 77.3949695, 29.2290398 ], [ 77.3950124, 29.2289649 ], [ 77.3949695, 29.2288526 ], [ 77.3946691, 29.2286279 ], [ 77.3946261, 29.2285155 ], [ 77.394712, 29.2284406 ], [ 77.3947549, 29.2283283 ], [ 77.3946691, 29.2282534 ], [ 77.3946691, 29.228141 ], [ 77.3944116, 29.2279537 ], [ 77.3942614, 29.2277478 ], [ 77.3940682, 29.2278039 ], [ 77.3940682, 29.2282908 ], [ 77.394197, 29.228553 ], [ 77.394197, 29.22889 ], [ 77.3940253, 29.2290398 ], [ 77.3940253, 29.2291896 ], [ 77.394197, 29.2294518 ], [ 77.394197, 29.229714 ], [ 77.3942399, 29.2297889 ], [ 77.394197, 29.2298263 ], [ 77.394197, 29.2299761 ], [ 77.3943257, 29.2303132 ], [ 77.3942399, 29.2307626 ], [ 77.3941112, 29.2309873 ], [ 77.3944545, 29.2312494 ], [ 77.3944974, 29.2313243 ], [ 77.3944974, 29.2314367 ], [ 77.3945618, 29.2314929 ], [ 77.3946691, 29.2312494 ], [ 77.3946691, 29.2311371 ], [ 77.3947549, 29.2310622 ], [ 77.3947549, 29.2309498 ], [ 77.3948622, 29.2308187 ], [ 77.3949051, 29.2308187 ], [ 77.3949909, 29.2306315 ] ] ] } },
{ "type": "Feature", "properties": { "element": "way", "id": 131632879, "addr:district": null, "addr:full": null, "addr:postcode": null, "addr:state": null, "amenity": null, "name": null, "source": null, "addr:block": null, "addr:subdistrict": null, "description": null, "alt_name": null, "int_name": null, "old_name": null, "natural": "water", "water": null, "source:position": "Bing Imagery 2011", "source:tracer": "scanaerial", "source:zoomlevel": "16", "landuse": null, "man_made": null, "intermittent": null, "type": null }, "geometry": { "type": "Polygon", "coordinates": [ [ [ 77.4273705, 29.2199014 ], [ 77.4274135, 29.219789 ], [ 77.4273062, 29.2197328 ], [ 77.4269414, 29.2200137 ], [ 77.4269414, 29.2201261 ], [ 77.4270916, 29.2203321 ], [ 77.4272203, 29.2203321 ], [ 77.4273705, 29.220201 ], [ 77.4273705, 29.2200512 ], [ 77.4273705, 29.2199014 ] ] ] } },
{ "type": "Feature", "properties": { "element": "way", "id": 131632896, "addr:district": null, "addr:full": null, "addr:postcode": null, "addr:state": null, "amenity": null, "name": null, "source": null, "addr:block": null, "addr:subdistrict": null, "description": null, "alt_name": null, "int_name": null, "old_name": null, "natural": "water", "water": null, "source:position": "Bing Imagery 2011", "source:tracer": "scanaerial", "source:zoomlevel": "16", "landuse": null, "man_made": null, "intermittent": null, "type": null }, "geometry": { "type": "Polygon", "coordinates": [ [ [ 77.4277997, 29.2236777 ], [ 77.4276495, 29.2234717 ], [ 77.4275422, 29.2235279 ], [ 77.4274135, 29.2237151 ], [ 77.4274135, 29.2238275 ], [ 77.4271989, 29.2239773 ], [ 77.4271989, 29.2241271 ], [ 77.4272847, 29.224202 ], [ 77.4272418, 29.2243518 ], [ 77.4272633, 29.2244455 ], [ 77.4274349, 29.2245578 ], [ 77.4274778, 29.2244455 ], [ 77.4276066, 29.2244455 ], [ 77.4276924, 29.2243331 ], [ 77.4280143, 29.224202 ], [ 77.4279928, 29.2241084 ], [ 77.4279499, 29.2241458 ], [ 77.4278641, 29.2240709 ], [ 77.4277568, 29.2240522 ], [ 77.4278855, 29.2238275 ], [ 77.4278641, 29.2237713 ], [ 77.4277997, 29.2236777 ] ] ] } },
{ "type": "Feature", "properties": { "element": "way", "id": 131632906, "addr:district": null, "addr:full": null, "addr:postcode": null, "addr:state": null, "amenity": null, "name": null, "source": null, "addr:block": null, "addr:subdistrict": null, "description": null, "alt_name": null, "int_name": null, "old_name": null, "natural": "water", "water": null, "source:position": "Bing Imagery 2011", "source:tracer": "scanaerial", "source:zoomlevel": "16", "landuse": null, "man_made": null, "intermittent": null, "type": null }, "geometry": { "type": "Polygon", "coordinates": [ [ [ 77.3998618, 29.2329721 ], [ 77.3999906, 29.2331594 ], [ 77.3999906, 29.2333466 ], [ 77.4000764, 29.2334215 ], [ 77.4000335, 29.233459 ], [ 77.4000549, 29.2335526 ], [ 77.4003124, 29.2335151 ], [ 77.4003553, 29.2335526 ], [ 77.4004841, 29.2335526 ], [ 77.4007845, 29.2334028 ], [ 77.4009776, 29.2332717 ], [ 77.4009776, 29.233047 ], [ 77.4008918, 29.2328598 ], [ 77.400806, 29.2327849 ], [ 77.400806, 29.2325976 ], [ 77.400763, 29.2325227 ], [ 77.400806, 29.2324478 ], [ 77.4006557, 29.2323542 ], [ 77.4004626, 29.2323729 ], [ 77.4004412, 29.2324291 ], [ 77.4003124, 29.2324291 ], [ 77.4002266, 29.2323542 ], [ 77.400012, 29.2323542 ], [ 77.3999047, 29.2324478 ], [ 77.3999047, 29.2325602 ], [ 77.3998618, 29.2325976 ], [ 77.3999047, 29.2327849 ], [ 77.3998618, 29.2329721 ] ] ] } },
{ "type": "Feature", "properties": { "element": "way", "id": 131632949, "addr:district": null, "addr:full": null, "addr:postcode": null, "addr:state": null, "amenity": null, "name": null, "source": null, "addr:block": null, "addr:subdistrict": null, "description": null, "alt_name": null, "int_name": null, "old_name": null, "natural": "water", "water": null, "source:position": "Bing Imagery 2011", "source:tracer": "scanaerial", "source:zoomlevel": "16", "landuse": null, "man_made": null, "intermittent": null, "type": null }, "geometry": { "type": "Polygon", "coordinates": [ [ [ 77.4196243, 29.1959089 ], [ 77.419796, 29.195834 ], [ 77.4199247, 29.195834 ], [ 77.4200749, 29.1957404 ], [ 77.4199033, 29.1955905 ], [ 77.4199033, 29.1955156 ], [ 77.419796, 29.1954219 ], [ 77.4197102, 29.1954219 ], [ 77.4195385, 29.1952346 ], [ 77.4194527, 29.1951971 ], [ 77.4192381, 29.1951971 ], [ 77.4191952, 29.1952721 ], [ 77.4189591, 29.1954407 ], [ 77.4191308, 29.1959277 ], [ 77.4192381, 29.1959839 ], [ 77.4194312, 29.1959651 ], [ 77.4196243, 29.1959089 ] ] ] } },
{ "type": "Feature", "properties": { "element": "way", "id": 510624704, "addr:district": null, "addr:full": null, "addr:postcode": null, "addr:state": null, "amenity": null, "name": null, "source": null, "addr:block": null, "addr:subdistrict": null, "description": null, "alt_name": null, "int_name": null, "old_name": null, "natural": "water", "water": "pond", "source:position": null, "source:tracer": null, "source:zoomlevel": null, "landuse": null, "man_made": null, "intermittent": null, "type": null }, "geometry": { "type": "Polygon", "coordinates": [ [ [ 77.1627113, 29.247507 ], [ 77.1627696, 29.2475171 ], [ 77.1628934, 29.2475151 ], [ 77.1629658, 29.2474927 ], [ 77.1630452, 29.2474642 ], [ 77.1630778, 29.2473847 ], [ 77.1631642, 29.2472564 ], [ 77.1632203, 29.2471708 ], [ 77.1632203, 29.2470954 ], [ 77.1631502, 29.2470689 ], [ 77.1630405, 29.2470567 ], [ 77.1629097, 29.2470465 ], [ 77.1628233, 29.247071 ], [ 77.162793, 29.2471341 ], [ 77.1626926, 29.2471647 ], [ 77.1626295, 29.2472095 ], [ 77.1625968, 29.2472625 ], [ 77.1626015, 29.2473684 ], [ 77.1626505, 29.2473847 ], [ 77.1626879, 29.2474418 ], [ 77.1627113, 29.247507 ] ] ] } },
{ "type": "Feature", "properties": { "element": "way", "id": 513048145, "addr:district": null, "addr:full": null, "addr:postcode": null, "addr:state": null, "amenity": null, "name": null, "source": null, "addr:block": null, "addr:subdistrict": null, "description": null, "alt_name": null, "int_name": null, "old_name": null, "natural": "water", "water": "pond", "source:position": null, "source:tracer": null, "source:zoomlevel": null, "landuse": null, "man_made": null, "intermittent": null, "type": null }, "geometry": { "type": "Polygon", "coordinates": [ [ [ 77.2463284, 29.2451956 ], [ 77.2460575, 29.2450978 ], [ 77.2460575, 29.2449837 ], [ 77.2461042, 29.2448655 ], [ 77.2461976, 29.244837 ], [ 77.246235, 29.2447555 ], [ 77.2461182, 29.2446536 ], [ 77.2459874, 29.2444947 ], [ 77.2458894, 29.2443765 ], [ 77.2457726, 29.2441402 ], [ 77.2457306, 29.2439039 ], [ 77.2457259, 29.2437409 ], [ 77.2459594, 29.2437409 ], [ 77.2461649, 29.2437653 ], [ 77.246249, 29.2438305 ], [ 77.246319, 29.2439609 ], [ 77.2464218, 29.2439854 ], [ 77.2465619, 29.243965 ], [ 77.2466459, 29.244022 ], [ 77.246716, 29.2441647 ], [ 77.246716, 29.2442584 ], [ 77.2468094, 29.244401 ], [ 77.2469028, 29.2445355 ], [ 77.2469261, 29.2446658 ], [ 77.2469355, 29.2448003 ], [ 77.2470148, 29.2449063 ], [ 77.2470756, 29.2449959 ], [ 77.2473511, 29.2449959 ], [ 77.247253, 29.245383 ], [ 77.2463284, 29.2451956 ] ] ] } },
{ "type": "Feature", "properties": { "element": "way", "id": 513048146, "addr:district": null, "addr:full": null, "addr:postcode": null, "addr:state": null, "amenity": null, "name": null, "source": null, "addr:block": null, "addr:subdistrict": null, "description": null, "alt_name": null, "int_name": null, "old_name": null, "natural": "water", "water": "pond", "source:position": null, "source:tracer": null, "source:zoomlevel": null, "landuse": null, "man_made": null, "intermittent": null, "type": null }, "geometry": { "type": "Polygon", "coordinates": [ [ [ 77.240537, 29.2459973 ], [ 77.2404877, 29.2456639 ], [ 77.2406972, 29.2453682 ], [ 77.2407157, 29.245094 ], [ 77.2407342, 29.2449219 ], [ 77.2403275, 29.2446854 ], [ 77.2400933, 29.2444327 ], [ 77.2400625, 29.2443144 ], [ 77.2402782, 29.2440724 ], [ 77.2401303, 29.243938 ], [ 77.2398284, 29.2439918 ], [ 77.2396682, 29.2437767 ], [ 77.2395696, 29.2438143 ], [ 77.2397729, 29.2444058 ], [ 77.239816, 29.244637 ], [ 77.239699, 29.2448574 ], [ 77.2400132, 29.2452768 ], [ 77.2401303, 29.2456478 ], [ 77.2404939, 29.2460779 ], [ 77.240537, 29.2459973 ] ] ] } },
{ "type": "Feature", "properties": { "element": "way", "id": 513048245, "addr:district": null, "addr:full": null, "addr:postcode": null, "addr:state": null, "amenity": null, "name": null, "source": null, "addr:block": null, "addr:subdistrict": null, "description": null, "alt_name": null, "int_name": null, "old_name": null, "natural": "water", "water": "pond", "source:position": null, "source:tracer": null, "source:zoomlevel": null, "landuse": null, "man_made": null, "intermittent": null, "type": null }, "geometry": { "type": "Polygon", "coordinates": [ [ [ 77.2371248, 29.2383624 ], [ 77.2363117, 29.2387952 ], [ 77.236393, 29.2389088 ], [ 77.2365069, 29.2389513 ], [ 77.2365312, 29.2391713 ], [ 77.2360109, 29.2394409 ], [ 77.2365556, 29.2398382 ], [ 77.2369378, 29.2402213 ], [ 77.2374419, 29.2400298 ], [ 77.2374663, 29.2395544 ], [ 77.2377265, 29.2393699 ], [ 77.2371248, 29.2383624 ] ] ] } },
{ "type": "Feature", "properties": { "element": "way", "id": 649063521, "addr:district": null, "addr:full": null, "addr:postcode": null, "addr:state": null, "amenity": null, "name": null, "source": null, "addr:block": null, "addr:subdistrict": null, "description": null, "alt_name": null, "int_name": null, "old_name": null, "natural": "water", "water": "river", "source:position": null, "source:tracer": null, "source:zoomlevel": null, "landuse": null, "man_made": null, "intermittent": null, "type": null }, "geometry": { "type": "Polygon", "coordinates": [ [ [ 77.1499979, 29.2949607 ], [ 77.1517414, 29.2964624 ], [ 77.1530396, 29.2982027 ], [ 77.1533561, 29.298563 ], [ 77.1536833, 29.2988764 ], [ 77.1540695, 29.2991337 ], [ 77.1550405, 29.2997325 ], [ 77.1555877, 29.3001302 ], [ 77.1559685, 29.3005138 ], [ 77.1565732, 29.3012899 ], [ 77.1575081, 29.3024131 ], [ 77.1583128, 29.3039194 ], [ 77.158919, 29.305683 ], [ 77.1591872, 29.3071986 ], [ 77.1595359, 29.3092287 ], [ 77.1596163, 29.3095608 ], [ 77.1597773, 29.3099164 ], [ 77.1605551, 29.3114272 ], [ 77.1611398, 29.3124797 ], [ 77.1617567, 29.3133638 ], [ 77.1620786, 29.3139905 ], [ 77.1625668, 29.3149354 ], [ 77.1626043, 29.3152909 ], [ 77.1625507, 29.3156978 ], [ 77.1624273, 29.316058 ], [ 77.1622395, 29.3164228 ], [ 77.1617246, 29.3169139 ], [ 77.1607107, 29.3177512 ], [ 77.159214, 29.3185837 ], [ 77.1574652, 29.3196268 ], [ 77.1554911, 29.3207867 ], [ 77.153812, 29.3216052 ], [ 77.1519801, 29.3224518 ], [ 77.1516582, 29.3226015 ], [ 77.1512317, 29.3227371 ], [ 77.1483993, 29.323607 ], [ 77.1454489, 29.3246921 ], [ 77.1445316, 29.3252861 ], [ 77.1435392, 29.325852 ], [ 77.1431717, 29.3260718 ], [ 77.1429974, 29.3261092 ], [ 77.1428445, 29.3261256 ], [ 77.1425602, 29.3261326 ], [ 77.1422625, 29.3261186 ], [ 77.1419916, 29.3261069 ], [ 77.1417206, 29.3261373 ], [ 77.1410447, 29.3262682 ], [ 77.1387863, 29.3270119 ], [ 77.1371233, 29.3274328 ], [ 77.1352565, 29.3279426 ], [ 77.1338832, 29.328284 ], [ 77.132569, 29.328588 ], [ 77.13148, 29.3289434 ], [ 77.1308014, 29.3291328 ], [ 77.1306512, 29.3292007 ], [ 77.1305117, 29.3293129 ], [ 77.1303079, 29.3295514 ], [ 77.1301147, 29.3297595 ], [ 77.1299109, 29.3299443 ], [ 77.129302, 29.3303698 ], [ 77.1277571, 29.3317308 ], [ 77.1266681, 29.3326147 ], [ 77.1259975, 29.333419 ], [ 77.1252197, 29.3348033 ], [ 77.1243292, 29.3375671 ], [ 77.1242943, 29.3377518 ], [ 77.1242863, 29.3379693 ], [ 77.1243212, 29.3381563 ], [ 77.1221861, 29.3376209 ], [ 77.121883, 29.3375344 ], [ 77.122815, 29.3352437 ], [ 77.1242191, 29.3328975 ], [ 77.1256542, 29.3304447 ], [ 77.1269095, 29.3287423 ], [ 77.1284732, 29.3274281 ], [ 77.1290123, 29.3271896 ], [ 77.1295407, 29.3271101 ], [ 77.1302783, 29.3271101 ], [ 77.1310562, 29.3271662 ], [ 77.1316892, 29.3270633 ], [ 77.1323399, 29.3268787 ], [ 77.133744, 29.3258177 ], [ 77.1343526, 29.3254311 ], [ 77.1346584, 29.3252861 ], [ 77.1349011, 29.3252498 ], [ 77.1351385, 29.32523 ], [ 77.1354255, 29.3251762 ], [ 77.1355569, 29.3251177 ], [ 77.1356159, 29.3250756 ], [ 77.1359163, 29.3248324 ], [ 77.1362302, 29.3245518 ], [ 77.1377832, 29.3231206 ], [ 77.1391457, 29.3222787 ], [ 77.140342, 29.3217549 ], [ 77.1416134, 29.3213386 ], [ 77.1419594, 29.3211913 ], [ 77.1421149, 29.3211141 ], [ 77.1422008, 29.3210276 ], [ 77.1424448, 29.3207212 ], [ 77.1425468, 29.3206417 ], [ 77.1427238, 29.3205856 ], [ 77.1430618, 29.3205809 ], [ 77.143212, 29.3205599 ], [ 77.1433434, 29.3205154 ], [ 77.1439067, 29.3202582 ], [ 77.144537, 29.3201226 ], [ 77.1451056, 29.3200851 ], [ 77.1456635, 29.3201366 ], [ 77.1468168, 29.3201179 ], [ 77.1486354, 29.3203026 ], [ 77.1488982, 29.320326 ], [ 77.1490109, 29.3203237 ], [ 77.1491289, 29.320298 ], [ 77.1493086, 29.3201974 ], [ 77.1496251, 29.3199776 ], [ 77.1502715, 29.3196174 ], [ 77.1516663, 29.3190421 ], [ 77.1520364, 29.3188316 ], [ 77.1524441, 29.3185557 ], [ 77.153002, 29.3180692 ], [ 77.1533132, 29.3177465 ], [ 77.1536028, 29.3173723 ], [ 77.153812, 29.3170449 ], [ 77.1539408, 29.3163246 ], [ 77.1538871, 29.3159597 ], [ 77.1537477, 29.3156136 ], [ 77.153222, 29.3148418 ], [ 77.1532139, 29.3145986 ], [ 77.1532702, 29.3143647 ], [ 77.1535331, 29.3138876 ], [ 77.1539569, 29.3132796 ], [ 77.1543056, 29.3122786 ], [ 77.154386, 29.3116564 ], [ 77.1544826, 29.3106601 ], [ 77.1546113, 29.3095094 ], [ 77.1546113, 29.3063285 ], [ 77.1545845, 29.3046491 ], [ 77.1544611, 29.3040223 ], [ 77.1541876, 29.3031382 ], [ 77.1539301, 29.3026142 ], [ 77.1537209, 29.3019406 ], [ 77.1535572, 29.3013909 ], [ 77.1533722, 29.3011032 ], [ 77.1531039, 29.3008366 ], [ 77.1526694, 29.3005652 ], [ 77.1521974, 29.300322 ], [ 77.1516877, 29.2999898 ], [ 77.1510547, 29.299639 ], [ 77.1501106, 29.2990261 ], [ 77.1492523, 29.2985022 ], [ 77.1482384, 29.2978238 ], [ 77.1476054, 29.2974074 ], [ 77.1496975, 29.2952695 ], [ 77.1499979, 29.2949607 ] ] ] } },
{ "type": "Feature", "properties": { "element": "way", "id": 649361171, "addr:district": null, "addr:full": null, "addr:postcode": null, "addr:state": null, "amenity": null, "name": null, "source": null, "addr:block": null, "addr:subdistrict": null, "description": null, "alt_name": null, "int_name": null, "old_name": null, "natural": "water", "water": "river", "source:position": null, "source:tracer": null, "source:zoomlevel": null, "landuse": null, "man_made": null, "intermittent": null, "type": null }, "geometry": { "type": "Polygon", "coordinates": [ [ [ 77.1484655, 29.1984175 ], [ 77.1486466, 29.2012195 ], [ 77.1486354, 29.2031391 ], [ 77.1486354, 29.2037759 ], [ 77.1487266, 29.2042255 ], [ 77.1489465, 29.2046937 ], [ 77.1493971, 29.2057426 ], [ 77.1503627, 29.2076624 ], [ 77.1509314, 29.2088002 ], [ 77.1510762, 29.2091326 ], [ 77.1512049, 29.2092801 ], [ 77.1514088, 29.2094136 ], [ 77.1515885, 29.2095259 ], [ 77.1519104, 29.2095611 ], [ 77.1520807, 29.2095763 ], [ 77.152251, 29.2096254 ], [ 77.1523637, 29.2097015 ], [ 77.1527338, 29.2102938 ], [ 77.1528921, 29.2110126 ], [ 77.1529913, 29.2121293 ], [ 77.1528357, 29.2127098 ], [ 77.1524977, 29.2131593 ], [ 77.1505451, 29.215079 ], [ 77.1490431, 29.2165866 ], [ 77.1468437, 29.2182253 ], [ 77.1452773, 29.2199014 ], [ 77.1444726, 29.220716 ], [ 77.1437752, 29.2213153 ], [ 77.141667, 29.2227011 ], [ 77.1397948, 29.2241804 ], [ 77.1383142, 29.2253415 ], [ 77.1375632, 29.2261093 ], [ 77.1368766, 29.2269613 ], [ 77.1361256, 29.2281036 ], [ 77.1346718, 29.2305894 ], [ 77.1339744, 29.2324806 ], [ 77.1334326, 29.2342126 ], [ 77.1328211, 29.2357106 ], [ 77.1327084, 29.2362349 ], [ 77.1327138, 29.236483 ], [ 77.1327674, 29.2366983 ], [ 77.1329552, 29.2372507 ], [ 77.133202, 29.2378311 ], [ 77.1342909, 29.2398065 ], [ 77.1347201, 29.240958 ], [ 77.1349776, 29.2414495 ], [ 77.1354121, 29.242086 ], [ 77.1358466, 29.242849 ], [ 77.1361095, 29.2434435 ], [ 77.1362704, 29.244052 ], [ 77.1368605, 29.2465655 ], [ 77.1373272, 29.2484845 ], [ 77.137531, 29.2494112 ], [ 77.1376705, 29.2501554 ], [ 77.1377027, 29.250572 ], [ 77.1376812, 29.2510026 ], [ 77.1372843, 29.2517608 ], [ 77.1368122, 29.2524441 ], [ 77.1358573, 29.2535487 ], [ 77.1350593, 29.2546174 ], [ 77.1348113, 29.2549118 ], [ 77.1343479, 29.255419 ], [ 77.1340348, 29.2560432 ], [ 77.1334862, 29.2574051 ], [ 77.132687, 29.2589776 ], [ 77.1319413, 29.2605782 ], [ 77.13148, 29.2614674 ], [ 77.131083, 29.2625344 ], [ 77.1307826, 29.2636435 ], [ 77.1303266, 29.2647573 ], [ 77.1301496, 29.2653797 ], [ 77.1299136, 29.2660676 ], [ 77.1295568, 29.2670387 ], [ 77.1278429, 29.2671861 ], [ 77.1242755, 29.2673265 ], [ 77.1244204, 29.2667181 ], [ 77.1246296, 29.2657915 ], [ 77.1247637, 29.2651083 ], [ 77.1248201, 29.2649819 ], [ 77.1249434, 29.2648392 ], [ 77.1252117, 29.2646286 ], [ 77.1253458, 29.2644859 ], [ 77.1254557, 29.2643314 ], [ 77.1269041, 29.2621319 ], [ 77.1285027, 29.2600213 ], [ 77.130273, 29.2576111 ], [ 77.1306109, 29.2570261 ], [ 77.1308953, 29.2564176 ], [ 77.1312493, 29.2556501 ], [ 77.1315765, 29.2544613 ], [ 77.1318447, 29.2528934 ], [ 77.1319789, 29.2525471 ], [ 77.1321666, 29.2522476 ], [ 77.1326789, 29.2516625 ], [ 77.1329069, 29.2514519 ], [ 77.1331054, 29.2512974 ], [ 77.1334058, 29.2510658 ], [ 77.1335909, 29.2508528 ], [ 77.1337679, 29.2505743 ], [ 77.1340603, 29.250015 ], [ 77.1343178, 29.2495563 ], [ 77.1344197, 29.2491772 ], [ 77.1344089, 29.2484003 ], [ 77.1337438, 29.2463221 ], [ 77.1334004, 29.2454 ], [ 77.1332744, 29.2445224 ], [ 77.133269, 29.2442907 ], [ 77.1332878, 29.2440964 ], [ 77.1332985, 29.2438179 ], [ 77.1332851, 29.2436635 ], [ 77.1332449, 29.2435464 ], [ 77.1331094, 29.2433452 ], [ 77.133045, 29.2432726 ], [ 77.1329699, 29.243172 ], [ 77.132691, 29.2425167 ], [ 77.1326213, 29.2424125 ], [ 77.1325301, 29.2423259 ], [ 77.1318769, 29.2415805 ], [ 77.1313003, 29.2410024 ], [ 77.1309382, 29.2406022 ], [ 77.1306324, 29.2402933 ], [ 77.130509, 29.2401669 ], [ 77.1304125, 29.2399937 ], [ 77.1303695, 29.2398346 ], [ 77.1302837, 29.2393243 ], [ 77.1302059, 29.2391394 ], [ 77.1300879, 29.2389803 ], [ 77.1298599, 29.2387486 ], [ 77.129522, 29.2384677 ], [ 77.1292645, 29.238243 ], [ 77.1291652, 29.2381143 ], [ 77.1290982, 29.2379809 ], [ 77.1290177, 29.2375034 ], [ 77.1289962, 29.2357995 ], [ 77.1288997, 29.2346293 ], [ 77.128787, 29.2337305 ], [ 77.1287763, 29.2333817 ], [ 77.1287897, 29.23326 ], [ 77.1288514, 29.2330482 ], [ 77.1289064, 29.2329043 ], [ 77.128948, 29.2327591 ], [ 77.1289761, 29.2326257 ], [ 77.1291813, 29.2319703 ], [ 77.1292591, 29.2314109 ], [ 77.129361, 29.2311347 ], [ 77.1294495, 29.2309405 ], [ 77.1295971, 29.2307275 ], [ 77.1297231, 29.2306608 ], [ 77.1298546, 29.2306619 ], [ 77.1299618, 29.230697 ], [ 77.1300678, 29.2306888 ], [ 77.1301442, 29.2306362 ], [ 77.1302247, 29.2303968 ], [ 77.1304178, 29.2298989 ], [ 77.1307772, 29.2293722 ], [ 77.1321526, 29.2277719 ], [ 77.1336257, 29.2257722 ], [ 77.1339798, 29.2252198 ], [ 77.13413, 29.2249857 ], [ 77.1342158, 29.2247095 ], [ 77.1346825, 29.2229024 ], [ 77.1349347, 29.2222235 ], [ 77.1350902, 29.2219098 ], [ 77.1352887, 29.2216266 ], [ 77.1356535, 29.2212123 ], [ 77.1360826, 29.2206458 ], [ 77.1373164, 29.2197563 ], [ 77.1377269, 29.2194215 ], [ 77.1380031, 29.2188854 ], [ 77.138384, 29.2184032 ], [ 77.1389526, 29.2179724 ], [ 77.140106, 29.2170969 ], [ 77.1436518, 29.2143579 ], [ 77.1442044, 29.2136275 ], [ 77.1445262, 29.2131125 ], [ 77.1447301, 29.2124476 ], [ 77.1450734, 29.2101815 ], [ 77.1458566, 29.2086644 ], [ 77.1457923, 29.2073252 ], [ 77.1454275, 29.2053212 ], [ 77.1458673, 29.2014113 ], [ 77.1457761, 29.197253 ], [ 77.1460049, 29.1976574 ], [ 77.1484655, 29.1984175 ] ] ] } },
{ "type": "Feature", "properties": { "element": "way", "id": 649762931, "addr:district": null, "addr:full": null, "addr:postcode": null, "addr:state": null, "amenity": null, "name": null, "source": null, "addr:block": null, "addr:subdistrict": null, "description": null, "alt_name": null, "int_name": null, "old_name": null, "natural": "water", "water": "river", "source:position": null, "source:tracer": null, "source:zoomlevel": null, "landuse": null, "man_made": null, "intermittent": null, "type": null }, "geometry": { "type": "Polygon", "coordinates": [ [ [ 77.1709522, 29.0235463 ], [ 77.1672124, 29.0251549 ], [ 77.1665633, 29.0255911 ], [ 77.1662468, 29.0259476 ], [ 77.1660644, 29.0262713 ], [ 77.1657693, 29.0269326 ], [ 77.1654797, 29.0277441 ], [ 77.1652651, 29.028518 ], [ 77.1651256, 29.0292029 ], [ 77.1651792, 29.0300096 ], [ 77.1654904, 29.0312385 ], [ 77.1659303, 29.0319046 ], [ 77.1678078, 29.0347281 ], [ 77.1696424, 29.0382551 ], [ 77.1705329, 29.0399764 ], [ 77.1708602, 29.0408862 ], [ 77.171005, 29.0411629 ], [ 77.1713269, 29.0416085 ], [ 77.1714234, 29.0419039 ], [ 77.1714985, 29.0422182 ], [ 77.17152, 29.0429263 ], [ 77.1716809, 29.0445303 ], [ 77.1718499, 29.0465562 ], [ 77.1718472, 29.0470276 ], [ 77.1717909, 29.0474543 ], [ 77.1715173, 29.0479608 ], [ 77.1709889, 29.0485447 ], [ 77.1702325, 29.0495858 ], [ 77.1694064, 29.0514569 ], [ 77.1691918, 29.0519352 ], [ 77.1689022, 29.052723 ], [ 77.1685374, 29.0540689 ], [ 77.1678185, 29.0563667 ], [ 77.1672231, 29.0578203 ], [ 77.1663433, 29.059846 ], [ 77.165949, 29.0606807 ], [ 77.1657398, 29.0610675 ], [ 77.1656728, 29.0612387 ], [ 77.1656755, 29.0613864 ], [ 77.1657023, 29.061506 ], [ 77.1658766, 29.0618436 ], [ 77.1659785, 29.0621765 ], [ 77.1660376, 29.0624344 ], [ 77.1660215, 29.0627673 ], [ 77.165485, 29.0644225 ], [ 77.1651524, 29.065576 ], [ 77.1651149, 29.0658854 ], [ 77.1651202, 29.0661832 ], [ 77.1651685, 29.0667529 ], [ 77.1651632, 29.0669451 ], [ 77.1650612, 29.0672546 ], [ 77.1647125, 29.0679813 ], [ 77.1646374, 29.0682486 ], [ 77.1646482, 29.0684221 ], [ 77.1647716, 29.0696083 ], [ 77.1647555, 29.0705976 ], [ 77.1646696, 29.071179 ], [ 77.1645141, 29.0717838 ], [ 77.1639776, 29.0726746 ], [ 77.1633446, 29.0737952 ], [ 77.1628833, 29.0742781 ], [ 77.1612739, 29.0760409 ], [ 77.1599436, 29.0775975 ], [ 77.1578622, 29.0792665 ], [ 77.1564782, 29.0803073 ], [ 77.1539998, 29.0816012 ], [ 77.1514034, 29.0828107 ], [ 77.150647, 29.0829842 ], [ 77.1502072, 29.0830451 ], [ 77.1498156, 29.0830076 ], [ 77.1489894, 29.0829045 ], [ 77.1486568, 29.0829045 ], [ 77.1482331, 29.0829701 ], [ 77.1470153, 29.0834014 ], [ 77.1454489, 29.084114 ], [ 77.144537, 29.084625 ], [ 77.1439308, 29.0851219 ], [ 77.1427989, 29.0866642 ], [ 77.1426165, 29.086908 ], [ 77.1411627, 29.0862845 ], [ 77.1402722, 29.085947 ], [ 77.1406639, 29.0853422 ], [ 77.1452987, 29.080898 ], [ 77.1526855, 29.0735373 ], [ 77.1545255, 29.0713337 ], [ 77.156285, 29.069041 ], [ 77.157653, 29.0676719 ], [ 77.1584898, 29.0666403 ], [ 77.1592355, 29.0658854 ], [ 77.1595037, 29.0655291 ], [ 77.1597397, 29.0651821 ], [ 77.1601045, 29.06446 ], [ 77.1603459, 29.0637614 ], [ 77.1607643, 29.0627767 ], [ 77.1621859, 29.0601227 ], [ 77.1626472, 29.0589504 ], [ 77.1628833, 29.058458 ], [ 77.1632373, 29.0579375 ], [ 77.1635324, 29.0576609 ], [ 77.1638972, 29.0574124 ], [ 77.164278, 29.0570325 ], [ 77.1656728, 29.0553163 ], [ 77.1670954, 29.0521901 ], [ 77.1672606, 29.0515647 ], [ 77.1673894, 29.0509739 ], [ 77.1675718, 29.0493466 ], [ 77.1676147, 29.0477287 ], [ 77.1678829, 29.0451868 ], [ 77.1675181, 29.0426731 ], [ 77.166928, 29.0401499 ], [ 77.166338, 29.0384334 ], [ 77.1657103, 29.0373406 ], [ 77.1650451, 29.0361305 ], [ 77.1644604, 29.0349814 ], [ 77.1640849, 29.0340433 ], [ 77.1632695, 29.0321954 ], [ 77.1621644, 29.0303192 ], [ 77.1611828, 29.0283867 ], [ 77.1609199, 29.0278379 ], [ 77.1608394, 29.0275002 ], [ 77.1608502, 29.0272704 ], [ 77.1609521, 29.0270358 ], [ 77.1611184, 29.0266887 ], [ 77.1614242, 29.0263088 ], [ 77.1619177, 29.0259148 ], [ 77.1626419, 29.0255114 ], [ 77.1636504, 29.0249016 ], [ 77.1657962, 29.0235037 ], [ 77.1687305, 29.0215476 ], [ 77.1694279, 29.0222419 ], [ 77.1709522, 29.0235463 ] ] ] } },
{ "type": "Feature", "properties": { "element": "way", "id": 991229789, "addr:district": null, "addr:full": null, "addr:postcode": null, "addr:state": null, "amenity": null, "name": null, "source": null, "addr:block": null, "addr:subdistrict": null, "description": null, "alt_name": null, "int_name": null, "old_name": null, "natural": "water", "water": "river", "source:position": null, "source:tracer": null, "source:zoomlevel": null, "landuse": null, "man_made": null, "intermittent": null, "type": null }, "geometry": { "type": "Polygon", "coordinates": [ [ [ 77.4077153, 28.7827243 ], [ 77.4078441, 28.7824281 ], [ 77.4080104, 28.7818122 ], [ 77.4081391, 28.7814642 ], [ 77.4081981, 28.7813702 ], [ 77.4083108, 28.7812151 ], [ 77.4084127, 28.7810975 ], [ 77.4085629, 28.78098 ], [ 77.4088472, 28.7811633 ], [ 77.4086809, 28.7815583 ], [ 77.4085361, 28.7823905 ], [ 77.4078226, 28.784069 ], [ 77.4058914, 28.7883097 ], [ 77.4050867, 28.7904817 ], [ 77.4047327, 28.7912151 ], [ 77.404443, 28.7914925 ], [ 77.404089, 28.7916477 ], [ 77.4032789, 28.791737 ], [ 77.4029303, 28.7918216 ], [ 77.4027264, 28.7919062 ], [ 77.4024528, 28.7922165 ], [ 77.402088, 28.7928089 ], [ 77.4020076, 28.7933589 ], [ 77.4020344, 28.7937256 ], [ 77.4021417, 28.79405 ], [ 77.4023724, 28.7944214 ], [ 77.4024796, 28.7949996 ], [ 77.4024367, 28.7956013 ], [ 77.402029, 28.7964193 ], [ 77.4018145, 28.7966168 ], [ 77.4016535, 28.7967343 ], [ 77.4015355, 28.7968048 ], [ 77.4010849, 28.7970069 ], [ 77.4002695, 28.7971527 ], [ 77.399717, 28.7971292 ], [ 77.3978341, 28.7969176 ], [ 77.3962247, 28.7964428 ], [ 77.3951679, 28.7959821 ], [ 77.3938054, 28.7951218 ], [ 77.3937678, 28.795103 ], [ 77.3936498, 28.7950607 ], [ 77.3935801, 28.795056 ], [ 77.3934567, 28.7950607 ], [ 77.3928934, 28.7951359 ], [ 77.3924214, 28.7953052 ], [ 77.3910749, 28.7964146 ], [ 77.3904526, 28.7968377 ], [ 77.3901844, 28.7973078 ], [ 77.3903131, 28.7978249 ], [ 77.3904955, 28.7980976 ], [ 77.3910642, 28.7984831 ], [ 77.3913753, 28.7986429 ], [ 77.3916113, 28.7987181 ], [ 77.39218, 28.7988215 ], [ 77.3924804, 28.7988403 ], [ 77.3942506, 28.7986523 ], [ 77.3955917, 28.7986429 ], [ 77.3962462, 28.7986711 ], [ 77.3966861, 28.7986993 ], [ 77.3983168, 28.7988873 ], [ 77.3992181, 28.7990754 ], [ 77.4017715, 28.7998369 ], [ 77.4034023, 28.8005891 ], [ 77.4049687, 28.8015574 ], [ 77.4065459, 28.8031463 ], [ 77.4070823, 28.8042745 ], [ 77.4076724, 28.8073393 ], [ 77.4081015, 28.8083734 ], [ 77.408638, 28.8090408 ], [ 77.4087453, 28.8092289 ], [ 77.4087882, 28.8093229 ], [ 77.409389, 28.8115039 ], [ 77.4099576, 28.8123405 ], [ 77.4101508, 28.8127259 ], [ 77.4101615, 28.812914 ], [ 77.4100971, 28.8131584 ], [ 77.4099255, 28.8132994 ], [ 77.4092603, 28.8135438 ], [ 77.4083912, 28.8137506 ], [ 77.4078548, 28.813525 ], [ 77.4076188, 28.8130268 ], [ 77.4072862, 28.8126977 ], [ 77.4069536, 28.8125943 ], [ 77.4064278, 28.8126225 ], [ 77.4056446, 28.812914 ], [ 77.4052369, 28.8133276 ], [ 77.4046469, 28.8140984 ], [ 77.4044859, 28.814653 ], [ 77.4045288, 28.8152359 ], [ 77.404679, 28.8157905 ], [ 77.4045825, 28.8163357 ], [ 77.4041963, 28.8168339 ], [ 77.4030161, 28.8178021 ], [ 77.403118, 28.8179525 ], [ 77.4032628, 28.8180794 ], [ 77.4033004, 28.8182345 ], [ 77.4033004, 28.8183097 ], [ 77.403295, 28.8183567 ], [ 77.4032736, 28.8184037 ], [ 77.4032414, 28.818446 ], [ 77.4031019, 28.818573 ], [ 77.4029517, 28.8186811 ], [ 77.4027586, 28.8187704 ], [ 77.4026567, 28.8188127 ], [ 77.4023884, 28.8188691 ], [ 77.4019539, 28.8189349 ], [ 77.4009561, 28.8189208 ], [ 77.3990947, 28.8187422 ], [ 77.3983973, 28.818714 ], [ 77.3977697, 28.8187986 ], [ 77.3971957, 28.8189866 ], [ 77.3966968, 28.8192357 ], [ 77.3961925, 28.8196023 ], [ 77.3960853, 28.8197057 ], [ 77.3960477, 28.8198232 ], [ 77.3960316, 28.8199313 ], [ 77.3960262, 28.8200253 ], [ 77.3960531, 28.8201193 ], [ 77.3960692, 28.8201522 ], [ 77.396155, 28.8202462 ], [ 77.39748, 28.8211203 ], [ 77.3981076, 28.8214117 ], [ 77.3999798, 28.8219005 ], [ 77.4013692, 28.8224316 ], [ 77.4022007, 28.8230379 ], [ 77.4043196, 28.8246875 ], [ 77.4050492, 28.8250729 ], [ 77.405532, 28.825228 ], [ 77.4057788, 28.8252186 ], [ 77.405988, 28.8252515 ], [ 77.4065351, 28.8255993 ], [ 77.4075007, 28.826605 ], [ 77.4078548, 28.8273429 ], [ 77.4086755, 28.8283439 ], [ 77.4091262, 28.8292556 ], [ 77.4103975, 28.8312435 ], [ 77.4107677, 28.8325123 ], [ 77.411052, 28.8337295 ], [ 77.4116421, 28.8362013 ], [ 77.4120927, 28.8374795 ], [ 77.4129295, 28.8387577 ], [ 77.4130958, 28.8394766 ], [ 77.4130529, 28.8399606 ], [ 77.4128652, 28.8405574 ], [ 77.4123019, 28.8415959 ], [ 77.4119264, 28.8421927 ], [ 77.4115294, 28.8424746 ], [ 77.4112076, 28.8425545 ], [ 77.4106818, 28.8426579 ], [ 77.4104565, 28.8426814 ], [ 77.410242, 28.8426814 ], [ 77.4100542, 28.8426438 ], [ 77.4099201, 28.8426109 ], [ 77.4098289, 28.8425733 ], [ 77.4089223, 28.8420987 ], [ 77.4084556, 28.841812 ], [ 77.4080694, 28.8416194 ], [ 77.4076831, 28.8415207 ], [ 77.4072486, 28.8415677 ], [ 77.4071735, 28.8415865 ], [ 77.4066532, 28.8417416 ], [ 77.4064064, 28.8418684 ], [ 77.4060738, 28.8421034 ], [ 77.4058914, 28.8423101 ], [ 77.4057627, 28.8425122 ], [ 77.4056715, 28.8427612 ], [ 77.4056017, 28.8429962 ], [ 77.4055642, 28.8431982 ], [ 77.4055803, 28.8435741 ], [ 77.4058807, 28.8442978 ], [ 77.4062508, 28.8447066 ], [ 77.4069428, 28.8452235 ], [ 77.407726, 28.8455101 ], [ 77.4084717, 28.8455853 ], [ 77.4088687, 28.8455477 ], [ 77.4091262, 28.8454396 ], [ 77.4094266, 28.8452188 ], [ 77.410081, 28.8448053 ], [ 77.4102741, 28.8447019 ], [ 77.4105477, 28.8445985 ], [ 77.4109179, 28.8444951 ], [ 77.4120659, 28.8442179 ], [ 77.4131495, 28.8442085 ], [ 77.4140239, 28.8443072 ], [ 77.4149412, 28.8446361 ], [ 77.4156547, 28.8450543 ], [ 77.4160087, 28.845496 ], [ 77.4160248, 28.8459001 ], [ 77.4160355, 28.8459612 ], [ 77.4161428, 28.8462149 ], [ 77.4161482, 28.8463371 ], [ 77.4158961, 28.8467365 ], [ 77.4149573, 28.8475869 ], [ 77.4144906, 28.8481273 ], [ 77.414158, 28.8487992 ], [ 77.4140024, 28.8495322 ], [ 77.414158, 28.8505471 ], [ 77.4145389, 28.8520318 ], [ 77.4149358, 28.8529997 ], [ 77.4150002, 28.8531078 ], [ 77.4151075, 28.8532394 ], [ 77.4155796, 28.8535729 ], [ 77.4162072, 28.8545408 ], [ 77.4164379, 28.8552738 ], [ 77.416631, 28.8560678 ], [ 77.4166721, 28.8562287 ], [ 77.4168241, 28.8563086 ], [ 77.416808, 28.8563427 ], [ 77.4166846, 28.8563027 ], [ 77.4167732, 28.8565494 ], [ 77.4168107, 28.856688 ], [ 77.4167551, 28.8568156 ], [ 77.4167612, 28.8569949 ], [ 77.4167412, 28.8573675 ], [ 77.4168353, 28.8575537 ], [ 77.4167231, 28.8581094 ], [ 77.4161106, 28.8592673 ], [ 77.4159551, 28.8595445 ], [ 77.4159175, 28.8597042 ], [ 77.4159497, 28.8599439 ], [ 77.4159658, 28.8600002 ], [ 77.4161214, 28.8604325 ], [ 77.4162716, 28.8606862 ], [ 77.4162823, 28.8607284 ], [ 77.416293, 28.8609352 ], [ 77.4162877, 28.8609727 ], [ 77.4162608, 28.8610714 ], [ 77.4162447, 28.8611043 ], [ 77.4158424, 28.8615083 ], [ 77.4156171, 28.8616587 ], [ 77.4153757, 28.8617855 ], [ 77.4152362, 28.8618466 ], [ 77.415086, 28.8618983 ], [ 77.4149251, 28.8619406 ], [ 77.4146944, 28.8619828 ], [ 77.4146408, 28.8619875 ], [ 77.4144691, 28.8619875 ], [ 77.4121088, 28.8614848 ], [ 77.4119747, 28.8614614 ], [ 77.411862, 28.8614473 ], [ 77.4112612, 28.8614379 ], [ 77.4093568, 28.8616352 ], [ 77.4068731, 28.8620251 ], [ 77.4047327, 28.8624855 ], [ 77.4041158, 28.8625748 ], [ 77.403354, 28.862509 ], [ 77.4030054, 28.8624386 ], [ 77.4028712, 28.8623822 ], [ 77.4026781, 28.8623963 ], [ 77.4026191, 28.8624433 ], [ 77.4023992, 28.8627298 ], [ 77.4018681, 28.8638104 ], [ 77.4016321, 28.8649661 ], [ 77.4014389, 28.8657365 ], [ 77.4014497, 28.8666291 ], [ 77.4015945, 28.867362 ], [ 77.4020988, 28.86817 ], [ 77.4030161, 28.8692364 ], [ 77.4038958, 28.8703921 ], [ 77.4041963, 28.8710685 ], [ 77.4037886, 28.8713128 ], [ 77.4035311, 28.8707491 ], [ 77.4029088, 28.8697814 ], [ 77.4017286, 28.8684096 ], [ 77.4013424, 28.8678177 ], [ 77.4010956, 28.8669909 ], [ 77.4010205, 28.866615 ], [ 77.4009991, 28.8663895 ], [ 77.4009991, 28.8660607 ], [ 77.4010205, 28.8658258 ], [ 77.4010312, 28.86576 ], [ 77.4011063, 28.865309 ], [ 77.4011814, 28.8649614 ], [ 77.4016321, 28.863007 ], [ 77.4018788, 28.862556 ], [ 77.4022007, 28.8621896 ], [ 77.4022865, 28.8621238 ], [ 77.4023831, 28.8620956 ], [ 77.4024582, 28.8620862 ], [ 77.4026942, 28.8620768 ], [ 77.4036169, 28.8621332 ], [ 77.4047327, 28.862058 ], [ 77.4084663, 28.8612593 ], [ 77.4095285, 28.861062 ], [ 77.4098933, 28.8610338 ], [ 77.4101293, 28.8610338 ], [ 77.4116957, 28.8611278 ], [ 77.4131656, 28.8613627 ], [ 77.4143028, 28.8613627 ], [ 77.4144423, 28.8613533 ], [ 77.4147856, 28.8612593 ], [ 77.4151289, 28.8610714 ], [ 77.415365, 28.8608647 ], [ 77.4156439, 28.8605734 ], [ 77.4156868, 28.8604325 ], [ 77.4156761, 28.8602633 ], [ 77.4156654, 28.8602398 ], [ 77.4154937, 28.8600237 ], [ 77.415483, 28.8600002 ], [ 77.4154401, 28.8598875 ], [ 77.4154293, 28.859662 ], [ 77.4155045, 28.8594552 ], [ 77.4155474, 28.8594083 ], [ 77.4159014, 28.8582713 ], [ 77.4160302, 28.8573035 ], [ 77.4161804, 28.856796 ], [ 77.4161804, 28.8565235 ], [ 77.4161482, 28.8562792 ], [ 77.4159336, 28.8550389 ], [ 77.415601, 28.8543435 ], [ 77.4147963, 28.8533944 ], [ 77.4145067, 28.8530937 ], [ 77.4141097, 28.8525581 ], [ 77.4140775, 28.8524923 ], [ 77.4138737, 28.8519661 ], [ 77.4137556, 28.8515902 ], [ 77.4136913, 28.8513177 ], [ 77.4136376, 28.8510264 ], [ 77.4136054, 28.8507538 ], [ 77.413584, 28.8504813 ], [ 77.4135733, 28.8502088 ], [ 77.4135733, 28.849363 ], [ 77.4136484, 28.8489026 ], [ 77.413702, 28.8487616 ], [ 77.4140239, 28.8480944 ], [ 77.414217, 28.8477937 ], [ 77.4148822, 28.8472486 ], [ 77.4153113, 28.8468163 ], [ 77.4155152, 28.8463841 ], [ 77.4156225, 28.8460927 ], [ 77.4156225, 28.8457826 ], [ 77.4155366, 28.8455289 ], [ 77.4152899, 28.8452094 ], [ 77.4146569, 28.8448428 ], [ 77.4137503, 28.8446502 ], [ 77.4125004, 28.8445703 ], [ 77.4117655, 28.8446596 ], [ 77.4106121, 28.8450543 ], [ 77.409904, 28.845496 ], [ 77.4093461, 28.8458343 ], [ 77.4090242, 28.8460035 ], [ 77.4089062, 28.846041 ], [ 77.4085361, 28.8460974 ], [ 77.4083161, 28.8461209 ], [ 77.4080694, 28.8461209 ], [ 77.4080211, 28.8461162 ], [ 77.4078602, 28.8460927 ], [ 77.407667, 28.846041 ], [ 77.4074042, 28.8459048 ], [ 77.4064493, 28.8452892 ], [ 77.4057788, 28.8447912 ], [ 77.4055374, 28.8444575 ], [ 77.4054515, 28.8443072 ], [ 77.4053496, 28.844091 ], [ 77.4053174, 28.8439876 ], [ 77.4052799, 28.8438185 ], [ 77.405253, 28.8436258 ], [ 77.4052423, 28.8434661 ], [ 77.4052423, 28.843311 ], [ 77.4052584, 28.8431653 ], [ 77.4053603, 28.8426391 ], [ 77.4054033, 28.842484 ], [ 77.4054462, 28.8423571 ], [ 77.4056339, 28.8420376 ], [ 77.4057627, 28.8419154 ], [ 77.4057895, 28.8417698 ], [ 77.4058056, 28.8417463 ], [ 77.4058646, 28.8416805 ], [ 77.4060631, 28.8415207 ], [ 77.4061167, 28.8414878 ], [ 77.4063367, 28.8413797 ], [ 77.4064869, 28.8413327 ], [ 77.4066693, 28.8412952 ], [ 77.407093, 28.8412294 ], [ 77.4073237, 28.8412012 ], [ 77.407667, 28.8411871 ], [ 77.4082142, 28.8412952 ], [ 77.408815, 28.841657 ], [ 77.4092978, 28.8418073 ], [ 77.4094588, 28.8418355 ], [ 77.4096626, 28.841859 ], [ 77.4100059, 28.8418872 ], [ 77.4102312, 28.8418872 ], [ 77.4106443, 28.8418731 ], [ 77.4107623, 28.841859 ], [ 77.4109501, 28.8418261 ], [ 77.4109983, 28.8418167 ], [ 77.411229, 28.841751 ], [ 77.4113578, 28.8416993 ], [ 77.4119747, 28.841267 ], [ 77.4122912, 28.8408487 ], [ 77.4125218, 28.8402943 ], [ 77.4126345, 28.8396834 ], [ 77.4126399, 28.8392793 ], [ 77.4126345, 28.8392464 ], [ 77.4124843, 28.8387295 ], [ 77.4112505, 28.8373009 ], [ 77.4109393, 28.836878 ], [ 77.4106497, 28.8362859 ], [ 77.4106282, 28.8362201 ], [ 77.4103707, 28.8352286 ], [ 77.4103063, 28.8347821 ], [ 77.4103332, 28.8344297 ], [ 77.4103385, 28.8344015 ], [ 77.4104887, 28.8339879 ], [ 77.4105155, 28.8336355 ], [ 77.4105048, 28.8335509 ], [ 77.4104565, 28.8333018 ], [ 77.4103385, 28.8330152 ], [ 77.4103063, 28.8329024 ], [ 77.4102527, 28.8326721 ], [ 77.41014, 28.8321505 ], [ 77.4101186, 28.8317228 ], [ 77.4100757, 28.8316006 ], [ 77.4099147, 28.8313093 ], [ 77.4089491, 28.8297584 ], [ 77.407372, 28.8278363 ], [ 77.4070126, 28.8274744 ], [ 77.4069053, 28.827371 ], [ 77.4067604, 28.827263 ], [ 77.4062455, 28.8269669 ], [ 77.4055427, 28.8264828 ], [ 77.4044162, 28.8254771 ], [ 77.4026942, 28.8240155 ], [ 77.4015087, 28.8230755 ], [ 77.4007416, 28.822629 ], [ 77.3993576, 28.8220979 ], [ 77.3975176, 28.8216843 ], [ 77.3969167, 28.8214869 ], [ 77.39667, 28.82136 ], [ 77.3959082, 28.8208571 ], [ 77.3957205, 28.8206973 ], [ 77.3955917, 28.8205798 ], [ 77.3955381, 28.8204999 ], [ 77.3954523, 28.8202931 ], [ 77.3954254, 28.8201475 ], [ 77.3954254, 28.8200629 ], [ 77.3954362, 28.8199689 ], [ 77.3955166, 28.8197715 ], [ 77.3956025, 28.8196117 ], [ 77.3959672, 28.8191041 ], [ 77.3961443, 28.8188973 ], [ 77.3961925, 28.8188456 ], [ 77.3965359, 28.8186153 ], [ 77.3966861, 28.8185353 ], [ 77.3968631, 28.8184695 ], [ 77.3969382, 28.8184648 ], [ 77.3975712, 28.8184789 ], [ 77.3980057, 28.8184319 ], [ 77.3986441, 28.818446 ], [ 77.3990625, 28.8183614 ], [ 77.3997706, 28.8182721 ], [ 77.4006772, 28.8180935 ], [ 77.4016964, 28.8178021 ], [ 77.4022543, 28.8176752 ], [ 77.4031019, 28.8173368 ], [ 77.4035364, 28.8169561 ], [ 77.4037242, 28.8167446 ], [ 77.4042284, 28.815908 ], [ 77.4042553, 28.8156918 ], [ 77.4041051, 28.8152735 ], [ 77.4040621, 28.8149633 ], [ 77.4040568, 28.8145496 ], [ 77.404207, 28.8138258 ], [ 77.4044806, 28.8133793 ], [ 77.4053979, 28.8125708 ], [ 77.4058592, 28.812364 ], [ 77.4064654, 28.8122136 ], [ 77.4069107, 28.8121478 ], [ 77.4069375, 28.8121478 ], [ 77.4072754, 28.8121995 ], [ 77.4076402, 28.8123123 ], [ 77.4076831, 28.8123499 ], [ 77.4076992, 28.8123734 ], [ 77.4076885, 28.8125379 ], [ 77.4077207, 28.8127353 ], [ 77.4078119, 28.812834 ], [ 77.4080694, 28.8130127 ], [ 77.4082303, 28.8132195 ], [ 77.4082732, 28.8132665 ], [ 77.4083698, 28.813337 ], [ 77.4084717, 28.8133699 ], [ 77.4086702, 28.8133746 ], [ 77.4087506, 28.8133746 ], [ 77.4093461, 28.8132148 ], [ 77.409566, 28.8130785 ], [ 77.4096626, 28.813008 ], [ 77.4097806, 28.8128575 ], [ 77.409786, 28.8126554 ], [ 77.4097377, 28.8125708 ], [ 77.4097001, 28.8125332 ], [ 77.4093944, 28.8122794 ], [ 77.4092442, 28.8120773 ], [ 77.4088848, 28.8114663 ], [ 77.4084824, 28.8104228 ], [ 77.4078387, 28.809478 ], [ 77.4067765, 28.8056376 ], [ 77.4067658, 28.8054026 ], [ 77.4067551, 28.8053556 ], [ 77.4065781, 28.804768 ], [ 77.4064064, 28.8042227 ], [ 77.4058968, 28.8031087 ], [ 77.4054515, 28.8024882 ], [ 77.4046361, 28.8017267 ], [ 77.4028552, 28.8007066 ], [ 77.4006611, 28.7998886 ], [ 77.3978341, 28.7993574 ], [ 77.3940307, 28.7991788 ], [ 77.3920137, 28.7992305 ], [ 77.3918635, 28.7992258 ], [ 77.3917401, 28.7992211 ], [ 77.3913109, 28.7991788 ], [ 77.3912036, 28.7991647 ], [ 77.3909622, 28.7991083 ], [ 77.3909032, 28.7990895 ], [ 77.3907638, 28.7990331 ], [ 77.3906511, 28.7989437 ], [ 77.3904633, 28.7985066 ], [ 77.3903614, 28.7983749 ], [ 77.3901898, 28.7982104 ], [ 77.3900342, 28.7981211 ], [ 77.3898464, 28.7979095 ], [ 77.389766, 28.7976698 ], [ 77.3897445, 28.7974817 ], [ 77.3897713, 28.7973407 ], [ 77.3898196, 28.7971903 ], [ 77.3898786, 28.7970869 ], [ 77.389943, 28.7970022 ], [ 77.3914879, 28.7955943 ], [ 77.392062, 28.7951923 ], [ 77.3923275, 28.7950325 ], [ 77.3925447, 28.7948398 ], [ 77.39299, 28.7947363 ], [ 77.3934138, 28.7947316 ], [ 77.3938, 28.7948021 ], [ 77.3945188, 28.7952394 ], [ 77.3961228, 28.7957706 ], [ 77.3993522, 28.7966638 ], [ 77.4003071, 28.796645 ], [ 77.4008918, 28.7965274 ], [ 77.4013156, 28.7963535 ], [ 77.4018413, 28.7959915 ], [ 77.4020827, 28.7956483 ], [ 77.4021953, 28.7952064 ], [ 77.402131, 28.7947692 ], [ 77.4017554, 28.7941299 ], [ 77.4015945, 28.7936128 ], [ 77.401557, 28.793011 ], [ 77.4016213, 28.7927901 ], [ 77.402088, 28.792052 ], [ 77.4027961, 28.7914549 ], [ 77.4030751, 28.791281 ], [ 77.4032736, 28.7912575 ], [ 77.4035793, 28.7913092 ], [ 77.4040085, 28.7913139 ], [ 77.4043304, 28.7910553 ], [ 77.4045342, 28.790698 ], [ 77.4052691, 28.7883896 ], [ 77.4057144, 28.7872613 ], [ 77.4061328, 28.7861564 ], [ 77.4068302, 28.7851879 ], [ 77.4070394, 28.7847178 ], [ 77.407313, 28.7838809 ], [ 77.4077153, 28.7827243 ] ] ] } },
{ "type": "Feature", "properties": { "element": "way", "id": 1015257573, "addr:district": null, "addr:full": null, "addr:postcode": null, "addr:state": null, "amenity": null, "name": null, "source": null, "addr:block": null, "addr:subdistrict": null, "description": null, "alt_name": null, "int_name": null, "old_name": null, "natural": "water", "water": "river", "source:position": null, "source:tracer": null, "source:zoomlevel": null, "landuse": null, "man_made": null, "intermittent": null, "type": null }, "geometry": { "type": "Polygon", "coordinates": [ [ [ 77.431013, 29.101812 ], [ 77.4309647, 29.1016784 ], [ 77.4307904, 29.1018542 ], [ 77.4303773, 29.1021425 ], [ 77.4298087, 29.102405 ], [ 77.4292803, 29.1027237 ], [ 77.4289879, 29.1028573 ], [ 77.428658, 29.103026 ], [ 77.4282771, 29.1033939 ], [ 77.4282047, 29.1034174 ], [ 77.4281108, 29.1033986 ], [ 77.4280626, 29.1033494 ], [ 77.4279955, 29.1032486 ], [ 77.4279365, 29.1031221 ], [ 77.4279043, 29.1023745 ], [ 77.4278104, 29.1019175 ], [ 77.4277782, 29.101662 ], [ 77.4276683, 29.1012988 ], [ 77.4275288, 29.1010808 ], [ 77.4275127, 29.1010246 ], [ 77.427502, 29.1008816 ], [ 77.4275288, 29.1005769 ], [ 77.4275047, 29.1003355 ], [ 77.427282, 29.099527 ], [ 77.4271855, 29.0993536 ], [ 77.4269843, 29.0991754 ], [ 77.4268529, 29.0991004 ], [ 77.4267617, 29.0990301 ], [ 77.426759, 29.0989833 ], [ 77.4267939, 29.098934 ], [ 77.4267966, 29.0988919 ], [ 77.4267241, 29.0988098 ], [ 77.4267697, 29.098613 ], [ 77.4267644, 29.0985052 ], [ 77.4267402, 29.0984114 ], [ 77.4265471, 29.0981817 ], [ 77.4263164, 29.0980692 ], [ 77.4261662, 29.0980341 ], [ 77.4260187, 29.0980224 ], [ 77.4257183, 29.0980247 ], [ 77.4250638, 29.0981114 ], [ 77.424852, 29.0981138 ], [ 77.4247152, 29.0981044 ], [ 77.4243638, 29.0980083 ], [ 77.4242994, 29.0980013 ], [ 77.4240983, 29.0980083 ], [ 77.4239856, 29.0980177 ], [ 77.4238381, 29.0980809 ], [ 77.4237281, 29.0981489 ], [ 77.4236637, 29.0982192 ], [ 77.4236235, 29.0983036 ], [ 77.4235967, 29.0985778 ], [ 77.4235618, 29.0987114 ], [ 77.4235618, 29.0987864 ], [ 77.4235752, 29.098859 ], [ 77.4237925, 29.0994262 ], [ 77.4241519, 29.1000215 ], [ 77.4252757, 29.1012941 ], [ 77.4253857, 29.1017628 ], [ 77.4254823, 29.1022479 ], [ 77.4256861, 29.1027705 ], [ 77.4257666, 29.1027752 ], [ 77.4257907, 29.102794 ], [ 77.4259865, 29.1031783 ], [ 77.4261448, 29.1036166 ], [ 77.4262279, 29.1040314 ], [ 77.4262869, 29.1041345 ], [ 77.4262977, 29.1042095 ], [ 77.4262923, 29.104329 ], [ 77.4262547, 29.1044743 ], [ 77.4261662, 29.1046524 ], [ 77.4257666, 29.105175 ], [ 77.4255627, 29.1054773 ], [ 77.4253723, 29.1058781 ], [ 77.425265, 29.1062624 ], [ 77.4251309, 29.1065319 ], [ 77.4248841, 29.1067335 ], [ 77.4244979, 29.1068834 ], [ 77.4240205, 29.1069889 ], [ 77.4235108, 29.107085 ], [ 77.4231648, 29.1071811 ], [ 77.422387, 29.1073732 ], [ 77.4218532, 29.1074435 ], [ 77.4217084, 29.1074388 ], [ 77.4211559, 29.1075115 ], [ 77.4207535, 29.1076896 ], [ 77.4206918, 29.1077083 ], [ 77.4195197, 29.1078138 ], [ 77.4190557, 29.1078724 ], [ 77.4188331, 29.1079193 ], [ 77.4186856, 29.1079989 ], [ 77.4184683, 29.1082286 ], [ 77.4182886, 29.1083481 ], [ 77.4180445, 29.108545 ], [ 77.4179989, 29.1085965 ], [ 77.4179694, 29.1087676 ], [ 77.4182081, 29.1095245 ], [ 77.4183932, 29.110026 ], [ 77.4188706, 29.1108743 ], [ 77.4191737, 29.111493 ], [ 77.4195868, 29.1121608 ], [ 77.4199328, 29.1125498 ], [ 77.4204531, 29.1130513 ], [ 77.4205416, 29.1131005 ], [ 77.4206382, 29.1131333 ], [ 77.4206382, 29.113145 ], [ 77.4205068, 29.1133114 ], [ 77.4202895, 29.1134942 ], [ 77.4201474, 29.1136395 ], [ 77.4200535, 29.113759 ], [ 77.4199274, 29.1139676 ], [ 77.4198684, 29.1140261 ], [ 77.4193642, 29.1143284 ], [ 77.4190906, 29.1144737 ], [ 77.4189162, 29.1146143 ], [ 77.4187446, 29.1147151 ], [ 77.4186614, 29.1147807 ], [ 77.4183074, 29.1149799 ], [ 77.4179131, 29.1151017 ], [ 77.4177334, 29.115247 ], [ 77.4171218, 29.1159476 ], [ 77.4167436, 29.1166131 ], [ 77.4161831, 29.1178316 ], [ 77.4156842, 29.1190313 ], [ 77.4151826, 29.1197343 ], [ 77.4146864, 29.1203037 ], [ 77.414276, 29.1207044 ], [ 77.4133936, 29.1214261 ], [ 77.412715, 29.1218268 ], [ 77.4124467, 29.1219041 ], [ 77.4122938, 29.1219181 ], [ 77.4122268, 29.12189 ], [ 77.4120364, 29.1216768 ], [ 77.4118566, 29.1215081 ], [ 77.411693, 29.1213019 ], [ 77.4113819, 29.1206575 ], [ 77.4112585, 29.1202615 ], [ 77.4111432, 29.1200108 ], [ 77.4110842, 29.1197484 ], [ 77.4110386, 29.1196406 ], [ 77.4109393, 29.1194953 ], [ 77.4108615, 29.1194109 ], [ 77.4107274, 29.1192282 ], [ 77.4106094, 29.1190524 ], [ 77.4104914, 29.1189189 ], [ 77.4103412, 29.1187853 ], [ 77.410183, 29.1186025 ], [ 77.4099228, 29.1184245 ], [ 77.4097431, 29.1183237 ], [ 77.4096143, 29.1185299 ], [ 77.4103546, 29.119097 ], [ 77.4106765, 29.1195679 ], [ 77.4108642, 29.1200483 ], [ 77.4113068, 29.1210184 ], [ 77.4116018, 29.1218057 ], [ 77.4116287, 29.1218408 ], [ 77.4116984, 29.1219134 ], [ 77.4118969, 29.1220798 ], [ 77.41198, 29.1221103 ], [ 77.4121758, 29.1221126 ], [ 77.4124387, 29.1220728 ], [ 77.4127391, 29.1219861 ], [ 77.4128249, 29.121972 ], [ 77.4130234, 29.1218244 ], [ 77.413871, 29.121398 ], [ 77.414453, 29.1209059 ], [ 77.4155983, 29.1195984 ], [ 77.4157432, 29.1194766 ], [ 77.4158236, 29.1193688 ], [ 77.4158746, 29.1192586 ], [ 77.4158987, 29.1192024 ], [ 77.4159497, 29.1190032 ], [ 77.4160033, 29.1188931 ], [ 77.4161831, 29.1185885 ], [ 77.4162394, 29.1184338 ], [ 77.4162769, 29.1182511 ], [ 77.4169368, 29.1168193 ], [ 77.4173981, 29.116032 ], [ 77.4179828, 29.1153946 ], [ 77.4182054, 29.1152142 ], [ 77.4191952, 29.1147526 ], [ 77.419686, 29.1145487 ], [ 77.4207455, 29.1140613 ], [ 77.4210915, 29.1138059 ], [ 77.4214241, 29.1134872 ], [ 77.4214536, 29.1133559 ], [ 77.4214536, 29.1132763 ], [ 77.4214321, 29.1131825 ], [ 77.4213892, 29.1131122 ], [ 77.4213222, 29.1130747 ], [ 77.4212578, 29.1130583 ], [ 77.4209306, 29.1130607 ], [ 77.4208876, 29.113049 ], [ 77.4205926, 29.1128357 ], [ 77.4202278, 29.1124514 ], [ 77.4199596, 29.1120109 ], [ 77.4199006, 29.1117882 ], [ 77.4198952, 29.1116359 ], [ 77.419863, 29.1115492 ], [ 77.4197826, 29.1114227 ], [ 77.4196672, 29.1112985 ], [ 77.4195814, 29.1112258 ], [ 77.4194822, 29.111193 ], [ 77.4194232, 29.1111907 ], [ 77.4193051, 29.1112211 ], [ 77.4192756, 29.1111954 ], [ 77.4190557, 29.1106751 ], [ 77.4188223, 29.1103822 ], [ 77.4187258, 29.1101408 ], [ 77.4185327, 29.1095245 ], [ 77.4184173, 29.1091097 ], [ 77.4184173, 29.1090301 ], [ 77.4183878, 29.1089574 ], [ 77.4183583, 29.1089176 ], [ 77.4182135, 29.1088191 ], [ 77.4181893, 29.108777 ], [ 77.4182001, 29.1086856 ], [ 77.418302, 29.1085286 ], [ 77.4184442, 29.1083739 ], [ 77.4186373, 29.1082192 ], [ 77.418935, 29.1080317 ], [ 77.4191067, 29.108013 ], [ 77.4193937, 29.1080271 ], [ 77.4207401, 29.1078818 ], [ 77.4208528, 29.1078536 ], [ 77.4210137, 29.1077552 ], [ 77.4211103, 29.1077271 ], [ 77.421357, 29.1076966 ], [ 77.4216065, 29.1076802 ], [ 77.4227357, 29.1074974 ], [ 77.4233875, 29.1073709 ], [ 77.4246106, 29.1070545 ], [ 77.4248841, 29.1069209 ], [ 77.4251282, 29.1067335 ], [ 77.4252704, 29.1065507 ], [ 77.4255225, 29.1059367 ], [ 77.4263728, 29.1046501 ], [ 77.4264801, 29.1045048 ], [ 77.4265283, 29.1042915 ], [ 77.4265283, 29.1042142 ], [ 77.4265122, 29.1041486 ], [ 77.4264371, 29.1040431 ], [ 77.4263942, 29.1036072 ], [ 77.4263272, 29.1032932 ], [ 77.4262977, 29.1032111 ], [ 77.4262628, 29.1031549 ], [ 77.4261796, 29.1030307 ], [ 77.4258551, 29.1026042 ], [ 77.4257156, 29.1023534 ], [ 77.425662, 29.1021589 ], [ 77.4255976, 29.101737 ], [ 77.4255547, 29.101587 ], [ 77.4254903, 29.1014324 ], [ 77.4254474, 29.1012777 ], [ 77.4252409, 29.1009636 ], [ 77.4248761, 29.1005418 ], [ 77.4243101, 29.0999184 ], [ 77.4241036, 29.0996254 ], [ 77.4239132, 29.099309 ], [ 77.4238327, 29.0990817 ], [ 77.4237925, 29.0988567 ], [ 77.4237925, 29.0987887 ], [ 77.4238408, 29.0987067 ], [ 77.4238488, 29.0986733 ], [ 77.4237952, 29.0984794 ], [ 77.4238005, 29.0984278 ], [ 77.423822, 29.0983739 ], [ 77.4239856, 29.0982216 ], [ 77.4240634, 29.09817 ], [ 77.4241143, 29.0981723 ], [ 77.4241921, 29.0982028 ], [ 77.424345, 29.0982966 ], [ 77.4244443, 29.0983411 ], [ 77.4247929, 29.098395 ], [ 77.4248707, 29.0983927 ], [ 77.4250209, 29.0983645 ], [ 77.4253535, 29.0982661 ], [ 77.4256459, 29.0982052 ], [ 77.4259356, 29.0981841 ], [ 77.4262521, 29.0982427 ], [ 77.4264532, 29.0983552 ], [ 77.4265659, 29.0984841 ], [ 77.4266034, 29.098552 ], [ 77.4264747, 29.0987372 ], [ 77.4264505, 29.0988005 ], [ 77.4264398, 29.0989294 ], [ 77.4264666, 29.0990442 ], [ 77.4265149, 29.0991215 ], [ 77.4266034, 29.0992106 ], [ 77.4269655, 29.0994332 ], [ 77.4272606, 29.0998574 ], [ 77.4273491, 29.1003543 ], [ 77.4273813, 29.1004504 ], [ 77.4273089, 29.1005652 ], [ 77.4272901, 29.1007152 ], [ 77.4272901, 29.1008816 ], [ 77.4273115, 29.1011886 ], [ 77.4273491, 29.1013011 ], [ 77.4273974, 29.1013972 ], [ 77.4274403, 29.1015402 ], [ 77.4274698, 29.1016972 ], [ 77.4275181, 29.1018542 ], [ 77.4276361, 29.1024284 ], [ 77.4276361, 29.1029698 ], [ 77.4276441, 29.103094 ], [ 77.4276763, 29.1032322 ], [ 77.4276683, 29.1034713 ], [ 77.4277058, 29.1035767 ], [ 77.4277621, 29.1036353 ], [ 77.4278533, 29.1036939 ], [ 77.4279392, 29.1037056 ], [ 77.4280867, 29.1036916 ], [ 77.4283147, 29.1036236 ], [ 77.4283925, 29.1035533 ], [ 77.4284515, 29.1034572 ], [ 77.4285105, 29.1033963 ], [ 77.4287733, 29.1031994 ], [ 77.4289852, 29.1031151 ], [ 77.4293742, 29.1028526 ], [ 77.4303773, 29.102351 ], [ 77.4306026, 29.1021753 ], [ 77.4309003, 29.1019011 ], [ 77.431013, 29.101812 ] ] ] } },
{ "type": "Feature", "properties": { "element": "way", "id": 1018911558, "addr:district": null, "addr:full": null, "addr:postcode": null, "addr:state": null, "amenity": null, "name": null, "source": null, "addr:block": null, "addr:subdistrict": null, "description": null, "alt_name": null, "int_name": null, "old_name": null, "natural": "water", "water": "oxbow", "source:position": null, "source:tracer": null, "source:zoomlevel": null, "landuse": null, "man_made": null, "intermittent": null, "type": null }, "geometry": { "type": "Polygon", "coordinates": [ [ [ 77.4191657, 28.8843644 ], [ 77.4188197, 28.88486 ], [ 77.4187955, 28.8848764 ], [ 77.418766, 28.884874 ], [ 77.4186748, 28.8847848 ], [ 77.4186641, 28.8846979 ], [ 77.418876, 28.8841343 ], [ 77.4191737, 28.8836387 ], [ 77.4195492, 28.8831948 ], [ 77.4196726, 28.8830821 ], [ 77.4197879, 28.883007 ], [ 77.4199381, 28.8829341 ], [ 77.4206302, 28.882711 ], [ 77.4209788, 28.8825513 ], [ 77.42129, 28.8824997 ], [ 77.4216199, 28.8824856 ], [ 77.4217433, 28.882495 ], [ 77.4219364, 28.8825349 ], [ 77.4221912, 28.8826124 ], [ 77.4225721, 28.8829013 ], [ 77.4226499, 28.8829694 ], [ 77.4227196, 28.8830821 ], [ 77.4232078, 28.8836293 ], [ 77.4234626, 28.884139 ], [ 77.4234921, 28.8843151 ], [ 77.4235216, 28.8846251 ], [ 77.4235243, 28.8848529 ], [ 77.4235135, 28.8849962 ], [ 77.4234545, 28.885325 ], [ 77.4233928, 28.8855011 ], [ 77.4232963, 28.8856749 ], [ 77.4231622, 28.8858604 ], [ 77.4231085, 28.8859661 ], [ 77.4230924, 28.8861375 ], [ 77.4228778, 28.8863113 ], [ 77.422792, 28.8863301 ], [ 77.4227652, 28.8863184 ], [ 77.4227491, 28.8862714 ], [ 77.4227437, 28.8861986 ], [ 77.422792, 28.8859896 ], [ 77.422851, 28.8858604 ], [ 77.42302, 28.885595 ], [ 77.4230844, 28.8853954 ], [ 77.4231192, 28.8846275 ], [ 77.4231192, 28.8844114 ], [ 77.4231058, 28.8843245 ], [ 77.4230146, 28.8840591 ], [ 77.4229288, 28.8839065 ], [ 77.4226981, 28.8835941 ], [ 77.4225345, 28.8833921 ], [ 77.4225426, 28.8834203 ], [ 77.4224138, 28.8831714 ], [ 77.4222717, 28.883014 ], [ 77.4221778, 28.8829341 ], [ 77.4220866, 28.8828778 ], [ 77.4218586, 28.8828144 ], [ 77.4217164, 28.8827979 ], [ 77.4213812, 28.8828026 ], [ 77.4208689, 28.8828684 ], [ 77.4206436, 28.8829341 ], [ 77.4203002, 28.8831197 ], [ 77.4201581, 28.883216 ], [ 77.4195439, 28.8838243 ], [ 77.4193105, 28.8841014 ], [ 77.4191657, 28.8843644 ] ] ] } },
{ "type": "Feature", "properties": { "element": "way", "id": 1018911559, "addr:district": null, "addr:full": null, "addr:postcode": null, "addr:state": null, "amenity": null, "name": null, "source": null, "addr:block": null, "addr:subdistrict": null, "description": null, "alt_name": null, "int_name": null, "old_name": null, "natural": "water", "water": "oxbow", "source:position": null, "source:tracer": null, "source:zoomlevel": null, "landuse": null, "man_made": null, "intermittent": null, "type": null }, "geometry": { "type": "Polygon", "coordinates": [ [ [ 77.4181974, 28.8854588 ], [ 77.418302, 28.8856584 ], [ 77.4183181, 28.8857148 ], [ 77.4183181, 28.88579 ], [ 77.4184683, 28.8859121 ], [ 77.4188518, 28.88637 ], [ 77.4191388, 28.8866049 ], [ 77.4196029, 28.8867904 ], [ 77.4198389, 28.8868444 ], [ 77.4200964, 28.8868867 ], [ 77.4203432, 28.8869055 ], [ 77.4206275, 28.8869125 ], [ 77.4209574, 28.8869125 ], [ 77.4214804, 28.8868397 ], [ 77.4218747, 28.8867998 ], [ 77.4219632, 28.8868022 ], [ 77.4223468, 28.8868397 ], [ 77.4228591, 28.8869572 ], [ 77.4224594, 28.8870511 ], [ 77.422092, 28.8870394 ], [ 77.4216333, 28.8870488 ], [ 77.4210754, 28.8871028 ], [ 77.4205416, 28.8872038 ], [ 77.4201286, 28.8872484 ], [ 77.4198577, 28.8872531 ], [ 77.4193481, 28.8871427 ], [ 77.4190423, 28.8869877 ], [ 77.4188223, 28.8868444 ], [ 77.4185595, 28.886626 ], [ 77.4183208, 28.8863912 ], [ 77.4182188, 28.8862714 ], [ 77.418125, 28.8860812 ], [ 77.4180847, 28.8859168 ], [ 77.4180847, 28.8854518 ], [ 77.4181974, 28.8854588 ] ] ] } },
{ "type": "Feature", "properties": { "element": "way", "id": 1179886430, "addr:district": null, "addr:full": null, "addr:postcode": null, "addr:state": null, "amenity": null, "name": null, "source": null, "addr:block": null, "addr:subdistrict": null, "description": null, "alt_name": null, "int_name": null, "old_name": null, "natural": "water", "water": null, "source:position": null, "source:tracer": null, "source:zoomlevel": null, "landuse": "basin", "man_made": "pond", "intermittent": null, "type": null }, "geometry": { "type": "Polygon", "coordinates": [ [ [ 77.4166115, 28.8948463 ], [ 77.4165919, 28.8947667 ], [ 77.4166714, 28.8947517 ], [ 77.416691, 28.8948313 ], [ 77.4166115, 28.8948463 ] ] ] } },
{ "type": "Feature", "properties": { "element": "way", "id": 1189350771, "addr:district": null, "addr:full": null, "addr:postcode": null, "addr:state": null, "amenity": null, "name": null, "source": null, "addr:block": null, "addr:subdistrict": null, "description": null, "alt_name": null, "int_name": null, "old_name": null, "natural": "water", "water": "pond", "source:position": null, "source:tracer": null, "source:zoomlevel": null, "landuse": "basin", "man_made": null, "intermittent": null, "type": null }, "geometry": { "type": "Polygon", "coordinates": [ [ [ 77.3905341, 28.8769695 ], [ 77.3908593, 28.8767879 ], [ 77.3915342, 28.8763287 ], [ 77.3912903, 28.8761151 ], [ 77.3910748, 28.8763429 ], [ 77.3909203, 28.8764604 ], [ 77.3908349, 28.8764355 ], [ 77.390965, 28.8762717 ], [ 77.3908431, 28.8762432 ], [ 77.3907699, 28.8763073 ], [ 77.3906886, 28.8763109 ], [ 77.3906398, 28.876229 ], [ 77.3900788, 28.8765814 ], [ 77.3905341, 28.8769695 ] ] ] } },
{ "type": "Feature", "properties": { "element": "way", "id": 1189350772, "addr:district": null, "addr:full": null, "addr:postcode": null, "addr:state": null, "amenity": null, "name": null, "source": null, "addr:block": null, "addr:subdistrict": null, "description": null, "alt_name": null, "int_name": null, "old_name": null, "natural": "water", "water": "reservoir", "source:position": null, "source:tracer": null, "source:zoomlevel": null, "landuse": null, "man_made": null, "intermittent": null, "type": null }, "geometry": { "type": "Polygon", "coordinates": [ [ [ 77.4041963, 28.8710685 ], [ 77.4042476, 28.8716053 ], [ 77.4043709, 28.8719952 ], [ 77.4050147, 28.874458 ], [ 77.4052722, 28.8757545 ], [ 77.4051649, 28.8783662 ], [ 77.4048859, 28.8796439 ], [ 77.4046284, 28.88017 ], [ 77.4038989, 28.8806209 ], [ 77.4033034, 28.8808713 ], [ 77.4027617, 28.8813006 ], [ 77.4026629, 28.8814069 ], [ 77.4025796, 28.8815664 ], [ 77.4025376, 28.8818118 ], [ 77.4026048, 28.8821075 ], [ 77.4023569, 28.8822378 ], [ 77.4022854, 28.8819999 ], [ 77.4022994, 28.8817054 ], [ 77.4025703, 28.8810348 ], [ 77.4032848, 28.880585 ], [ 77.4039139, 28.8802148 ], [ 77.4044627, 28.8795135 ], [ 77.4046822, 28.8790863 ], [ 77.4048367, 28.8779899 ], [ 77.4048517, 28.87605 ], [ 77.4045528, 28.8738253 ], [ 77.4044034, 28.8730401 ], [ 77.4037886, 28.8713128 ], [ 77.4041963, 28.8710685 ] ] ] } },
{ "type": "Feature", "properties": { "element": "way", "id": 1189350773, "addr:district": null, "addr:full": null, "addr:postcode": null, "addr:state": null, "amenity": null, "name": null, "source": null, "addr:block": null, "addr:subdistrict": null, "description": null, "alt_name": null, "int_name": null, "old_name": null, "natural": "water", "water": "river", "source:position": null, "source:tracer": null, "source:zoomlevel": null, "landuse": null, "man_made": null, "intermittent": null, "type": null }, "geometry": { "type": "Polygon", "coordinates": [ [ [ 77.4026048, 28.8821075 ], [ 77.4027587, 28.882542 ], [ 77.4032981, 28.8831072 ], [ 77.4040062, 28.8835207 ], [ 77.4047511, 28.8838397 ], [ 77.4052747, 28.8838766 ], [ 77.4068033, 28.8831077 ], [ 77.4077302, 28.8823815 ], [ 77.4095841, 28.8804592 ], [ 77.4095841, 28.8811712 ], [ 77.4082506, 28.8827945 ], [ 77.4073399, 28.8836346 ], [ 77.4059902, 28.8841899 ], [ 77.404429, 28.8840475 ], [ 77.4031118, 28.883421 ], [ 77.4026402, 28.8828514 ], [ 77.4023569, 28.8822378 ], [ 77.4026048, 28.8821075 ] ] ] } },
{ "type": "Feature", "properties": { "element": "way", "id": 1189557592, "addr:district": null, "addr:full": null, "addr:postcode": null, "addr:state": null, "amenity": null, "name": null, "source": null, "addr:block": null, "addr:subdistrict": null, "description": null, "alt_name": null, "int_name": null, "old_name": null, "natural": "water", "water": "pond", "source:position": null, "source:tracer": null, "source:zoomlevel": null, "landuse": null, "man_made": null, "intermittent": null, "type": null }, "geometry": { "type": "Polygon", "coordinates": [ [ [ 77.3735021, 28.8992295 ], [ 77.3734292, 28.8991026 ], [ 77.3733845, 28.8989843 ], [ 77.3733671, 28.8989008 ], [ 77.3733364, 28.8988812 ], [ 77.3732949, 28.8988674 ], [ 77.3731615, 28.8988543 ], [ 77.3731565, 28.8988093 ], [ 77.3732485, 28.8987976 ], [ 77.3733437, 28.8988136 ], [ 77.3733877, 28.898831 ], [ 77.3734665, 28.8988049 ], [ 77.373503, 28.8988376 ], [ 77.3735736, 28.8988121 ], [ 77.3735794, 28.8987838 ], [ 77.3737226, 28.8987403 ], [ 77.3737922, 28.8987316 ], [ 77.3738353, 28.8987767 ], [ 77.3738651, 28.8988406 ], [ 77.3738825, 28.8988979 ], [ 77.373895, 28.8989675 ], [ 77.3738925, 28.899027 ], [ 77.3738825, 28.899064 ], [ 77.3738435, 28.899064 ], [ 77.373774, 28.8991308 ], [ 77.3737309, 28.8991206 ], [ 77.3736008, 28.8991823 ], [ 77.3735279, 28.8992266 ], [ 77.3735021, 28.8992295 ] ] ] } },
{ "type": "Feature", "properties": { "element": "way", "id": 1189765730, "addr:district": null, "addr:full": null, "addr:postcode": null, "addr:state": null, "amenity": null, "name": null, "source": null, "addr:block": null, "addr:subdistrict": null, "description": null, "alt_name": null, "int_name": null, "old_name": null, "natural": "water", "water": "pond", "source:position": null, "source:tracer": null, "source:zoomlevel": null, "landuse": "basin", "man_made": null, "intermittent": null, "type": null }, "geometry": { "type": "Polygon", "coordinates": [ [ [ 77.242319, 28.9023208 ], [ 77.2423928, 28.9023684 ], [ 77.2427969, 28.902195 ], [ 77.2432476, 28.9014534 ], [ 77.2428319, 28.9011404 ], [ 77.2425132, 28.901035 ], [ 77.2421364, 28.9011132 ], [ 77.2420509, 28.9013445 ], [ 77.2419732, 28.9016133 ], [ 77.2419537, 28.9019807 ], [ 77.2421752, 28.901916 ], [ 77.2422607, 28.9020997 ], [ 77.242319, 28.9023208 ] ] ] } },
{ "type": "Feature", "properties": { "element": "way", "id": 1189765813, "addr:district": null, "addr:full": null, "addr:postcode": null, "addr:state": null, "amenity": null, "name": null, "source": null, "addr:block": null, "addr:subdistrict": null, "description": null, "alt_name": null, "int_name": null, "old_name": null, "natural": "water", "water": null, "source:position": null, "source:tracer": null, "source:zoomlevel": null, "landuse": "basin", "man_made": "pond", "intermittent": null, "type": null }, "geometry": { "type": "Polygon", "coordinates": [ [ [ 77.2441434, 28.8976011 ], [ 77.2440389, 28.8978631 ], [ 77.2443777, 28.8980682 ], [ 77.2449649, 28.8979446 ], [ 77.2451427, 28.8978606 ], [ 77.2451709, 28.8975986 ], [ 77.2449818, 28.8973959 ], [ 77.2441434, 28.8976011 ] ] ] } },
{ "type": "Feature", "properties": { "element": "way", "id": 1189765952, "addr:district": null, "addr:full": null, "addr:postcode": null, "addr:state": null, "amenity": null, "name": null, "source": null, "addr:block": null, "addr:subdistrict": null, "description": null, "alt_name": null, "int_name": null, "old_name": null, "natural": "water", "water": null, "source:position": null, "source:tracer": null, "source:zoomlevel": null, "landuse": "basin", "man_made": "pond", "intermittent": null, "type": null }, "geometry": { "type": "Polygon", "coordinates": [ [ [ 77.2373688, 28.8858176 ], [ 77.2380751, 28.8857135 ], [ 77.2381555, 28.8860533 ], [ 77.2384947, 28.8859492 ], [ 77.2383304, 28.8856461 ], [ 77.2382674, 28.8853828 ], [ 77.2378129, 28.8852726 ], [ 77.237201, 28.8854073 ], [ 77.2373688, 28.8858176 ] ] ] } },
{ "type": "Feature", "properties": { "element": "way", "id": 1189787338, "addr:district": null, "addr:full": null, "addr:postcode": null, "addr:state": null, "amenity": null, "name": null, "source": null, "addr:block": null, "addr:subdistrict": null, "description": null, "alt_name": null, "int_name": null, "old_name": null, "natural": "water", "water": "pond", "source:position": null, "source:tracer": null, "source:zoomlevel": null, "landuse": "basin", "man_made": null, "intermittent": null, "type": null }, "geometry": { "type": "Polygon", "coordinates": [ [ [ 77.3896663, 28.8999008 ], [ 77.3897739, 28.9003999 ], [ 77.3898134, 28.9004883 ], [ 77.3898873, 28.9004603 ], [ 77.3900934, 28.9003876 ], [ 77.3900737, 28.9003488 ], [ 77.3901312, 28.9002784 ], [ 77.3899259, 28.8999138 ], [ 77.3897912, 28.8998879 ], [ 77.3897477, 28.8998972 ], [ 77.3896663, 28.8999008 ] ] ] } },
{ "type": "Feature", "properties": { "element": "way", "id": 1189787483, "addr:district": null, "addr:full": null, "addr:postcode": null, "addr:state": null, "amenity": null, "name": null, "source": null, "addr:block": null, "addr:subdistrict": null, "description": null, "alt_name": null, "int_name": null, "old_name": null, "natural": "water", "water": "basin", "source:position": null, "source:tracer": null, "source:zoomlevel": null, "landuse": "basin", "man_made": null, "intermittent": null, "type": null }, "geometry": { "type": "Polygon", "coordinates": [ [ [ 77.3938829, 28.9006605 ], [ 77.3938505, 28.9008667 ], [ 77.3941781, 28.9011234 ], [ 77.3943959, 28.9010473 ], [ 77.3943655, 28.9008585 ], [ 77.3943582, 28.9006715 ], [ 77.3942347, 28.9005616 ], [ 77.3940651, 28.900601 ], [ 77.3939886, 28.9006184 ], [ 77.3938829, 28.9006605 ] ] ] } },
{ "type": "Feature", "properties": { "element": "way", "id": 1189787714, "addr:district": null, "addr:full": null, "addr:postcode": null, "addr:state": null, "amenity": null, "name": null, "source": null, "addr:block": null, "addr:subdistrict": null, "description": null, "alt_name": null, "int_name": null, "old_name": null, "natural": "water", "water": null, "source:position": null, "source:tracer": null, "source:zoomlevel": null, "landuse": "basin", "man_made": "pond", "intermittent": null, "type": null }, "geometry": { "type": "Polygon", "coordinates": [ [ [ 77.3617461, 28.8941056 ], [ 77.3620778, 28.8945914 ], [ 77.363199, 28.8942609 ], [ 77.3632104, 28.8940104 ], [ 77.3629416, 28.893745 ], [ 77.3628329, 28.8939203 ], [ 77.3621408, 28.8940505 ], [ 77.3617461, 28.8941056 ] ] ] } },
{ "type": "Feature", "properties": { "element": "way", "id": 1189787736, "addr:district": null, "addr:full": null, "addr:postcode": null, "addr:state": null, "amenity": null, "name": null, "source": null, "addr:block": null, "addr:subdistrict": null, "description": null, "alt_name": null, "int_name": null, "old_name": null, "natural": "water", "water": "pond", "source:position": null, "source:tracer": null, "source:zoomlevel": null, "landuse": "basin", "man_made": null, "intermittent": null, "type": null }, "geometry": { "type": "Polygon", "coordinates": [ [ [ 77.359355, 28.8905898 ], [ 77.3596525, 28.8910206 ], [ 77.3600529, 28.8908202 ], [ 77.3605219, 28.8908653 ], [ 77.3608022, 28.8907351 ], [ 77.3607794, 28.8905798 ], [ 77.3609166, 28.8905999 ], [ 77.3611111, 28.8904696 ], [ 77.3611426, 28.8900715 ], [ 77.3610711, 28.8898636 ], [ 77.3608766, 28.8898186 ], [ 77.3605849, 28.890064 ], [ 77.3602531, 28.8902493 ], [ 77.3601215, 28.8903444 ], [ 77.3598412, 28.8905247 ], [ 77.3595381, 28.8904747 ], [ 77.359355, 28.8905898 ] ] ] } },
{ "type": "Feature", "properties": { "element": "way", "id": 1189787806, "addr:district": null, "addr:full": null, "addr:postcode": null, "addr:state": null, "amenity": null, "name": null, "source": null, "addr:block": null, "addr:subdistrict": null, "description": null, "alt_name": null, "int_name": null, "old_name": null, "natural": "water", "water": null, "source:position": null, "source:tracer": null, "source:zoomlevel": null, "landuse": "basin", "man_made": "pond", "intermittent": null, "type": null }, "geometry": { "type": "Polygon", "coordinates": [ [ [ 77.3228889, 28.885367 ], [ 77.32288, 28.8856225 ], [ 77.3229922, 28.8858268 ], [ 77.3231358, 28.8860351 ], [ 77.3233736, 28.8860311 ], [ 77.3233602, 28.8858425 ], [ 77.3233198, 28.8856657 ], [ 77.3232659, 28.8854338 ], [ 77.3232525, 28.8852963 ], [ 77.323064, 28.8852649 ], [ 77.3229608, 28.8853277 ], [ 77.3228889, 28.885367 ] ] ] } },
{ "type": "Feature", "properties": { "element": "way", "id": 1189787807, "addr:district": null, "addr:full": null, "addr:postcode": null, "addr:state": null, "amenity": null, "name": null, "source": null, "addr:block": null, "addr:subdistrict": null, "description": null, "alt_name": null, "int_name": null, "old_name": null, "natural": "water", "water": "pond", "source:position": null, "source:tracer": null, "source:zoomlevel": null, "landuse": "basin", "man_made": null, "intermittent": null, "type": null }, "geometry": { "type": "Polygon", "coordinates": [ [ [ 77.3258735, 28.8857796 ], [ 77.3258869, 28.8860822 ], [ 77.326035, 28.8863769 ], [ 77.3262863, 28.8864948 ], [ 77.3266678, 28.886487 ], [ 77.3267576, 28.8864359 ], [ 77.326614, 28.8862001 ], [ 77.3266948, 28.8859565 ], [ 77.3266409, 28.8856264 ], [ 77.3265063, 28.885481 ], [ 77.3261382, 28.8856067 ], [ 77.3259363, 28.8856932 ], [ 77.3258735, 28.8857796 ] ] ] } },
{ "type": "Feature", "properties": { "element": "way", "id": 1189788120, "addr:district": null, "addr:full": null, "addr:postcode": null, "addr:state": null, "amenity": null, "name": null, "source": null, "addr:block": null, "addr:subdistrict": null, "description": null, "alt_name": null, "int_name": null, "old_name": null, "natural": "water", "water": "pond", "source:position": null, "source:tracer": null, "source:zoomlevel": null, "landuse": "basin", "man_made": null, "intermittent": null, "type": null }, "geometry": { "type": "Polygon", "coordinates": [ [ [ 77.3190815, 28.8988168 ], [ 77.3190591, 28.8990997 ], [ 77.3192745, 28.8992529 ], [ 77.3195168, 28.8994533 ], [ 77.3197637, 28.8995083 ], [ 77.320033, 28.8993708 ], [ 77.3202753, 28.8992804 ], [ 77.3203112, 28.8990997 ], [ 77.3202125, 28.8990879 ], [ 77.32019, 28.8989268 ], [ 77.3202439, 28.8988364 ], [ 77.3201855, 28.8986989 ], [ 77.3200958, 28.8986085 ], [ 77.3198265, 28.8985181 ], [ 77.3196156, 28.8984631 ], [ 77.3192565, 28.8986478 ], [ 77.3190815, 28.8988168 ] ] ] } },
{ "type": "Feature", "properties": { "element": "way", "id": 1189788121, "addr:district": null, "addr:full": null, "addr:postcode": null, "addr:state": null, "amenity": null, "name": null, "source": null, "addr:block": null, "addr:subdistrict": null, "description": null, "alt_name": null, "int_name": null, "old_name": null, "natural": "water", "water": "pond", "source:position": null, "source:tracer": null, "source:zoomlevel": null, "landuse": "basin", "man_made": null, "intermittent": null, "type": null }, "geometry": { "type": "Polygon", "coordinates": [ [ [ 77.3027346, 28.8992557 ], [ 77.3026674, 28.8993961 ], [ 77.3026869, 28.8994587 ], [ 77.3028516, 28.8994113 ], [ 77.3030163, 28.8994549 ], [ 77.3030163, 28.8993847 ], [ 77.3031139, 28.8994568 ], [ 77.3032092, 28.8993961 ], [ 77.3033241, 28.8993544 ], [ 77.3034477, 28.8992386 ], [ 77.3033892, 28.8991931 ], [ 77.3034152, 28.8990431 ], [ 77.3034217, 28.898897 ], [ 77.3033198, 28.8986978 ], [ 77.3031984, 28.8986693 ], [ 77.3029448, 28.8987281 ], [ 77.3028083, 28.8987851 ], [ 77.3027085, 28.8988097 ], [ 77.3026414, 28.8989369 ], [ 77.3027996, 28.8991779 ], [ 77.3027346, 28.8992557 ] ] ] } },
{ "type": "Feature", "properties": { "element": "way", "id": 1189788309, "addr:district": null, "addr:full": null, "addr:postcode": null, "addr:state": null, "amenity": null, "name": null, "source": null, "addr:block": null, "addr:subdistrict": null, "description": null, "alt_name": null, "int_name": null, "old_name": null, "natural": "water", "water": null, "source:position": null, "source:tracer": null, "source:zoomlevel": null, "landuse": "basin", "man_made": "pond", "intermittent": null, "type": null }, "geometry": { "type": "Polygon", "coordinates": [ [ [ 77.2577792, 28.8871006 ], [ 77.2580709, 28.8869434 ], [ 77.2577568, 28.8864679 ], [ 77.2574875, 28.8865622 ], [ 77.2575728, 28.8867155 ], [ 77.2577792, 28.8871006 ] ] ] } },
{ "type": "Feature", "properties": { "element": "way", "id": 1189788310, "addr:district": null, "addr:full": null, "addr:postcode": null, "addr:state": null, "amenity": null, "name": null, "source": null, "addr:block": null, "addr:subdistrict": null, "description": null, "alt_name": null, "int_name": null, "old_name": null, "natural": "water", "water": "pond", "source:position": null, "source:tracer": null, "source:zoomlevel": null, "landuse": "basin", "man_made": null, "intermittent": null, "type": null }, "geometry": { "type": "Polygon", "coordinates": [ [ [ 77.2658345, 28.8998247 ], [ 77.2659965, 28.899908 ], [ 77.2661268, 28.9000621 ], [ 77.2660422, 28.9002563 ], [ 77.2662218, 28.9005029 ], [ 77.266412, 28.9005553 ], [ 77.2666409, 28.9004937 ], [ 77.2665986, 28.9002532 ], [ 77.2667535, 28.9001854 ], [ 77.266743, 28.9000467 ], [ 77.266662, 28.899985 ], [ 77.266493, 28.900019 ], [ 77.2664049, 28.8998124 ], [ 77.2664613, 28.8996984 ], [ 77.2663803, 28.8996274 ], [ 77.2660845, 28.8997138 ], [ 77.2658345, 28.8998247 ] ] ] } },
{ "type": "Feature", "properties": { "element": "way", "id": 1189788311, "addr:district": null, "addr:full": null, "addr:postcode": null, "addr:state": null, "amenity": null, "name": null, "source": null, "addr:block": null, "addr:subdistrict": null, "description": null, "alt_name": null, "int_name": null, "old_name": null, "natural": "water", "water": null, "source:position": null, "source:tracer": null, "source:zoomlevel": null, "landuse": "basin", "man_made": "pond", "intermittent": null, "type": null }, "geometry": { "type": "Polygon", "coordinates": [ [ [ 77.2706712, 28.8948977 ], [ 77.2710259, 28.8953835 ], [ 77.2714663, 28.8951782 ], [ 77.2711517, 28.8946523 ], [ 77.2709, 28.8947775 ], [ 77.2706712, 28.8948977 ] ] ] } },
{ "type": "Feature", "properties": { "element": "way", "id": 1189791866, "addr:district": null, "addr:full": null, "addr:postcode": null, "addr:state": null, "amenity": null, "name": null, "source": null, "addr:block": null, "addr:subdistrict": null, "description": null, "alt_name": null, "int_name": null, "old_name": null, "natural": "water", "water": null, "source:position": null, "source:tracer": null, "source:zoomlevel": null, "landuse": "basin", "man_made": "pond", "intermittent": null, "type": null }, "geometry": { "type": "Polygon", "coordinates": [ [ [ 77.2727913, 28.8916731 ], [ 77.2729794, 28.8919873 ], [ 77.2731756, 28.8918833 ], [ 77.2729421, 28.8915796 ], [ 77.272842, 28.8916252 ], [ 77.2727913, 28.8916731 ] ] ] } },
{ "type": "Feature", "properties": { "element": "way", "id": 1189791868, "addr:district": null, "addr:full": null, "addr:postcode": null, "addr:state": null, "amenity": null, "name": null, "source": null, "addr:block": null, "addr:subdistrict": null, "description": null, "alt_name": null, "int_name": null, "old_name": null, "natural": "water", "water": null, "source:position": null, "source:tracer": null, "source:zoomlevel": null, "landuse": "basin", "man_made": "pond", "intermittent": null, "type": null }, "geometry": { "type": "Polygon", "coordinates": [ [ [ 77.2670942, 28.8902465 ], [ 77.2673522, 28.8907285 ], [ 77.2679786, 28.8904305 ], [ 77.2677033, 28.8899314 ], [ 77.2670942, 28.8902465 ] ] ] } },
{ "type": "Feature", "properties": { "element": "way", "id": 1189791869, "addr:district": null, "addr:full": null, "addr:postcode": null, "addr:state": null, "amenity": null, "name": null, "source": null, "addr:block": null, "addr:subdistrict": null, "description": null, "alt_name": null, "int_name": null, "old_name": null, "natural": "water", "water": null, "source:position": null, "source:tracer": null, "source:zoomlevel": null, "landuse": "basin", "man_made": "pond", "intermittent": null, "type": null }, "geometry": { "type": "Polygon", "coordinates": [ [ [ 77.267415, 28.8911498 ], [ 77.2675386, 28.8914098 ], [ 77.2684338, 28.8911821 ], [ 77.2681759, 28.8908424 ], [ 77.267415, 28.8911498 ] ] ] } },
{ "type": "Feature", "properties": { "element": "way", "id": 1189792963, "addr:district": null, "addr:full": null, "addr:postcode": null, "addr:state": null, "amenity": null, "name": null, "source": null, "addr:block": null, "addr:subdistrict": null, "description": null, "alt_name": null, "int_name": null, "old_name": null, "natural": "water", "water": null, "source:position": null, "source:tracer": null, "source:zoomlevel": null, "landuse": "basin", "man_made": "pond", "intermittent": null, "type": null }, "geometry": { "type": "Polygon", "coordinates": [ [ [ 77.2815783, 28.8978077 ], [ 77.282269, 28.8975344 ], [ 77.2822054, 28.8973675 ], [ 77.2815866, 28.8973917 ], [ 77.2815783, 28.8978077 ] ] ] } },
{ "type": "Feature", "properties": { "element": "way", "id": 1189792964, "addr:district": null, "addr:full": null, "addr:postcode": null, "addr:state": null, "amenity": null, "name": null, "source": null, "addr:block": null, "addr:subdistrict": null, "description": null, "alt_name": null, "int_name": null, "old_name": null, "natural": "water", "water": "pond", "source:position": null, "source:tracer": null, "source:zoomlevel": null, "landuse": null, "man_made": null, "intermittent": null, "type": null }, "geometry": { "type": "Polygon", "coordinates": [ [ [ 77.2830906, 28.9030798 ], [ 77.2832222, 28.9031349 ], [ 77.2833824, 28.9022435 ], [ 77.2842862, 28.9021133 ], [ 77.2841832, 28.9017127 ], [ 77.2842747, 28.9016175 ], [ 77.2842633, 28.9013571 ], [ 77.2840345, 28.9010566 ], [ 77.2838686, 28.9009815 ], [ 77.2835311, 28.9010166 ], [ 77.2830906, 28.9030798 ] ] ] } },
{ "type": "Feature", "properties": { "element": "way", "id": 1189792965, "addr:district": null, "addr:full": null, "addr:postcode": null, "addr:state": null, "amenity": null, "name": null, "source": null, "addr:block": null, "addr:subdistrict": null, "description": null, "alt_name": null, "int_name": null, "old_name": null, "natural": "water", "water": "pond", "source:position": null, "source:tracer": null, "source:zoomlevel": null, "landuse": "basin", "man_made": null, "intermittent": null, "type": null }, "geometry": { "type": "Polygon", "coordinates": [ [ [ 77.2818608, 28.901948 ], [ 77.2819981, 28.9023336 ], [ 77.2825529, 28.9025139 ], [ 77.2831364, 28.9022485 ], [ 77.2831307, 28.9018028 ], [ 77.2829248, 28.9015574 ], [ 77.2822326, 28.9016075 ], [ 77.2820152, 28.9017828 ], [ 77.2819237, 28.9018679 ], [ 77.2818608, 28.901948 ] ] ] } },
{ "type": "Feature", "properties": { "element": "way", "id": 1189792966, "addr:district": null, "addr:full": null, "addr:postcode": null, "addr:state": null, "amenity": null, "name": null, "source": null, "addr:block": null, "addr:subdistrict": null, "description": null, "alt_name": null, "int_name": null, "old_name": null, "natural": "water", "water": null, "source:position": null, "source:tracer": null, "source:zoomlevel": null, "landuse": "basin", "man_made": "pond", "intermittent": null, "type": null }, "geometry": { "type": "Polygon", "coordinates": [ [ [ 77.2880999, 28.9005397 ], [ 77.2882739, 28.9011395 ], [ 77.2874258, 28.901287 ], [ 77.287307, 28.9006751 ], [ 77.2880999, 28.9005397 ] ] ] } },
{ "type": "Feature", "properties": { "element": "way", "id": 1189792967, "addr:district": null, "addr:full": null, "addr:postcode": null, "addr:state": null, "amenity": null, "name": null, "source": null, "addr:block": null, "addr:subdistrict": null, "description": null, "alt_name": null, "int_name": null, "old_name": null, "natural": "water", "water": "pond", "source:position": null, "source:tracer": null, "source:zoomlevel": null, "landuse": "basin", "man_made": null, "intermittent": null, "type": null }, "geometry": { "type": "Polygon", "coordinates": [ [ [ 77.2917367, 28.8948536 ], [ 77.2920219, 28.8954548 ], [ 77.2931733, 28.8954548 ], [ 77.2935924, 28.8955781 ], [ 77.2941593, 28.8954271 ], [ 77.2948424, 28.8951712 ], [ 77.2941522, 28.8938702 ], [ 77.2929973, 28.894419 ], [ 77.2917367, 28.8948536 ] ] ] } },
{ "type": "Feature", "properties": { "element": "way", "id": 1189792968, "addr:district": null, "addr:full": null, "addr:postcode": null, "addr:state": null, "amenity": null, "name": null, "source": null, "addr:block": null, "addr:subdistrict": null, "description": null, "alt_name": null, "int_name": null, "old_name": null, "natural": "water", "water": null, "source:position": null, "source:tracer": null, "source:zoomlevel": null, "landuse": "basin", "man_made": "pond", "intermittent": null, "type": null }, "geometry": { "type": "Polygon", "coordinates": [ [ [ 77.2972452, 28.9012868 ], [ 77.2979414, 28.9010619 ], [ 77.2973723, 28.8999808 ], [ 77.2967037, 28.900213 ], [ 77.2969965, 28.9008491 ], [ 77.2972452, 28.9012868 ] ] ] } },
{ "type": "Feature", "properties": { "element": "way", "id": 1190926522, "addr:district": null, "addr:full": null, "addr:postcode": null, "addr:state": null, "amenity": null, "name": null, "source": null, "addr:block": null, "addr:subdistrict": null, "description": null, "alt_name": null, "int_name": null, "old_name": null, "natural": "water", "water": "pond", "source:position": null, "source:tracer": null, "source:zoomlevel": null, "landuse": null, "man_made": "pond", "intermittent": null, "type": null }, "geometry": { "type": "Polygon", "coordinates": [ [ [ 77.377633, 28.8793074 ], [ 77.378289, 28.878922 ], [ 77.3780214, 28.8786045 ], [ 77.3779438, 28.8786121 ], [ 77.3773914, 28.8790051 ], [ 77.377633, 28.8793074 ] ] ] } },
{ "type": "Feature", "properties": { "element": "way", "id": 1190927163, "addr:district": null, "addr:full": null, "addr:postcode": null, "addr:state": null, "amenity": null, "name": null, "source": null, "addr:block": null, "addr:subdistrict": null, "description": null, "alt_name": null, "int_name": null, "old_name": null, "natural": "water", "water": "pond", "source:position": null, "source:tracer": null, "source:zoomlevel": null, "landuse": null, "man_made": null, "intermittent": null, "type": null }, "geometry": { "type": "Polygon", "coordinates": [ [ [ 77.3670257, 28.849723 ], [ 77.3670489, 28.8498135 ], [ 77.3670806, 28.8497987 ], [ 77.3671016, 28.8498338 ], [ 77.3671417, 28.8498227 ], [ 77.3671923, 28.8497895 ], [ 77.3672492, 28.8497839 ], [ 77.3672809, 28.8497341 ], [ 77.3672872, 28.8496823 ], [ 77.3672851, 28.8496454 ], [ 77.3673104, 28.8495919 ], [ 77.3672935, 28.8495808 ], [ 77.367245, 28.8495309 ], [ 77.3672113, 28.8495014 ], [ 77.3671712, 28.8495124 ], [ 77.3671354, 28.8494977 ], [ 77.3670995, 28.8494773 ], [ 77.3670595, 28.8494884 ], [ 77.3670489, 28.8495291 ], [ 77.3670911, 28.8495826 ], [ 77.3670974, 28.8496232 ], [ 77.3670974, 28.8496491 ], [ 77.3671269, 28.8496473 ], [ 77.3671269, 28.8496897 ], [ 77.3670974, 28.8497156 ], [ 77.3670742, 28.849723 ], [ 77.3670257, 28.849723 ] ] ] } },
{ "type": "Feature", "properties": { "element": "way", "id": 1190927419, "addr:district": null, "addr:full": null, "addr:postcode": null, "addr:state": null, "amenity": null, "name": null, "source": null, "addr:block": null, "addr:subdistrict": null, "description": null, "alt_name": null, "int_name": null, "old_name": null, "natural": "water", "water": "pond", "source:position": null, "source:tracer": null, "source:zoomlevel": null, "landuse": null, "man_made": "pond", "intermittent": null, "type": null }, "geometry": { "type": "Polygon", "coordinates": [ [ [ 77.3769127, 28.8624194 ], [ 77.3778425, 28.8624266 ], [ 77.3777527, 28.8622659 ], [ 77.3775529, 28.8620016 ], [ 77.3775937, 28.861873 ], [ 77.3775937, 28.8618123 ], [ 77.3776834, 28.8617444 ], [ 77.3776753, 28.8617087 ], [ 77.3775855, 28.8616766 ], [ 77.3775652, 28.8616194 ], [ 77.3774347, 28.8615408 ], [ 77.3774591, 28.8614694 ], [ 77.3773449, 28.8613837 ], [ 77.377296, 28.8614444 ], [ 77.3773531, 28.8615016 ], [ 77.3773531, 28.861573 ], [ 77.3773205, 28.8616087 ], [ 77.3772267, 28.8616373 ], [ 77.377137, 28.8616694 ], [ 77.3771329, 28.8617551 ], [ 77.3771818, 28.8618266 ], [ 77.3771696, 28.8618801 ], [ 77.3770432, 28.8619837 ], [ 77.3769035, 28.8620828 ], [ 77.3768047, 28.8622175 ], [ 77.3768199, 28.8623201 ], [ 77.3769127, 28.8624194 ] ] ] } },
{ "type": "Feature", "properties": { "element": "way", "id": 1191683382, "addr:district": null, "addr:full": null, "addr:postcode": null, "addr:state": null, "amenity": null, "name": null, "source": null, "addr:block": null, "addr:subdistrict": null, "description": null, "alt_name": null, "int_name": null, "old_name": null, "natural": "water", "water": "lake", "source:position": null, "source:tracer": null, "source:zoomlevel": null, "landuse": null, "man_made": null, "intermittent": null, "type": null }, "geometry": { "type": "Polygon", "coordinates": [ [ [ 77.3560732, 28.8701542 ], [ 77.356676, 28.8695177 ], [ 77.3567145, 28.8695664 ], [ 77.3568085, 28.8696618 ], [ 77.3568342, 28.8697573 ], [ 77.356926, 28.8697983 ], [ 77.3569878, 28.8698656 ], [ 77.3570003, 28.869985 ], [ 77.3569997, 28.8701566 ], [ 77.3568446, 28.8702826 ], [ 77.3566455, 28.87031 ], [ 77.3563757, 28.8703273 ], [ 77.3562121, 28.8702646 ], [ 77.3560732, 28.8701542 ] ] ] } },
{ "type": "Feature", "properties": { "element": "way", "id": 1191684920, "addr:district": null, "addr:full": null, "addr:postcode": null, "addr:state": null, "amenity": null, "name": null, "source": null, "addr:block": null, "addr:subdistrict": null, "description": null, "alt_name": null, "int_name": null, "old_name": null, "natural": "water", "water": "pond", "source:position": null, "source:tracer": null, "source:zoomlevel": null, "landuse": null, "man_made": null, "intermittent": null, "type": null }, "geometry": { "type": "Polygon", "coordinates": [ [ [ 77.4076593, 28.8480254 ], [ 77.4078172, 28.8481194 ], [ 77.4079182, 28.8481028 ], [ 77.4080066, 28.8482162 ], [ 77.4080193, 28.8482411 ], [ 77.4082182, 28.8482853 ], [ 77.4082182, 28.8483157 ], [ 77.408616, 28.8482992 ], [ 77.4085876, 28.8482521 ], [ 77.4086476, 28.8481941 ], [ 77.4086413, 28.8481166 ], [ 77.4085844, 28.8480973 ], [ 77.4085055, 28.8481194 ], [ 77.4084139, 28.8481222 ], [ 77.4083824, 28.848053 ], [ 77.4083382, 28.8479673 ], [ 77.4082245, 28.8479534 ], [ 77.4081519, 28.8479203 ], [ 77.4081266, 28.8478898 ], [ 77.4080319, 28.8478926 ], [ 77.4080129, 28.847793 ], [ 77.4079814, 28.8476907 ], [ 77.4079751, 28.8476382 ], [ 77.4079845, 28.8475441 ], [ 77.4079056, 28.8475303 ], [ 77.4079087, 28.8474639 ], [ 77.4078772, 28.8473533 ], [ 77.4079056, 28.8472869 ], [ 77.4079972, 28.8472952 ], [ 77.407994, 28.8472316 ], [ 77.4079245, 28.8472399 ], [ 77.4078298, 28.8472399 ], [ 77.4077793, 28.847204 ], [ 77.407713, 28.8472261 ], [ 77.4076783, 28.8472648 ], [ 77.4076277, 28.8473505 ], [ 77.4074288, 28.8474501 ], [ 77.4072836, 28.8475469 ], [ 77.4073562, 28.8475939 ], [ 77.4073814, 28.8476796 ], [ 77.4073593, 28.8477073 ], [ 77.4074162, 28.8478041 ], [ 77.4073909, 28.8478428 ], [ 77.4075235, 28.8479203 ], [ 77.4076593, 28.8480254 ] ] ] } },
{ "type": "Feature", "properties": { "element": "way", "id": 1191685300, "addr:district": null, "addr:full": null, "addr:postcode": null, "addr:state": null, "amenity": null, "name": null, "source": null, "addr:block": null, "addr:subdistrict": null, "description": null, "alt_name": null, "int_name": null, "old_name": null, "natural": "water", "water": "pond", "source:position": null, "source:tracer": null, "source:zoomlevel": null, "landuse": null, "man_made": null, "intermittent": null, "type": null }, "geometry": { "type": "Polygon", "coordinates": [ [ [ 77.3098817, 28.8599279 ], [ 77.3103792, 28.8597962 ], [ 77.3104178, 28.8599211 ], [ 77.3103291, 28.8600089 ], [ 77.3101787, 28.8600799 ], [ 77.3101169, 28.8600529 ], [ 77.3100668, 28.8600326 ], [ 77.3100552, 28.8599853 ], [ 77.3099588, 28.8599718 ], [ 77.3099087, 28.8599583 ], [ 77.3098817, 28.8599279 ] ] ] } },
{ "type": "Feature", "properties": { "element": "way", "id": 1191685301, "addr:district": null, "addr:full": null, "addr:postcode": null, "addr:state": null, "amenity": null, "name": null, "source": null, "addr:block": null, "addr:subdistrict": null, "description": null, "alt_name": null, "int_name": null, "old_name": null, "natural": "water", "water": "pond", "source:position": null, "source:tracer": null, "source:zoomlevel": null, "landuse": null, "man_made": null, "intermittent": null, "type": null }, "geometry": { "type": "Polygon", "coordinates": [ [ [ 77.319582, 28.8470659 ], [ 77.3200261, 28.8471861 ], [ 77.3200099, 28.8472816 ], [ 77.3198929, 28.8473948 ], [ 77.3198848, 28.8474513 ], [ 77.3199413, 28.8475327 ], [ 77.3200584, 28.8476105 ], [ 77.3199978, 28.847667 ], [ 77.3199857, 28.8477236 ], [ 77.319905, 28.8478014 ], [ 77.3197354, 28.8478615 ], [ 77.3195134, 28.847858 ], [ 77.3194811, 28.8478297 ], [ 77.3194488, 28.8477165 ], [ 77.3194407, 28.8475822 ], [ 77.3194569, 28.8474832 ], [ 77.3194851, 28.8474266 ], [ 77.3195134, 28.8473347 ], [ 77.3194771, 28.8472675 ], [ 77.3194932, 28.8472109 ], [ 77.3195134, 28.8471331 ], [ 77.319582, 28.8470659 ] ] ] } },
{ "type": "Feature", "properties": { "element": "way", "id": 1191685585, "addr:district": null, "addr:full": null, "addr:postcode": null, "addr:state": null, "amenity": null, "name": null, "source": null, "addr:block": null, "addr:subdistrict": null, "description": null, "alt_name": null, "int_name": null, "old_name": null, "natural": "water", "water": "pond", "source:position": null, "source:tracer": null, "source:zoomlevel": null, "landuse": null, "man_made": null, "intermittent": null, "type": null }, "geometry": { "type": "Polygon", "coordinates": [ [ [ 77.3183196, 28.8406888 ], [ 77.3183429, 28.84061 ], [ 77.3184096, 28.8406071 ], [ 77.3184263, 28.8405633 ], [ 77.3184796, 28.8405078 ], [ 77.3185262, 28.8404611 ], [ 77.3185696, 28.8404553 ], [ 77.3186329, 28.840464 ], [ 77.3187229, 28.8404523 ], [ 77.3187562, 28.840502 ], [ 77.3187395, 28.840572 ], [ 77.3187862, 28.8406217 ], [ 77.3188228, 28.840683 ], [ 77.3188162, 28.8407297 ], [ 77.3187695, 28.8407939 ], [ 77.3187195, 28.8408464 ], [ 77.3186262, 28.8408786 ], [ 77.3185896, 28.8408931 ], [ 77.3185096, 28.8408669 ], [ 77.3183796, 28.8407822 ], [ 77.3183363, 28.8407413 ], [ 77.3183196, 28.8406888 ] ] ] } },
{ "type": "Feature", "properties": { "element": "way", "id": 1191685736, "addr:district": null, "addr:full": null, "addr:postcode": null, "addr:state": null, "amenity": null, "name": null, "source": null, "addr:block": null, "addr:subdistrict": null, "description": null, "alt_name": null, "int_name": null, "old_name": null, "natural": "water", "water": "pond", "source:position": null, "source:tracer": null, "source:zoomlevel": null, "landuse": null, "man_made": "pond", "intermittent": null, "type": null }, "geometry": { "type": "Polygon", "coordinates": [ [ [ 77.3005025, 28.8284846 ], [ 77.3009206, 28.828981 ], [ 77.3009586, 28.828981 ], [ 77.3013491, 28.8287812 ], [ 77.3013802, 28.8286965 ], [ 77.3013802, 28.828642 ], [ 77.3013733, 28.8285935 ], [ 77.3012351, 28.8283332 ], [ 77.3010934, 28.8281394 ], [ 77.3010139, 28.8281636 ], [ 77.3008031, 28.8282878 ], [ 77.300613, 28.8283907 ], [ 77.3005025, 28.8284846 ] ] ] } },
{ "type": "Feature", "properties": { "element": "way", "id": 1191685737, "addr:district": null, "addr:full": null, "addr:postcode": null, "addr:state": null, "amenity": null, "name": null, "source": null, "addr:block": null, "addr:subdistrict": null, "description": null, "alt_name": null, "int_name": null, "old_name": null, "natural": "water", "water": "pond", "source:position": null, "source:tracer": null, "source:zoomlevel": null, "landuse": null, "man_made": null, "intermittent": null, "type": null }, "geometry": { "type": "Polygon", "coordinates": [ [ [ 77.3003089, 28.8282302 ], [ 77.3004368, 28.8283877 ], [ 77.3010312, 28.8280547 ], [ 77.3009241, 28.8279154 ], [ 77.3008515, 28.8278851 ], [ 77.3003089, 28.8282302 ] ] ] } },
{ "type": "Feature", "properties": { "element": "way", "id": 1191685930, "addr:district": null, "addr:full": null, "addr:postcode": null, "addr:state": null, "amenity": null, "name": null, "source": null, "addr:block": null, "addr:subdistrict": null, "description": null, "alt_name": null, "int_name": null, "old_name": null, "natural": "water", "water": "pond", "source:position": null, "source:tracer": null, "source:zoomlevel": null, "landuse": null, "man_made": null, "intermittent": null, "type": null }, "geometry": { "type": "Polygon", "coordinates": [ [ [ 77.3068904, 28.8402317 ], [ 77.3069323, 28.8403499 ], [ 77.3069276, 28.8404477 ], [ 77.307016, 28.8405659 ], [ 77.3070905, 28.8406882 ], [ 77.3070951, 28.8408024 ], [ 77.3068904, 28.8408798 ], [ 77.3067694, 28.8409328 ], [ 77.3067647, 28.8410225 ], [ 77.3067182, 28.8411366 ], [ 77.3066158, 28.8413731 ], [ 77.3065414, 28.8414424 ], [ 77.3064436, 28.8414587 ], [ 77.3064436, 28.8413649 ], [ 77.3064762, 28.8412834 ], [ 77.3064064, 28.8411733 ], [ 77.3063785, 28.8411366 ], [ 77.3062901, 28.8410225 ], [ 77.3062156, 28.8409654 ], [ 77.30609, 28.8408594 ], [ 77.3060248, 28.8408064 ], [ 77.3059271, 28.8407738 ], [ 77.3058014, 28.8407616 ], [ 77.3056711, 28.8407575 ], [ 77.3055687, 28.8407861 ], [ 77.3054198, 28.8407983 ], [ 77.3053593, 28.8408146 ], [ 77.3054012, 28.840729 ], [ 77.3053966, 28.840676 ], [ 77.3054431, 28.8406067 ], [ 77.3054803, 28.8405455 ], [ 77.3055734, 28.840411 ], [ 77.3056804, 28.8404273 ], [ 77.3057875, 28.8404599 ], [ 77.3058387, 28.8405048 ], [ 77.3058992, 28.8405659 ], [ 77.305941, 28.84057 ], [ 77.3060108, 28.8404559 ], [ 77.3060713, 28.8404273 ], [ 77.3062482, 28.8403784 ], [ 77.3064995, 28.8403091 ], [ 77.3067135, 28.8402398 ], [ 77.3068904, 28.8402317 ] ] ] } },
{ "type": "Feature", "properties": { "element": "way", "id": 1191685931, "addr:district": null, "addr:full": null, "addr:postcode": null, "addr:state": null, "amenity": null, "name": null, "source": null, "addr:block": null, "addr:subdistrict": null, "description": null, "alt_name": null, "int_name": null, "old_name": null, "natural": "water", "water": "pond", "source:position": null, "source:tracer": null, "source:zoomlevel": null, "landuse": null, "man_made": null, "intermittent": null, "type": null }, "geometry": { "type": "Polygon", "coordinates": [ [ [ 77.3080166, 28.840036 ], [ 77.3082679, 28.840301 ], [ 77.3082353, 28.8407086 ], [ 77.308105, 28.8407168 ], [ 77.3079468, 28.8408146 ], [ 77.3079561, 28.8406841 ], [ 77.3080957, 28.8406515 ], [ 77.3081422, 28.8405782 ], [ 77.3080585, 28.840411 ], [ 77.3079514, 28.840305 ], [ 77.3078863, 28.8402357 ], [ 77.3076117, 28.8402561 ], [ 77.3075, 28.8403458 ], [ 77.3073325, 28.8404233 ], [ 77.3073139, 28.8405252 ], [ 77.307258, 28.8405741 ], [ 77.307165, 28.8405904 ], [ 77.3070998, 28.84057 ], [ 77.3070533, 28.8404722 ], [ 77.3070346, 28.8403458 ], [ 77.3071091, 28.8402683 ], [ 77.3071324, 28.8402154 ], [ 77.3072301, 28.8401624 ], [ 77.307272, 28.8401053 ], [ 77.3072953, 28.8400156 ], [ 77.3072953, 28.8399748 ], [ 77.3073604, 28.8399667 ], [ 77.3075047, 28.8399585 ], [ 77.3076257, 28.8399789 ], [ 77.3076722, 28.8401257 ], [ 77.3080166, 28.840036 ] ] ] } },
{ "type": "Feature", "properties": { "element": "way", "id": 1191686507, "addr:district": null, "addr:full": null, "addr:postcode": null, "addr:state": null, "amenity": null, "name": null, "source": null, "addr:block": null, "addr:subdistrict": null, "description": null, "alt_name": null, "int_name": null, "old_name": null, "natural": "water", "water": "basin", "source:position": null, "source:tracer": null, "source:zoomlevel": null, "landuse": null, "man_made": null, "intermittent": "yes", "type": null }, "geometry": { "type": "Polygon", "coordinates": [ [ [ 77.3206836, 28.8191953 ], [ 77.3210675, 28.8195031 ], [ 77.3208984, 28.8197597 ], [ 77.3208138, 28.8197027 ], [ 77.3206576, 28.8197654 ], [ 77.3205795, 28.8197141 ], [ 77.3206316, 28.8196514 ], [ 77.3208268, 28.8195887 ], [ 77.3206316, 28.8195488 ], [ 77.3207292, 28.819486 ], [ 77.3204949, 28.819486 ], [ 77.3206251, 28.8193834 ], [ 77.3205079, 28.8193606 ], [ 77.3206836, 28.8191953 ] ] ] } },
{ "type": "Feature", "properties": { "element": "way", "id": 1191686508, "addr:district": null, "addr:full": null, "addr:postcode": null, "addr:state": null, "amenity": null, "name": null, "source": null, "addr:block": null, "addr:subdistrict": null, "description": null, "alt_name": null, "int_name": null, "old_name": null, "natural": "water", "water": "pond", "source:position": null, "source:tracer": null, "source:zoomlevel": null, "landuse": null, "man_made": null, "intermittent": null, "type": null }, "geometry": { "type": "Polygon", "coordinates": [ [ [ 77.3175211, 28.8244289 ], [ 77.3175276, 28.8243491 ], [ 77.3178855, 28.8238816 ], [ 77.3183345, 28.8234598 ], [ 77.3184777, 28.8234027 ], [ 77.31879, 28.8238132 ], [ 77.3189332, 28.8237391 ], [ 77.3189071, 28.8238816 ], [ 77.3189592, 28.8240356 ], [ 77.3190178, 28.8240755 ], [ 77.3188811, 28.8241781 ], [ 77.3188681, 28.8242978 ], [ 77.3190113, 28.824389 ], [ 77.3188876, 28.8244118 ], [ 77.318816, 28.8244175 ], [ 77.3187445, 28.8244631 ], [ 77.3186143, 28.8245087 ], [ 77.3180937, 28.8247026 ], [ 77.317905, 28.8248565 ], [ 77.3177944, 28.8248622 ], [ 77.3176057, 28.824657 ], [ 77.3175211, 28.8244289 ] ] ] } },
{ "type": "Feature", "properties": { "element": "way", "id": 1193056102, "addr:district": null, "addr:full": null, "addr:postcode": null, "addr:state": null, "amenity": null, "name": null, "source": null, "addr:block": null, "addr:subdistrict": null, "description": null, "alt_name": null, "int_name": null, "old_name": null, "natural": "water", "water": "pond", "source:position": null, "source:tracer": null, "source:zoomlevel": null, "landuse": null, "man_made": null, "intermittent": null, "type": null }, "geometry": { "type": "Polygon", "coordinates": [ [ [ 77.336612, 28.8711615 ], [ 77.3365397, 28.8707878 ], [ 77.3364456, 28.8706294 ], [ 77.3363588, 28.8705471 ], [ 77.3362792, 28.8705471 ], [ 77.3358741, 28.8706041 ], [ 77.3357511, 28.8706611 ], [ 77.3357294, 28.8709081 ], [ 77.3357584, 28.8709905 ], [ 77.3360405, 28.8711489 ], [ 77.3362141, 28.8711806 ], [ 77.3363588, 28.8711932 ], [ 77.3365107, 28.8712059 ], [ 77.336612, 28.8711615 ] ] ] } },
{ "type": "Feature", "properties": { "element": "way", "id": 1193056184, "addr:district": null, "addr:full": null, "addr:postcode": null, "addr:state": null, "amenity": null, "name": null, "source": null, "addr:block": null, "addr:subdistrict": null, "description": null, "alt_name": null, "int_name": null, "old_name": null, "natural": "water", "water": "reservoir", "source:position": null, "source:tracer": null, "source:zoomlevel": null, "landuse": null, "man_made": "storage_tank", "intermittent": null, "type": null }, "geometry": { "type": "Polygon", "coordinates": [ [ [ 77.3295317, 28.8683724 ], [ 77.329553, 28.8683985 ], [ 77.3295891, 28.8684134 ], [ 77.3296232, 28.8683948 ], [ 77.3296402, 28.8683519 ], [ 77.3296338, 28.8683277 ], [ 77.3296126, 28.868309 ], [ 77.3295679, 28.8683053 ], [ 77.3295317, 28.8683258 ], [ 77.3295232, 28.86835 ], [ 77.3295317, 28.8683724 ] ] ] } },
{ "type": "Feature", "properties": { "element": "way", "id": 1193056433, "addr:district": null, "addr:full": null, "addr:postcode": null, "addr:state": null, "amenity": null, "name": null, "source": null, "addr:block": null, "addr:subdistrict": null, "description": null, "alt_name": null, "int_name": null, "old_name": null, "natural": "water", "water": "pond", "source:position": null, "source:tracer": null, "source:zoomlevel": null, "landuse": null, "man_made": null, "intermittent": null, "type": null }, "geometry": { "type": "Polygon", "coordinates": [ [ [ 77.3646654, 28.8608563 ], [ 77.3651938, 28.8603262 ], [ 77.365165, 28.8602757 ], [ 77.3650977, 28.8603052 ], [ 77.364872, 28.8602168 ], [ 77.3645261, 28.8601874 ], [ 77.3643243, 28.8602841 ], [ 77.3643435, 28.8603472 ], [ 77.3643003, 28.8604103 ], [ 77.3642186, 28.8604819 ], [ 77.3642186, 28.8605366 ], [ 77.3641706, 28.8605871 ], [ 77.3641322, 28.8606544 ], [ 77.3641706, 28.8607133 ], [ 77.3641994, 28.8607469 ], [ 77.3643243, 28.8605828 ], [ 77.364382, 28.8605576 ], [ 77.3644252, 28.8606123 ], [ 77.3644925, 28.8606249 ], [ 77.3645501, 28.8607049 ], [ 77.3645453, 28.8607932 ], [ 77.3645981, 28.8608269 ], [ 77.3646654, 28.8608563 ] ] ] } },
{ "type": "Feature", "properties": { "element": "way", "id": 1193056470, "addr:district": null, "addr:full": null, "addr:postcode": null, "addr:state": null, "amenity": null, "name": null, "source": null, "addr:block": null, "addr:subdistrict": null, "description": null, "alt_name": null, "int_name": null, "old_name": null, "natural": "water", "water": "pond", "source:position": null, "source:tracer": null, "source:zoomlevel": null, "landuse": null, "man_made": null, "intermittent": null, "type": null }, "geometry": { "type": "Polygon", "coordinates": [ [ [ 77.3611443, 28.8624829 ], [ 77.3619846, 28.8630348 ], [ 77.3620228, 28.8629679 ], [ 77.3620746, 28.8629082 ], [ 77.3621101, 28.8628891 ], [ 77.3621373, 28.862827 ], [ 77.3622001, 28.8627768 ], [ 77.3622437, 28.8627768 ], [ 77.3622847, 28.8627863 ], [ 77.3623256, 28.8627863 ], [ 77.362361, 28.862772 ], [ 77.3623911, 28.8627075 ], [ 77.3624156, 28.8626525 ], [ 77.3624402, 28.8626024 ], [ 77.3624647, 28.8625331 ], [ 77.3624702, 28.8624853 ], [ 77.3624811, 28.8624064 ], [ 77.3625029, 28.8623587 ], [ 77.362492, 28.8623348 ], [ 77.362492, 28.8623013 ], [ 77.362582, 28.8622774 ], [ 77.3625493, 28.8622392 ], [ 77.3625275, 28.8621962 ], [ 77.3624784, 28.8621627 ], [ 77.3624156, 28.8621938 ], [ 77.3623774, 28.8621699 ], [ 77.3623419, 28.862146 ], [ 77.3622983, 28.8621245 ], [ 77.3622383, 28.8620767 ], [ 77.3621428, 28.8621173 ], [ 77.3620582, 28.8621173 ], [ 77.3620091, 28.8620958 ], [ 77.3619627, 28.8620528 ], [ 77.3618672, 28.8620457 ], [ 77.361799, 28.8620313 ], [ 77.3617827, 28.8620815 ], [ 77.3616981, 28.862072 ], [ 77.3616326, 28.8621221 ], [ 77.3615835, 28.8621221 ], [ 77.361559, 28.8621866 ], [ 77.3614962, 28.8621962 ], [ 77.3613489, 28.8622918 ], [ 77.3611443, 28.8624829 ] ] ] } },
{ "type": "Feature", "properties": { "element": "way", "id": 1198488783, "addr:district": null, "addr:full": null, "addr:postcode": null, "addr:state": null, "amenity": null, "name": null, "source": null, "addr:block": null, "addr:subdistrict": null, "description": null, "alt_name": null, "int_name": null, "old_name": null, "natural": "water", "water": "pond", "source:position": null, "source:tracer": null, "source:zoomlevel": null, "landuse": null, "man_made": null, "intermittent": null, "type": null }, "geometry": { "type": "Polygon", "coordinates": [ [ [ 77.2767872, 28.8608605 ], [ 77.2767801, 28.8604797 ], [ 77.2773493, 28.8603961 ], [ 77.2774377, 28.8604363 ], [ 77.2773847, 28.8605261 ], [ 77.2772892, 28.8604549 ], [ 77.2772468, 28.8605014 ], [ 77.2773104, 28.8605819 ], [ 77.2774377, 28.8606469 ], [ 77.2773634, 28.860684 ], [ 77.2772998, 28.8606314 ], [ 77.2772538, 28.8606778 ], [ 77.2772185, 28.8606902 ], [ 77.2772008, 28.8607243 ], [ 77.2771372, 28.8607057 ], [ 77.2770983, 28.8607305 ], [ 77.2770523, 28.860746 ], [ 77.2770134, 28.8607367 ], [ 77.2769569, 28.8607274 ], [ 77.2769145, 28.8607862 ], [ 77.2768296, 28.8607429 ], [ 77.2767872, 28.8608605 ] ] ] } },
{ "type": "Feature", "properties": { "element": "way", "id": 1198488872, "addr:district": null, "addr:full": null, "addr:postcode": null, "addr:state": null, "amenity": null, "name": null, "source": null, "addr:block": null, "addr:subdistrict": null, "description": null, "alt_name": null, "int_name": null, "old_name": null, "natural": "water", "water": "pond", "source:position": null, "source:tracer": null, "source:zoomlevel": null, "landuse": null, "man_made": null, "intermittent": null, "type": null }, "geometry": { "type": "Polygon", "coordinates": [ [ [ 77.255143, 28.8502095 ], [ 77.2562354, 28.8494959 ], [ 77.2562984, 28.8494992 ], [ 77.2563873, 28.849564 ], [ 77.2565354, 28.8496905 ], [ 77.2566946, 28.8499046 ], [ 77.2566835, 28.849976 ], [ 77.2567613, 28.8499987 ], [ 77.2569353, 28.8502322 ], [ 77.2569761, 28.850336 ], [ 77.2569465, 28.8503814 ], [ 77.2570427, 28.8506863 ], [ 77.2570316, 28.8507577 ], [ 77.2569576, 28.8507382 ], [ 77.2569279, 28.8507674 ], [ 77.2569168, 28.8508323 ], [ 77.2567761, 28.8509328 ], [ 77.2566317, 28.8507479 ], [ 77.2565465, 28.8506669 ], [ 77.2563502, 28.8503652 ], [ 77.2562428, 28.8503684 ], [ 77.2558466, 28.8504917 ], [ 77.2557577, 28.8503133 ], [ 77.2556948, 28.8502484 ], [ 77.2556207, 28.8502484 ], [ 77.2552615, 28.8503879 ], [ 77.2551652, 28.8503328 ], [ 77.2551245, 28.8502809 ], [ 77.255143, 28.8502095 ] ] ] } },
{ "type": "Feature", "properties": { "element": "way", "id": 1200627509, "addr:district": null, "addr:full": null, "addr:postcode": null, "addr:state": null, "amenity": null, "name": null, "source": null, "addr:block": null, "addr:subdistrict": null, "description": null, "alt_name": null, "int_name": null, "old_name": null, "natural": "water", "water": "pond", "source:position": null, "source:tracer": null, "source:zoomlevel": null, "landuse": null, "man_made": null, "intermittent": null, "type": null }, "geometry": { "type": "Polygon", "coordinates": [ [ [ 77.3073897, 28.7995779 ], [ 77.3071266, 28.7992503 ], [ 77.3070851, 28.7990683 ], [ 77.3072512, 28.7989227 ], [ 77.3074589, 28.798947 ], [ 77.3075697, 28.7991897 ], [ 77.3076389, 28.7995051 ], [ 77.3073897, 28.7995779 ] ] ] } },
{ "type": "Feature", "properties": { "element": "way", "id": 1200627629, "addr:district": null, "addr:full": null, "addr:postcode": null, "addr:state": null, "amenity": null, "name": null, "source": null, "addr:block": null, "addr:subdistrict": null, "description": null, "alt_name": null, "int_name": null, "old_name": null, "natural": "water", "water": "pond", "source:position": null, "source:tracer": null, "source:zoomlevel": null, "landuse": null, "man_made": null, "intermittent": null, "type": null }, "geometry": { "type": "Polygon", "coordinates": [ [ [ 77.3416024, 28.8014482 ], [ 77.3412898, 28.8007319 ], [ 77.3414701, 28.8006477 ], [ 77.3417706, 28.8006687 ], [ 77.3418668, 28.8007635 ], [ 77.3420591, 28.800911 ], [ 77.3423717, 28.8009321 ], [ 77.3424799, 28.8011954 ], [ 77.3420591, 28.8013745 ], [ 77.3416024, 28.8014482 ] ] ] } },
{ "type": "Feature", "properties": { "element": "way", "id": 1200627630, "addr:district": null, "addr:full": null, "addr:postcode": null, "addr:state": null, "amenity": null, "name": null, "source": null, "addr:block": null, "addr:subdistrict": null, "description": null, "alt_name": null, "int_name": null, "old_name": null, "natural": "water", "water": "lake", "source:position": null, "source:tracer": null, "source:zoomlevel": null, "landuse": null, "man_made": null, "intermittent": null, "type": null }, "geometry": { "type": "Polygon", "coordinates": [ [ [ 77.3382126, 28.7998998 ], [ 77.3379962, 28.7996786 ], [ 77.3382607, 28.7995522 ], [ 77.3381284, 28.7992046 ], [ 77.3382847, 28.7991098 ], [ 77.338477, 28.7989202 ], [ 77.3388967, 28.7988766 ], [ 77.339042, 28.7991624 ], [ 77.3388978, 28.7993836 ], [ 77.3388978, 28.7996154 ], [ 77.3384891, 28.799826 ], [ 77.3382126, 28.7998998 ] ] ] } },
{ "type": "Feature", "properties": { "element": "way", "id": 1200627753, "addr:district": null, "addr:full": null, "addr:postcode": null, "addr:state": null, "amenity": null, "name": null, "source": null, "addr:block": null, "addr:subdistrict": null, "description": null, "alt_name": null, "int_name": null, "old_name": null, "natural": "water", "water": "pond", "source:position": null, "source:tracer": null, "source:zoomlevel": null, "landuse": null, "man_made": null, "intermittent": null, "type": null }, "geometry": { "type": "Polygon", "coordinates": [ [ [ 77.3594801, 28.8065911 ], [ 77.3592877, 28.8063278 ], [ 77.3592517, 28.8059907 ], [ 77.3593839, 28.8057485 ], [ 77.3596003, 28.8057169 ], [ 77.3598287, 28.8056958 ], [ 77.3599368, 28.8059065 ], [ 77.3599248, 28.8060645 ], [ 77.3598527, 28.8062962 ], [ 77.3594801, 28.8065911 ] ] ] } },
{ "type": "Feature", "properties": { "element": "way", "id": 1200627754, "addr:district": null, "addr:full": null, "addr:postcode": null, "addr:state": null, "amenity": null, "name": null, "source": null, "addr:block": null, "addr:subdistrict": null, "description": null, "alt_name": null, "int_name": null, "old_name": null, "natural": "water", "water": "lake", "source:position": null, "source:tracer": null, "source:zoomlevel": null, "landuse": null, "man_made": null, "intermittent": null, "type": null }, "geometry": { "type": "Polygon", "coordinates": [ [ [ 77.3554292, 28.8046214 ], [ 77.3556095, 28.8042317 ], [ 77.3552609, 28.8039578 ], [ 77.3552969, 28.803842 ], [ 77.3554772, 28.8037261 ], [ 77.3555974, 28.8035787 ], [ 77.3556576, 28.8035155 ], [ 77.3558138, 28.8034839 ], [ 77.3560783, 28.8036313 ], [ 77.3562586, 28.8037683 ], [ 77.3560061, 28.8040948 ], [ 77.3558499, 28.8040948 ], [ 77.3558018, 28.8042106 ], [ 77.3559581, 28.8042633 ], [ 77.3558859, 28.804653 ], [ 77.3558258, 28.8047584 ], [ 77.3557056, 28.8048637 ], [ 77.3555253, 28.8048005 ], [ 77.3554292, 28.8046214 ] ] ] } },
{ "type": "Feature", "properties": { "element": "way", "id": 1200630600, "addr:district": null, "addr:full": null, "addr:postcode": null, "addr:state": null, "amenity": null, "name": null, "source": null, "addr:block": null, "addr:subdistrict": null, "description": null, "alt_name": null, "int_name": null, "old_name": null, "natural": "water", "water": "pond", "source:position": null, "source:tracer": null, "source:zoomlevel": null, "landuse": null, "man_made": null, "intermittent": null, "type": null }, "geometry": { "type": "Polygon", "coordinates": [ [ [ 77.2949894, 28.8193603 ], [ 77.295052, 28.819235 ], [ 77.2953289, 28.8190511 ], [ 77.2954898, 28.8190041 ], [ 77.2956193, 28.8190707 ], [ 77.2956684, 28.8192272 ], [ 77.2956729, 28.8193877 ], [ 77.295588, 28.8195169 ], [ 77.295463, 28.8195638 ], [ 77.2953245, 28.8195873 ], [ 77.295186, 28.8195521 ], [ 77.2950386, 28.8195129 ], [ 77.2949894, 28.8193603 ] ] ] } },
{ "type": "Feature", "properties": { "element": "way", "id": 1200630748, "addr:district": null, "addr:full": null, "addr:postcode": null, "addr:state": null, "amenity": null, "name": null, "source": null, "addr:block": null, "addr:subdistrict": null, "description": null, "alt_name": null, "int_name": null, "old_name": null, "natural": "water", "water": "pond", "source:position": null, "source:tracer": null, "source:zoomlevel": null, "landuse": null, "man_made": null, "intermittent": null, "type": null }, "geometry": { "type": "Polygon", "coordinates": [ [ [ 77.3514446, 28.8163125 ], [ 77.3519089, 28.8166714 ], [ 77.3521684, 28.8164979 ], [ 77.3522981, 28.8163424 ], [ 77.3523459, 28.8160612 ], [ 77.3522572, 28.81581 ], [ 77.3521547, 28.8159176 ], [ 77.3516426, 28.8157083 ], [ 77.3514651, 28.8160672 ], [ 77.3514173, 28.8162048 ], [ 77.3514446, 28.8163125 ] ] ] } },
{ "type": "Feature", "properties": { "element": "way", "id": 1200630749, "addr:district": null, "addr:full": null, "addr:postcode": null, "addr:state": null, "amenity": null, "name": null, "source": null, "addr:block": null, "addr:subdistrict": null, "description": null, "alt_name": null, "int_name": null, "old_name": null, "natural": "water", "water": "lake", "source:position": null, "source:tracer": null, "source:zoomlevel": null, "landuse": null, "man_made": null, "intermittent": null, "type": null }, "geometry": { "type": "Polygon", "coordinates": [ [ [ 77.3583113, 28.8227123 ], [ 77.3581911, 28.8224911 ], [ 77.3582272, 28.8223647 ], [ 77.3584916, 28.8222384 ], [ 77.3584315, 28.8220909 ], [ 77.3588883, 28.821775 ], [ 77.3590686, 28.8220277 ], [ 77.3590566, 28.8222489 ], [ 77.3592128, 28.8224701 ], [ 77.3589364, 28.8227017 ], [ 77.3585878, 28.8227965 ], [ 77.3583113, 28.8227123 ] ] ] } },
{ "type": "Feature", "properties": { "element": "way", "id": 1200631028, "addr:district": null, "addr:full": null, "addr:postcode": null, "addr:state": null, "amenity": null, "name": null, "source": null, "addr:block": null, "addr:subdistrict": null, "description": null, "alt_name": null, "int_name": null, "old_name": null, "natural": "water", "water": "pond", "source:position": null, "source:tracer": null, "source:zoomlevel": null, "landuse": null, "man_made": null, "intermittent": null, "type": null }, "geometry": { "type": "Polygon", "coordinates": [ [ [ 77.3880411, 28.8100907 ], [ 77.3879449, 28.8099012 ], [ 77.3879329, 28.8097326 ], [ 77.3881493, 28.8096905 ], [ 77.3884498, 28.8097326 ], [ 77.3886421, 28.8100591 ], [ 77.3880411, 28.8100907 ] ] ] } },
{ "type": "Feature", "properties": { "element": "way", "id": 1200729585, "addr:district": null, "addr:full": null, "addr:postcode": null, "addr:state": null, "amenity": null, "name": null, "source": null, "addr:block": null, "addr:subdistrict": null, "description": null, "alt_name": null, "int_name": null, "old_name": null, "natural": "water", "water": "lake", "source:position": null, "source:tracer": null, "source:zoomlevel": null, "landuse": null, "man_made": null, "intermittent": null, "type": null }, "geometry": { "type": "Polygon", "coordinates": [ [ [ 77.3461401, 28.8337816 ], [ 77.3465007, 28.8331814 ], [ 77.3469094, 28.8329286 ], [ 77.347282, 28.8327917 ], [ 77.3474143, 28.8328444 ], [ 77.3476186, 28.8334446 ], [ 77.3471979, 28.8337921 ], [ 77.3469575, 28.8339817 ], [ 77.346669, 28.8340975 ], [ 77.3462964, 28.8341712 ], [ 77.3461401, 28.8337816 ] ] ] } },
{ "type": "Feature", "properties": { "element": "way", "id": 1373443817, "addr:district": null, "addr:full": null, "addr:postcode": null, "addr:state": null, "amenity": null, "name": null, "source": null, "addr:block": null, "addr:subdistrict": null, "description": null, "alt_name": null, "int_name": null, "old_name": null, "natural": "water", "water": "lake", "source:position": null, "source:tracer": null, "source:zoomlevel": null, "landuse": null, "man_made": null, "intermittent": null, "type": null }, "geometry": { "type": "Polygon", "coordinates": [ [ [ 77.2531157, 28.9717745 ], [ 77.252929, 28.9721478 ], [ 77.252929, 28.9722205 ], [ 77.2532244, 28.9727535 ], [ 77.2534783, 28.9729918 ], [ 77.2534876, 28.9731937 ], [ 77.2533722, 28.9732987 ], [ 77.2533583, 28.9733754 ], [ 77.2533583, 28.9740539 ], [ 77.2534639, 28.9744401 ], [ 77.2535785, 28.9746696 ], [ 77.253707, 28.9745854 ], [ 77.2538639, 28.9745733 ], [ 77.254044, 28.9747349 ], [ 77.2540624, 28.9748035 ], [ 77.2541409, 28.9748358 ], [ 77.2543163, 28.9748277 ], [ 77.2543994, 28.9747833 ], [ 77.2544132, 28.9747106 ], [ 77.2543348, 28.9744885 ], [ 77.254007, 28.9742382 ], [ 77.2539655, 28.9740968 ], [ 77.2539793, 28.9739393 ], [ 77.2541594, 28.9734547 ], [ 77.2541178, 28.9733901 ], [ 77.2540347, 28.9733659 ], [ 77.2538685, 28.973378 ], [ 77.2538316, 28.9733093 ], [ 77.2538455, 28.973067 ], [ 77.2541778, 28.9724249 ], [ 77.2543717, 28.9717909 ], [ 77.2542609, 28.9713871 ], [ 77.2540116, 28.9713427 ], [ 77.2538178, 28.9716698 ], [ 77.2535916, 28.9717465 ], [ 77.2532357, 28.9717382 ], [ 77.2531157, 28.9717745 ] ] ] } },
{ "type": "Feature", "properties": { "element": "way", "id": 1442435358, "addr:district": null, "addr:full": null, "addr:postcode": null, "addr:state": null, "amenity": null, "name": null, "source": null, "addr:block": null, "addr:subdistrict": null, "description": null, "alt_name": null, "int_name": null, "old_name": null, "natural": "water", "water": "pond", "source:position": null, "source:tracer": null, "source:zoomlevel": null, "landuse": null, "man_made": null, "intermittent": null, "type": null }, "geometry": { "type": "Polygon", "coordinates": [ [ [ 77.378567, 28.8682494 ], [ 77.3782266, 28.868462 ], [ 77.3782674, 28.8685747 ], [ 77.3786667, 28.8690649 ], [ 77.3790409, 28.8688312 ], [ 77.378567, 28.8682494 ] ] ] } },
{ "type": "Feature", "properties": { "element": "way", "id": 1442435359, "addr:district": null, "addr:full": null, "addr:postcode": null, "addr:state": null, "amenity": null, "name": null, "source": null, "addr:block": null, "addr:subdistrict": null, "description": null, "alt_name": null, "int_name": null, "old_name": null, "natural": "water", "water": "pond", "source:position": null, "source:tracer": null, "source:zoomlevel": null, "landuse": null, "man_made": null, "intermittent": null, "type": null }, "geometry": { "type": "Polygon", "coordinates": [ [ [ 77.3789852, 28.8679486 ], [ 77.3785455, 28.8681821 ], [ 77.3790626, 28.8688075 ], [ 77.3793928, 28.8686229 ], [ 77.3790943, 28.8681062 ], [ 77.3789852, 28.8679486 ] ] ] } },
{ "type": "Feature", "properties": { "element": "way", "id": 1442435360, "addr:district": null, "addr:full": null, "addr:postcode": null, "addr:state": null, "amenity": null, "name": null, "source": null, "addr:block": null, "addr:subdistrict": null, "description": null, "alt_name": null, "int_name": null, "old_name": null, "natural": "water", "water": "pond", "source:position": null, "source:tracer": null, "source:zoomlevel": null, "landuse": null, "man_made": null, "intermittent": null, "type": null }, "geometry": { "type": "Polygon", "coordinates": [ [ [ 77.3798838, 28.8674739 ], [ 77.3789941, 28.8679419 ], [ 77.3794503, 28.8686072 ], [ 77.3803402, 28.8681391 ], [ 77.3798838, 28.8674739 ] ] ] } }
]
}
